{
  "version": 0.6,
  "generator": "Overpass API 0.7.62.8 e802775f",
  "osm3s": {
    "timestamp_osm_base": "2025-12-02T13:14:22Z",
    "copyright": "The data included in this document is from www.openstreetmap.org. The data is made available under ODbL."
  },
  "elements": [

{
  "type": "node",
  "id": 316867697,
  "lat": -18.9372017,
  "lon": 47.5977896,
  "tags": {
    "amenity": "bus_station",
    "bus": "yes"
  }
},
{
  "type": "node",
  "id": 335739804,
  "lat": -22.1403144,
  "lon": 48.0134518,
  "tags": {
    "name": "Manakara",
    "operator": "FCE",
    "public_transport": "station",
    "railway": "station",
    "train": "yes"
  }
},
{
  "type": "node",
  "id": 335740773,
  "lat": -21.9303606,
  "lon": 47.9215145,
  "tags": {
    "name": "Mizilo",
    "operator": "FCE",
    "public_transport": "station",
    "railway": "station",
    "train": "yes"
  }
},
{
  "type": "node",
  "id": 335741448,
  "lat": -21.7679540,
  "lon": 47.7732632,
  "tags": {
    "name": "Fenomby",
    "operator": "FCE",
    "public_transport": "station",
    "railway": "station",
    "train": "yes"
  }
},
{
  "type": "node",
  "id": 335742608,
  "lat": -21.7521538,
  "lon": 47.7137313,
  "tags": {
    "name": "Mahabako",
    "operator": "FCE",
    "public_transport": "station",
    "railway": "station",
    "train": "yes"
  }
},
{
  "type": "node",
  "id": 335742626,
  "lat": -21.6693471,
  "lon": 47.5815042,
  "tags": {
    "name": "Ambinany Manampatrana",
    "operator": "FCE",
    "public_transport": "station",
    "railway": "station",
    "train": "yes"
  }
},
{
  "type": "node",
  "id": 335744728,
  "lat": -21.4773856,
  "lon": 47.3872037,
  "tags": {
    "name": "Ranomena",
    "operator": "FCE",
    "public_transport": "station",
    "railway": "station",
    "train": "yes"
  }
},
{
  "type": "node",
  "id": 335745515,
  "lat": -21.4461345,
  "lon": 47.2596088,
  "tags": {
    "name": "Sahambavy",
    "operator": "FCE",
    "public_transport": "station",
    "railway": "station",
    "train": "yes"
  }
},
{
  "type": "node",
  "id": 335745572,
  "lat": -21.4189726,
  "lon": 47.1640701,
  "tags": {
    "name": "Vohimasina",
    "public_transport": "station",
    "railway": "station",
    "train": "yes"
  }
},
{
  "type": "node",
  "id": 335746821,
  "lat": -21.4478254,
  "lon": 47.0904116,
  "tags": {
    "name": "Fianarantsoa",
    "operator": "FCE",
    "public_transport": "station",
    "railway": "station",
    "train": "yes"
  }
},
{
  "type": "node",
  "id": 335757276,
  "lat": -21.8082556,
  "lon": 47.8393370,
  "tags": {
    "name": "Sahasinaka",
    "operator": "FCE",
    "public_transport": "station",
    "railway": "station",
    "train": "yes"
  }
},
{
  "type": "node",
  "id": 335761430,
  "lat": -21.5599133,
  "lon": 47.5155540,
  "tags": {
    "name": "Tolongoina",
    "operator": "FCE",
    "public_transport": "station",
    "railway": "station",
    "train": "yes"
  }
},
{
  "type": "node",
  "id": 335762214,
  "lat": -21.5352468,
  "lon": 47.4824779,
  "tags": {
    "name": "Madiorano",
    "operator": "FCE",
    "public_transport": "station",
    "railway": "station",
    "train": "yes"
  }
},
{
  "type": "node",
  "id": 335762937,
  "lat": -21.5139325,
  "lon": 47.4279914,
  "tags": {
    "name": "Andrambovato",
    "operator": "FCE",
    "public_transport": "station",
    "railway": "station",
    "train": "yes"
  }
},
{
  "type": "node",
  "id": 335763648,
  "lat": -21.4810402,
  "lon": 47.3070595,
  "tags": {
    "name": "Ampitambe",
    "operator": "FCE",
    "public_transport": "station",
    "railway": "station",
    "train": "yes"
  }
},
{
  "type": "node",
  "id": 335803824,
  "lat": -18.9031635,
  "lon": 47.5210347,
  "tags": {
    "name": "Soarano",
    "operator": "Madarail",
    "public_transport": "station",
    "railway": "station",
    "wikidata": "Q20571241",
    "wikipedia": "fr:Gare de Soarano"
  }
},
{
  "type": "node",
  "id": 443387763,
  "lat": -19.8648704,
  "lon": 47.0385998,
  "tags": {
    "name": "Antsirabe",
    "name:ar": "أنتسيرابي",
    "public_transport": "station",
    "railway": "station",
    "train": "yes"
  }
},
{
  "type": "node",
  "id": 443403053,
  "lat": -19.8761992,
  "lon": 47.0359139,
  "tags": {
    "amenity": "bus_station",
    "name": "Stationnement local"
  }
},
{
  "type": "node",
  "id": 581190289,
  "lat": -18.9243261,
  "lon": 48.4165887,
  "tags": {
    "name": "Andasibe",
    "public_transport": "station",
    "railway": "station",
    "train": "yes"
  }
},
{
  "type": "node",
  "id": 589666212,
  "lat": -18.8546475,
  "lon": 47.4798950,
  "tags": {
    "amenity": "bus_station",
    "name": "Terminus 194 Andravoahangy",
    "ref": "Ligne_194 Rouge"
  }
},
{
  "type": "node",
  "id": 590835598,
  "lat": -18.9249853,
  "lon": 47.8144705,
  "tags": {
    "name": "Manjakandriana",
    "public_transport": "station",
    "railway": "station",
    "train": "yes"
  }
},
{
  "type": "node",
  "id": 595731096,
  "lat": -18.8183123,
  "lon": 49.0669526,
  "tags": {
    "name": "Brickaville",
    "public_transport": "station",
    "railway": "station",
    "train": "yes"
  }
},
{
  "type": "node",
  "id": 691477981,
  "lat": -23.3547610,
  "lon": 43.6809422,
  "tags": {
    "amenity": "bus_station",
    "name": "Stationnement National et Régional Sanfily"
  }
},
{
  "type": "node",
  "id": 709046192,
  "lat": -20.2878272,
  "lon": 44.2818934,
  "tags": {
    "amenity": "bus_station",
    "bus": "yes",
    "public_transport": "station"
  }
},
{
  "type": "node",
  "id": 710814399,
  "lat": -19.3826121,
  "lon": 47.4414666,
  "tags": {
    "name": "Ambatolampy",
    "public_transport": "station",
    "railway": "station",
    "train": "yes"
  }
},
{
  "type": "node",
  "id": 724366628,
  "lat": -18.9420923,
  "lon": 47.6612136,
  "tags": {
    "public_transport": "station",
    "railway": "station",
    "train": "yes"
  }
},
{
  "type": "node",
  "id": 727284591,
  "lat": -25.1778934,
  "lon": 46.0785307,
  "tags": {
    "amenity": "bus_station",
    "ele": "127"
  }
},
{
  "type": "node",
  "id": 727292571,
  "lat": -22.1554665,
  "lon": 48.0038828,
  "tags": {
    "amenity": "bus_station"
  }
},
{
  "type": "node",
  "id": 727298887,
  "lat": -20.5249941,
  "lon": 47.2494000,
  "tags": {
    "amenity": "bus_station",
    "name": "Gare routière"
  }
},
{
  "type": "node",
  "id": 1332794068,
  "lat": -21.8340482,
  "lon": 46.9266762,
  "tags": {
    "amenity": "bus_station",
    "public_transport": "station"
  }
},
{
  "type": "node",
  "id": 1425349507,
  "lat": -18.5985011,
  "lon": 49.2477188,
  "tags": {
    "name": "Andranokoditra",
    "public_transport": "station",
    "railway": "station",
    "train": "yes"
  }
},
{
  "type": "node",
  "id": 1429796876,
  "lat": -18.9201690,
  "lon": 48.5368122,
  "tags": {
    "name": "Fanovana",
    "public_transport": "station",
    "railway": "station",
    "train": "yes"
  }
},
{
  "type": "node",
  "id": 1429796879,
  "lat": -18.7981419,
  "lon": 48.6018619,
  "tags": {
    "name": "Andekaleka",
    "public_transport": "station",
    "railway": "station",
    "train": "yes"
  }
},
{
  "type": "node",
  "id": 1429862585,
  "lat": -18.7963797,
  "lon": 48.7947048,
  "tags": {
    "name": "Fanasana",
    "public_transport": "station",
    "railway": "station",
    "train": "yes"
  }
},
{
  "type": "node",
  "id": 1429863889,
  "lat": -18.7882523,
  "lon": 48.6811420,
  "tags": {
    "name": "Lohariandava",
    "public_transport": "station",
    "railway": "station",
    "train": "yes"
  }
},
{
  "type": "node",
  "id": 1430311566,
  "lat": -18.7311728,
  "lon": 48.9803247,
  "tags": {
    "name": "Anivorano",
    "public_transport": "station",
    "railway": "station",
    "train": "yes"
  }
},
{
  "type": "node",
  "id": 1635338556,
  "lat": -18.8837692,
  "lon": 47.9778512,
  "tags": {
    "name": "Anjiro",
    "public_transport": "station",
    "railway": "station",
    "train": "yes"
  }
},
{
  "type": "node",
  "id": 1636457106,
  "lat": -18.2198472,
  "lon": 48.2662011,
  "tags": {
    "name": "Andaingo",
    "public_transport": "station",
    "railway": "station",
    "train": "yes"
  }
},
{
  "type": "node",
  "id": 1636457139,
  "lat": -18.4387514,
  "lon": 48.2728841,
  "tags": {
    "name": "Amboasary",
    "public_transport": "station",
    "railway": "station",
    "train": "yes"
  }
},
{
  "type": "node",
  "id": 1636457235,
  "lat": -18.6057071,
  "lon": 48.2771178,
  "tags": {
    "name": "Ambohidray",
    "public_transport": "station",
    "railway": "station",
    "train": "yes"
  }
},
{
  "type": "node",
  "id": 1640752334,
  "lat": -19.5260787,
  "lon": 47.4319608,
  "tags": {
    "name": "Ambohimandroso",
    "public_transport": "station",
    "railway": "station",
    "train": "yes"
  }
},
{
  "type": "node",
  "id": 1640752335,
  "lat": -19.7729021,
  "lon": 47.1148334,
  "tags": {
    "name": "Andranomanelatra",
    "public_transport": "station",
    "railway": "station",
    "train": "yes"
  }
},
{
  "type": "node",
  "id": 1804467090,
  "lat": -18.9478646,
  "lon": 48.2299438,
  "tags": {
    "amenity": "bus_station"
  }
},
{
  "type": "node",
  "id": 1909997403,
  "lat": -19.2134269,
  "lon": 47.4886667,
  "tags": {
    "name": "Behenjy",
    "public_transport": "station",
    "railway": "station",
    "train": "yes"
  }
},
{
  "type": "node",
  "id": 1963917238,
  "lat": -19.6604270,
  "lon": 46.5322035,
  "tags": {
    "amenity": "bus_station",
    "name": "Gare routière d'Ankazomiriotra"
  }
},
{
  "type": "node",
  "id": 1968478538,
  "lat": -18.8526084,
  "lon": 47.4659941,
  "tags": {
    "amenity": "bus_station",
    "bus": "yes",
    "name": "Terminus 112 Morondava",
    "note": "Bleu",
    "public_transport": "station"
  }
},
{
  "type": "node",
  "id": 1968478539,
  "lat": -18.8590267,
  "lon": 47.4727235,
  "tags": {
    "amenity": "bus_station",
    "name": "Terminus 112 Andranoro",
    "note": "Rouge"
  }
},
{
  "type": "node",
  "id": 1969406391,
  "lat": -18.9124730,
  "lon": 47.5448360,
  "tags": {
    "amenity": "bus_station",
    "bus": "yes",
    "name": "Terminus Bus 194 V",
    "public_transport": "station"
  }
},
{
  "type": "node",
  "id": 1969406392,
  "lat": -18.9126580,
  "lon": 47.5478939,
  "tags": {
    "amenity": "bus_station",
    "bus": "yes",
    "name": "Terminus Bus 194B et 194V",
    "public_transport": "station"
  }
},
{
  "type": "node",
  "id": 1969417540,
  "lat": -18.9542032,
  "lon": 47.5157759,
  "tags": {
    "amenity": "bus_station",
    "name": "Terminus Bus 159"
  }
},
{
  "type": "node",
  "id": 1997083407,
  "lat": -18.9623379,
  "lon": 48.3373378,
  "tags": {
    "name": "Ampasimpotsy",
    "public_transport": "station",
    "railway": "station",
    "train": "yes"
  }
},
{
  "type": "node",
  "id": 1997089796,
  "lat": -18.8862783,
  "lon": 48.5646196,
  "tags": {
    "name": "Ambatovola",
    "public_transport": "station",
    "railway": "station",
    "train": "yes"
  }
},
{
  "type": "node",
  "id": 2359208715,
  "lat": -22.1308731,
  "lon": 48.0133894,
  "tags": {
    "amenity": "bus_station",
    "name": "Stationnement Avaratra"
  }
},
{
  "type": "node",
  "id": 2529148415,
  "lat": -18.9288589,
  "lon": 47.4967235,
  "tags": {
    "amenity": "bus_station",
    "bus": "yes",
    "name": "Terminus 138",
    "public_transport": "station"
  }
},
{
  "type": "node",
  "id": 3256289566,
  "lat": -18.7324443,
  "lon": 48.9787767,
  "tags": {
    "amenity": "bus_station",
    "name": "Taxi-Brousse Station",
    "note": "Brousses run daily, roughly from 5am to 5pm Monday through Satuday and limited on Sunday, leaving when full. The fare is 3,000 Ariary one way. Depending on the size, brousses fill to 18-25 people. The trip to Brickaville, the district capital, takes 1hr."
  }
},
{
  "type": "node",
  "id": 3600257949,
  "lat": -18.8408267,
  "lon": 49.1536672,
  "tags": {
    "name": "Ambila Lemaitso",
    "public_transport": "station",
    "railway": "station",
    "train": "yes"
  }
},
{
  "type": "node",
  "id": 3642704594,
  "lat": -18.8547287,
  "lon": 47.4799963,
  "tags": {
    "addr:city": "Antananarivo",
    "addr:postcode": "101",
    "addr:street": "Làlana Andranomena",
    "amenity": "bus_station",
    "bus": "yes",
    "name": "Terminus 194 Analamahitsy",
    "public_transport": "station",
    "ref": "Ligne_194 Bleu"
  }
},
{
  "type": "node",
  "id": 3642704595,
  "lat": -18.8553344,
  "lon": 47.4801194,
  "tags": {
    "amenity": "bus_station",
    "name": "Terminus 194 Fasankarana",
    "ref": "Ligne_194 Vert"
  }
},
{
  "type": "node",
  "id": 3696893901,
  "lat": -21.4260359,
  "lon": 47.1011078,
  "tags": {
    "amenity": "bus_station",
    "name": "Stationnement Ikalamavony",
    "network": "MG:regional",
    "public_transport": "station"
  }
},
{
  "type": "node",
  "id": 3869413853,
  "lat": -18.8928741,
  "lon": 47.5296742,
  "tags": {
    "amenity": "bus_station",
    "contact:email": "cotissetana@alpa.mg",
    "contact:phone": "+261321102733",
    "name": "Cotisse Transport",
    "website": "https://cotisse-transport.com/home"
  }
},
{
  "type": "node",
  "id": 3904829120,
  "lat": -18.8081725,
  "lon": 47.4725252,
  "tags": {
    "amenity": "bus_station",
    "bus": "yes",
    "name": "Mamory"
  }
},
{
  "type": "node",
  "id": 3989373186,
  "lat": -21.8298692,
  "lon": 46.9404146,
  "tags": {
    "amenity": "bus_station",
    "network": "MG:regional",
    "public_transport": "station"
  }
},
{
  "type": "node",
  "id": 4047413231,
  "lat": -18.8994687,
  "lon": 47.5176544,
  "tags": {
    "amenity": "bus_station",
    "bus": "yes",
    "highway": "bus_stop",
    "name": "Primus Ligne D - Vassacos",
    "public_transport": "station"
  }
},
{
  "type": "node",
  "id": 4047413245,
  "lat": -18.8984442,
  "lon": 47.5174154,
  "tags": {
    "amenity": "bus_station",
    "name": "Stationnement Vassacos"
  }
},
{
  "type": "node",
  "id": 4271717790,
  "lat": -21.6154640,
  "lon": 47.5677131,
  "tags": {
    "name": "Amboanjobe",
    "operator": "FCE",
    "public_transport": "station",
    "railway": "station",
    "train": "yes"
  }
},
{
  "type": "node",
  "id": 4273741466,
  "lat": -19.6416704,
  "lon": 47.1585698,
  "tags": {
    "name": "Sambaina",
    "public_transport": "station",
    "railway": "station",
    "train": "yes"
  }
},
{
  "type": "node",
  "id": 4273745029,
  "lat": -19.6401649,
  "lon": 47.3140800,
  "tags": {
    "name": "Ilempona",
    "public_transport": "station",
    "railway": "station",
    "train": "yes"
  }
},
{
  "type": "node",
  "id": 4283888779,
  "lat": -18.9116758,
  "lon": 47.7062484,
  "tags": {
    "public_transport": "station",
    "railway": "station",
    "train": "yes"
  }
},
{
  "type": "node",
  "id": 4288374702,
  "lat": -18.5241474,
  "lon": 49.2791888,
  "tags": {
    "name": "Tampina",
    "public_transport": "station",
    "railway": "station",
    "train": "yes"
  }
},
{
  "type": "node",
  "id": 4293545713,
  "lat": -18.8802961,
  "lon": 47.5427299,
  "tags": {
    "amenity": "bus_station",
    "operator": "CTVA"
  }
},
{
  "type": "node",
  "id": 4453443688,
  "lat": -18.9536008,
  "lon": 46.9075493,
  "tags": {
    "amenity": "bus_station",
    "operator": "KOFIMANDIDY et FIFIAMI"
  }
},
{
  "type": "node",
  "id": 4539620496,
  "lat": -19.8872933,
  "lon": 47.0403856,
  "tags": {
    "amenity": "bus_station",
    "name:en": "South Bus Station",
    "name:es": "Estación Sur de Autobuses"
  }
},
{
  "type": "node",
  "id": 4700192489,
  "lat": -18.8975384,
  "lon": 47.5599069,
  "tags": {
    "amenity": "bus_station",
    "bus": "yes",
    "name:en": "Terminus 147",
    "operator": "Copérative Tselatra",
    "public_transport": "station"
  }
},
{
  "type": "node",
  "id": 5072717813,
  "lat": -20.2915540,
  "lon": 44.2771750,
  "tags": {
    "amenity": "bus_station",
    "bus": "yes",
    "name:en": "Cotisse",
    "name:fr": "Sonatra Plus",
    "public_transport": "station"
  }
},
{
  "type": "node",
  "id": 5074111722,
  "lat": -19.8887024,
  "lon": 47.0397489,
  "tags": {
    "amenity": "bus_station"
  }
},
{
  "type": "node",
  "id": 5099892021,
  "lat": -23.3621150,
  "lon": 43.6703046,
  "tags": {
    "amenity": "bus_station",
    "name:en": "Anakao express boatservice"
  }
},
{
  "type": "node",
  "id": 5114278026,
  "lat": -18.1495345,
  "lon": 49.4044224,
  "tags": {
    "addr:city": "Toamasina",
    "addr:postcode": "501",
    "addr:street": "Boulevard d'Andevoranto",
    "amenity": "bus_station",
    "bus": "yes",
    "name": "Transport Vatsy",
    "name:en": "Transport VATSY",
    "operator": "Transport Vatsy",
    "public_transport": "station"
  }
},
{
  "type": "node",
  "id": 5116627521,
  "lat": -18.1498715,
  "lon": 49.4044668,
  "tags": {
    "amenity": "bus_station",
    "bus": "yes",
    "name:en": "BESADY",
    "public_transport": "station"
  }
},
{
  "type": "node",
  "id": 5116627721,
  "lat": -18.1498312,
  "lon": 49.4044240,
  "tags": {
    "amenity": "bus_station",
    "bus": "yes",
    "name:en": "COTRAMADY",
    "public_transport": "station"
  }
},
{
  "type": "node",
  "id": 5116627722,
  "lat": -18.1490343,
  "lon": 49.4039949,
  "tags": {
    "amenity": "bus_station",
    "bus": "yes",
    "name:en": "BESADY+",
    "public_transport": "station"
  }
},
{
  "type": "node",
  "id": 5116627723,
  "lat": -18.1488649,
  "lon": 49.4037114,
  "tags": {
    "amenity": "bus_station",
    "bus": "yes",
    "name:en": "ANJARA TRANS",
    "public_transport": "station"
  }
},
{
  "type": "node",
  "id": 5209508023,
  "lat": -18.1487714,
  "lon": 49.4035309,
  "tags": {
    "amenity": "bus_station",
    "bus": "yes",
    "name:en": "Trans JIABY",
    "public_transport": "station"
  }
},
{
  "type": "node",
  "id": 5209509023,
  "lat": -18.1491828,
  "lon": 49.4034703,
  "tags": {
    "amenity": "bus_station",
    "bus": "yes",
    "name:en": "TRANS RAPIDE",
    "public_transport": "station"
  }
},
{
  "type": "node",
  "id": 5209509024,
  "lat": -18.1487400,
  "lon": 49.4029304,
  "tags": {
    "amenity": "bus_station",
    "bus": "yes",
    "name:en": "MADAGASCAR VOYAGE",
    "public_transport": "station"
  }
},
{
  "type": "node",
  "id": 5209509122,
  "lat": -18.1503362,
  "lon": 49.4049444,
  "tags": {
    "amenity": "bus_station",
    "bus": "yes",
    "name:en": "COTRANSU RN5",
    "public_transport": "station"
  }
},
{
  "type": "node",
  "id": 5336143922,
  "lat": -21.2355883,
  "lon": 48.3472402,
  "tags": {
    "amenity": "bus_station",
    "bus": "yes",
    "name:en": "Taxi-Bruss Station",
    "name:ru": "Автостанция такси-брюсс",
    "public_transport": "station"
  }
},
{
  "type": "node",
  "id": 5356894621,
  "lat": -22.4827749,
  "lon": 46.8870165,
  "tags": {
    "amenity": "bus_station",
    "name:en": "Taxi-bruss station"
  }
},
{
  "type": "node",
  "id": 5431604447,
  "lat": -18.8975663,
  "lon": 47.4958183,
  "tags": {
    "addr:street": "RN4, Rocade Andohatapenaka",
    "amenity": "bus_station",
    "name:en": "Gare Routière Maki",
    "name:fr": "Gare Routière Maki"
  }
},
{
  "type": "node",
  "id": 5431608238,
  "lat": -18.8828925,
  "lon": 47.5412556,
  "tags": {
    "addr:street": "RN3",
    "amenity": "bus_station",
    "name:fr": "Gare Routière Trans NIAINA",
    "opening_hours": "24/7"
  }
},
{
  "type": "node",
  "id": 5442335640,
  "lat": -18.9477029,
  "lon": 47.5720929,
  "tags": {
    "amenity": "bus_station",
    "name": "terminus I commune Mahatsinjo"
  }
},
{
  "type": "node",
  "id": 5527444422,
  "lat": -23.3648754,
  "lon": 43.6958123,
  "tags": {
    "addr:street": "RN7",
    "amenity": "bus_station",
    "name:en": "Trans Malala office Tulear",
    "phone": "034 26 537 77",
    "website": "http://www.transmalala.com"
  }
},
{
  "type": "node",
  "id": 5527444423,
  "lat": -23.3595136,
  "lon": 43.6674292,
  "tags": {
    "amenity": "bus_station",
    "name:en": "Transfert Anakao office - boat transfer",
    "phone": "020 94 922 20",
    "website": "https://transfert-anakao.com/"
  }
},
{
  "type": "node",
  "id": 5573364795,
  "lat": -18.9358344,
  "lon": 47.5953001,
  "tags": {
    "amenity": "bus_station",
    "bus": "yes"
  }
},
{
  "type": "node",
  "id": 5573419328,
  "lat": -18.9329736,
  "lon": 47.5794598,
  "tags": {
    "amenity": "bus_station",
    "bus": "yes"
  }
},
{
  "type": "node",
  "id": 5589041894,
  "lat": -19.1374803,
  "lon": 47.1724150,
  "tags": {
    "amenity": "bus_station",
    "name": "Terminus Taxi-Brousse Arivonimamo-Amboanana",
    "public_transport": "platform"
  }
},
{
  "type": "node",
  "id": 5650717973,
  "lat": -21.8338997,
  "lon": 46.9261188,
  "tags": {
    "amenity": "bus_station",
    "name:en": "Kofifi (Nationale)"
  }
},
{
  "type": "node",
  "id": 5669675839,
  "lat": -18.8091671,
  "lon": 47.4825608,
  "tags": {
    "amenity": "bus_station",
    "bus": "yes",
    "name": "Tsena"
  }
},
{
  "type": "node",
  "id": 5669675841,
  "lat": -18.8063955,
  "lon": 47.4792044,
  "tags": {
    "amenity": "bus_station",
    "bus": "yes",
    "name": "Essence"
  }
},
{
  "type": "node",
  "id": 5669675843,
  "lat": -18.8066707,
  "lon": 47.4760050,
  "tags": {
    "amenity": "bus_station",
    "bus": "yes",
    "name": "Pompe"
  }
},
{
  "type": "node",
  "id": 5669675845,
  "lat": -18.8196439,
  "lon": 47.4665469,
  "tags": {
    "amenity": "bus_station",
    "bus": "yes",
    "name": "13"
  }
},
{
  "type": "node",
  "id": 5669675847,
  "lat": -18.8506268,
  "lon": 47.4779744,
  "tags": {
    "amenity": "bus_station",
    "bus": "yes",
    "name": "Plaque"
  }
},
{
  "type": "node",
  "id": 5729653310,
  "lat": -18.6899371,
  "lon": 47.3729313,
  "tags": {
    "amenity": "bus_station",
    "name": "Primus/Terminus Taxi-Brousse Mahitsy-Antanetibe Mahazaza"
  }
},
{
  "type": "node",
  "id": 5738510649,
  "lat": -19.8645891,
  "lon": 47.0261072,
  "tags": {
    "amenity": "bus_station",
    "bench": "no",
    "highway": "bus_stop",
    "name": "Voirie",
    "public_transport": "platform",
    "shelter": "no"
  }
},
{
  "type": "node",
  "id": 5796258846,
  "lat": -18.8809519,
  "lon": 47.5427867,
  "tags": {
    "amenity": "bus_station",
    "name": "Soava Tsara Transport",
    "network": "Zone Nationale"
  }
},
{
  "type": "node",
  "id": 5805932277,
  "lat": -18.7693031,
  "lon": 46.0464719,
  "tags": {
    "amenity": "bus_station",
    "bus": "yes",
    "network": "MG:suburban",
    "public_transport": "station"
  }
},
{
  "type": "node",
  "id": 5805932278,
  "lat": -18.7732699,
  "lon": 46.0520603,
  "tags": {
    "amenity": "bus_station",
    "bus": "yes",
    "network": "MG:suburban",
    "public_transport": "station"
  }
},
{
  "type": "node",
  "id": 6026405866,
  "lat": -19.8775192,
  "lon": 47.0358340,
  "tags": {
    "amenity": "bus_station",
    "name": "Mpanao pneu"
  }
},
{
  "type": "node",
  "id": 6026406926,
  "lat": -19.8658900,
  "lon": 46.9763241,
  "tags": {
    "amenity": "bus_station",
    "name": "Terminus bus ligne 5 Andraikiba"
  }
},
{
  "type": "node",
  "id": 6026407108,
  "lat": -19.8649778,
  "lon": 47.0113878,
  "tags": {
    "amenity": "bus_station",
    "name": "Sampanan'ivohitra",
    "public_transport": "platform"
  }
},
{
  "type": "node",
  "id": 6026407268,
  "lat": -19.8969805,
  "lon": 47.0423245,
  "tags": {
    "amenity": "bus_station",
    "name": "Terminus bus ligne 12 seminaire Ambohimena"
  }
},
{
  "type": "node",
  "id": 6026407673,
  "lat": -19.8372273,
  "lon": 47.0450444,
  "tags": {
    "amenity": "bus_station",
    "name": "Primus bus ligne 16 Vatofotsy"
  }
},
{
  "type": "node",
  "id": 6026407692,
  "lat": -19.8437028,
  "lon": 47.0379803,
  "tags": {
    "amenity": "bus_station",
    "name": "Terminus bus ligne 12"
  }
},
{
  "type": "node",
  "id": 6026407727,
  "lat": -19.8815721,
  "lon": 47.0465075,
  "tags": {
    "amenity": "bus_station",
    "name": "Terminus Bus ligne 13"
  }
},
{
  "type": "node",
  "id": 6026408176,
  "lat": -19.9364715,
  "lon": 47.0506116,
  "tags": {
    "amenity": "bus_station",
    "name": "Terminus 10 Antsira"
  }
},
{
  "type": "node",
  "id": 6027925366,
  "lat": -19.8842192,
  "lon": 47.0099265,
  "tags": {
    "amenity": "bus_station",
    "name": "Terminus bus ligne 14 Tsenan'omby"
  }
},
{
  "type": "node",
  "id": 6027925859,
  "lat": -19.9420242,
  "lon": 47.0417963,
  "tags": {
    "amenity": "bus_station",
    "name": "Terminus bus ligne 17 Lavarano"
  }
},
{
  "type": "node",
  "id": 6028771570,
  "lat": -19.8176237,
  "lon": 47.0756787,
  "tags": {
    "amenity": "bus_station",
    "name": "Primus bus ligne 17 Soroka Iray"
  }
},
{
  "type": "node",
  "id": 6030371680,
  "lat": -19.8637840,
  "lon": 46.9712957,
  "tags": {
    "amenity": "bus_station",
    "bus": "yes",
    "name": "Terminus bus ligne 11 Talata",
    "public_transport": "station"
  }
},
{
  "type": "node",
  "id": 6031731891,
  "lat": -19.8581220,
  "lon": 47.0169609,
  "tags": {
    "amenity": "bus_station",
    "name": "Terminus bus ligne 18 Ampahitra"
  }
},
{
  "type": "node",
  "id": 6031731957,
  "lat": -19.8855880,
  "lon": 47.0480091,
  "tags": {
    "amenity": "bus_station",
    "name": "Primus bus ligne 18 cite MELIA"
  }
},
{
  "type": "node",
  "id": 6034011466,
  "lat": -19.8593924,
  "lon": 46.9511262,
  "tags": {
    "amenity": "bus_station",
    "name": "Terminus bus ligne 4 Ambohidrano"
  }
},
{
  "type": "node",
  "id": 6034711645,
  "lat": -19.8188533,
  "lon": 47.0724047,
  "tags": {
    "amenity": "bus_station",
    "name": "Primus bus ligne 11 Antsaha"
  }
},
{
  "type": "node",
  "id": 6034711646,
  "lat": -19.9009165,
  "lon": 47.0429714,
  "tags": {
    "amenity": "bus_station",
    "name": "Terminus bus ligne 16 SOBA Ambohimena"
  }
},
{
  "type": "node",
  "id": 6034711647,
  "lat": -19.8286746,
  "lon": 47.0543641,
  "tags": {
    "amenity": "bus_station",
    "name": "Terminus bus ligne 14 Antsampanimahazo"
  }
},
{
  "type": "node",
  "id": 6034711648,
  "lat": -19.8442347,
  "lon": 47.0390736,
  "tags": {
    "amenity": "bus_station",
    "name": "Primus bus ligne 12 Stationnement Vatofotsy"
  }
},
{
  "type": "node",
  "id": 6034711649,
  "lat": -19.8357925,
  "lon": 47.0375003,
  "tags": {
    "amenity": "bus_station",
    "name": "Terminus bus ligne 11 Dalle Vatofotsy"
  }
},
{
  "type": "node",
  "id": 6034711650,
  "lat": -19.8273167,
  "lon": 47.0564710,
  "tags": {
    "amenity": "bus_station",
    "name": "Terminus bus ligne 5BIS Antsampanimahazo"
  }
},
{
  "type": "node",
  "id": 6040961691,
  "lat": -19.8239604,
  "lon": 47.0625661,
  "tags": {
    "amenity": "bus_station",
    "name": "Terminus bus ligne 5 Tombontsoa"
  }
},
{
  "type": "node",
  "id": 6281856206,
  "lat": -18.9438188,
  "lon": 48.2306936,
  "tags": {
    "name": "Moramanga",
    "platforms": "2",
    "public_transport": "station",
    "railway": "station",
    "train": "yes"
  }
},
{
  "type": "node",
  "id": 6393470386,
  "lat": -18.8950930,
  "lon": 47.5613484,
  "tags": {
    "amenity": "bus_station",
    "bus": "yes",
    "name:en": "Bushtaxi Ambatomanga",
    "public_transport": "station"
  }
},
{
  "type": "node",
  "id": 6393478385,
  "lat": -18.8950316,
  "lon": 47.5613754,
  "tags": {
    "amenity": "bus_station",
    "bus": "yes",
    "name:en": "Bushtaxi Mantasoa",
    "public_transport": "station"
  }
},
{
  "type": "node",
  "id": 6411425185,
  "lat": -19.5227047,
  "lon": 47.4320541,
  "tags": {
    "amenity": "bus_station",
    "name": "Gare Routière (Tana-Ambohimandroso, Ambohimandroso-Antsirabe)"
  }
},
{
  "type": "node",
  "id": 6411425186,
  "lat": -19.5256840,
  "lon": 47.4316290,
  "tags": {
    "amenity": "bus_station",
    "name": "Gare Routière (Tana-Ambohimandroso, Ambohimandroso-Antanifotsy)"
  }
},
{
  "type": "node",
  "id": 6424857286,
  "lat": -18.9418190,
  "lon": 47.6616164,
  "tags": {
    "amenity": "bus_station",
    "bus": "yes",
    "name": "Taxi Brousse Anjeva",
    "name:en": "Terminus Anjeva",
    "public_transport": "station"
  }
},
{
  "type": "node",
  "id": 6449340385,
  "lat": -20.2923551,
  "lon": 44.2758115,
  "tags": {
    "amenity": "bus_station",
    "bus": "yes",
    "name:en": "Taxi-brousse to Belo-sur-Mer",
    "public_transport": "station"
  }
},
{
  "type": "node",
  "id": 6466065885,
  "lat": -20.2975105,
  "lon": 44.2826569,
  "tags": {
    "amenity": "bus_station",
    "bus": "yes",
    "name:en": "TSY TARA minibuses to Tana",
    "public_transport": "station"
  }
},
{
  "type": "node",
  "id": 6472194403,
  "lat": -20.3034354,
  "lon": 44.2679523,
  "tags": {
    "amenity": "bus_station",
    "name:en": "Boats to Belo-sur-mer",
    "name:fr": "Pirogues vers Belo-sur-mer"
  }
},
{
  "type": "node",
  "id": 6673050656,
  "lat": -18.0574739,
  "lon": 44.0304679,
  "tags": {
    "amenity": "bus_station",
    "bus": "yes",
    "name": "Stationnement KOFIMANDIDY",
    "operator": "KOFIMANDIDY",
    "public_transport": "station"
  }
},
{
  "type": "node",
  "id": 6673207787,
  "lat": -18.8737815,
  "lon": 47.4868413,
  "tags": {
    "amenity": "bus_station",
    "name": "Terminus Bus 114 Ambodihady"
  }
},
{
  "type": "node",
  "id": 6680031310,
  "lat": -18.0570281,
  "lon": 44.0276219,
  "tags": {
    "amenity": "bus_station",
    "bus": "yes",
    "name": "Stationnement FIFITSI",
    "public_transport": "station"
  }
},
{
  "type": "node",
  "id": 6702213351,
  "lat": -18.6757055,
  "lon": 44.6220297,
  "tags": {
    "amenity": "bus_station",
    "name": "Stationnement Taxi brousse"
  }
},
{
  "type": "node",
  "id": 6711776947,
  "lat": -20.2961524,
  "lon": 44.4009967,
  "tags": {
    "amenity": "bus_station",
    "bus": "yes",
    "name": "Stationnement Belo Tsiribihina",
    "public_transport": "station"
  }
},
{
  "type": "node",
  "id": 6715089778,
  "lat": -19.7038957,
  "lon": 44.5456211,
  "tags": {
    "amenity": "bus_station",
    "name": "Stationnement Taxi Brousse",
    "operator": "MAFiO"
  }
},
{
  "type": "node",
  "id": 6777604344,
  "lat": -22.8187652,
  "lon": 47.8182095,
  "tags": {
    "amenity": "bus_station",
    "internet_access": "no",
    "name": "Gare routière farafangana"
  }
},
{
  "type": "node",
  "id": 6883393315,
  "lat": -19.6181037,
  "lon": 47.1392273,
  "tags": {
    "amenity": "bus_station",
    "name": "Primus Taxi Brousse"
  }
},
{
  "type": "node",
  "id": 6883393316,
  "lat": -19.6178258,
  "lon": 47.1386419,
  "tags": {
    "amenity": "bus_station",
    "name": "Terminus Taxi Brousse"
  }
},
{
  "type": "node",
  "id": 7167467695,
  "lat": -18.9752740,
  "lon": 47.4283450,
  "tags": {
    "amenity": "bus_station",
    "name": "Terminus G Cur"
  }
},
{
  "type": "node",
  "id": 7434425886,
  "lat": -18.9211105,
  "lon": 47.5209340,
  "tags": {
    "amenity": "bus_station",
    "bus": "yes",
    "name:en": "SoaTrans",
    "public_transport": "station"
  }
},
{
  "type": "node",
  "id": 7590076349,
  "lat": -21.6441531,
  "lon": 47.1593674,
  "tags": {
    "amenity": "bus_station"
  }
},
{
  "type": "node",
  "id": 7657593185,
  "lat": -18.8800634,
  "lon": 47.5421800,
  "tags": {
    "addr:housenumber": "3",
    "addr:postcode": "101",
    "addr:street": "Andranobevava",
    "amenity": "bus_station",
    "name:en": "SAVA MIRINDRA TRANSPORT",
    "name:fr": "Transporteur SAVA MIRINDRA",
    "opening_hours": "Mo-Sa 09:00-18:00",
    "phone": "0326530841"
  }
},
{
  "type": "node",
  "id": 7873180874,
  "lat": -18.9202479,
  "lon": 47.5243041,
  "tags": {
    "amenity": "bus_station",
    "bus": "yes",
    "name": "Mahamasina",
    "public_transport": "station",
    "ref": "Ligne 017"
  }
},
{
  "type": "node",
  "id": 8065861644,
  "lat": -20.2431713,
  "lon": 47.3847935,
  "tags": {
    "amenity": "bus_station"
  }
},
{
  "type": "node",
  "id": 8403206453,
  "lat": -19.8382842,
  "lon": 46.8543760,
  "tags": {
    "amenity": "bus_station",
    "name": "Bus Station"
  }
},
{
  "type": "node",
  "id": 8568469276,
  "lat": -18.9376450,
  "lon": 47.5537405,
  "tags": {
    "name": "Mandroseza",
    "public_transport": "station",
    "railway": "station",
    "train": "yes"
  }
},
{
  "type": "node",
  "id": 9132957168,
  "lat": -18.8681880,
  "lon": 47.5604682,
  "tags": {
    "amenity": "bus_station",
    "name": "Primus 126 Antanetibe"
  }
},
{
  "type": "node",
  "id": 9132981633,
  "lat": -18.9907957,
  "lon": 47.5027249,
  "tags": {
    "amenity": "bus_station",
    "name": "Terminus Bus Ankadivoribe-Andoharanofotsy"
  }
},
{
  "type": "node",
  "id": 9474084964,
  "lat": -21.6989228,
  "lon": 47.9617958,
  "tags": {
    "amenity": "bus_station",
    "name": "Stationnement Analavory - Ampasimanjeva",
    "public_transport": "station"
  }
},
{
  "type": "node",
  "id": 9491673894,
  "lat": -21.8833417,
  "lon": 43.8954541,
  "tags": {
    "amenity": "bus_station",
    "name": "Gare routiere",
    "note": "taxi-brousse"
  }
},
{
  "type": "node",
  "id": 9491678922,
  "lat": -21.6061811,
  "lon": 43.6747622,
  "tags": {
    "amenity": "bus_station",
    "name": "Gare routiere"
  }
},
{
  "type": "node",
  "id": 9492289898,
  "lat": -22.1043865,
  "lon": 43.8938840,
  "tags": {
    "amenity": "bus_station",
    "name": "Stationnement de taxi brousse de befandriana -sud"
  }
},
{
  "type": "node",
  "id": 9498103776,
  "lat": -22.4075093,
  "lon": 46.1244896,
  "tags": {
    "amenity": "bus_station",
    "bus": "yes",
    "name": "Stationnement Analaliry",
    "public_transport": "station"
  }
},
{
  "type": "node",
  "id": 9518820004,
  "lat": -23.3526276,
  "lon": 43.6793263,
  "tags": {
    "amenity": "bus_station",
    "name": "Bonne chance"
  }
},
{
  "type": "node",
  "id": 9533744562,
  "lat": -22.0724961,
  "lon": 43.2388013,
  "tags": {
    "amenity": "bus_station",
    "note": "taxi-brousse"
  }
},
{
  "type": "node",
  "id": 9544465227,
  "lat": -21.7033430,
  "lon": 43.7454036,
  "tags": {
    "amenity": "bus_station",
    "name": "Stationnement de taxi brousse Tanandava"
  }
},
{
  "type": "node",
  "id": 9552426946,
  "lat": -21.7434329,
  "lon": 43.3607078,
  "tags": {
    "amenity": "bus_station",
    "note": "taxi-brousse"
  }
},
{
  "type": "node",
  "id": 9552446993,
  "lat": -21.7041685,
  "lon": 43.7463658,
  "tags": {
    "amenity": "bus_station",
    "note": "taxi_brousse"
  }
},
{
  "type": "node",
  "id": 9562233901,
  "lat": -21.6710735,
  "lon": 43.5323730,
  "tags": {
    "amenity": "bus_station",
    "fixme": "from local knowledge but exact location to check",
    "note": "taxi-brousse"
  }
},
{
  "type": "node",
  "id": 9562233902,
  "lat": -21.6828656,
  "lon": 43.5213116,
  "tags": {
    "amenity": "bus_station",
    "fixme": "from local knowledge but exact location to check",
    "note": "taxi-brousse"
  }
},
{
  "type": "node",
  "id": 9562233904,
  "lat": -21.7250637,
  "lon": 43.4939825,
  "tags": {
    "amenity": "bus_station",
    "fixme": "from local knowledge but exact location to check",
    "note": "taxi-brousse"
  }
},
{
  "type": "node",
  "id": 9586172837,
  "lat": -24.9853182,
  "lon": 44.1075926,
  "tags": {
    "amenity": "bus_station",
    "note": "taxi-brousse"
  }
},
{
  "type": "node",
  "id": 9791979480,
  "lat": -18.1504274,
  "lon": 49.4041418,
  "tags": {
    "amenity": "bus_station",
    "bus": "yes",
    "name": "Trans Ravinala Weendy Class",
    "public_transport": "station"
  }
},
{
  "type": "node",
  "id": 9871944820,
  "lat": -19.0290582,
  "lon": 47.4214058,
  "tags": {
    "amenity": "bus_station",
    "name": "Tsionjoarivo"
  }
},
{
  "type": "node",
  "id": 9939397879,
  "lat": -18.9053705,
  "lon": 47.5259052,
  "tags": {
    "amenity": "bus_station",
    "name": "Terminus"
  }
},
{
  "type": "node",
  "id": 10056819917,
  "lat": -18.9662050,
  "lon": 47.5339656,
  "tags": {
    "addr:postcode": "102",
    "addr:street": "Route d’Ankaraobato",
    "amenity": "bus_station",
    "name:fr": "Trans-Denis"
  }
},
{
  "type": "node",
  "id": 10243075431,
  "lat": -23.3577270,
  "lon": 43.6839986,
  "tags": {
    "amenity": "bus_station",
    "note": "taxi-brousse"
  }
},
{
  "type": "node",
  "id": 10784268971,
  "lat": -24.6936082,
  "lon": 44.7475564,
  "tags": {
    "amenity": "bus_station",
    "note": "taxi-brousse"
  }
},
{
  "type": "node",
  "id": 10836642020,
  "lat": -18.9981810,
  "lon": 47.5359052,
  "tags": {
    "amenity": "bus_station",
    "name": "Terminus bus 137,187,172"
  }
},
{
  "type": "node",
  "id": 10836642022,
  "lat": -18.9771579,
  "lon": 47.5330165,
  "tags": {
    "amenity": "bus_station"
  }
},
{
  "type": "node",
  "id": 10976833708,
  "lat": -23.3507786,
  "lon": 47.6037028,
  "tags": {
    "amenity": "bus_station",
    "network": "MG:national"
  }
},
{
  "type": "node",
  "id": 10976833720,
  "lat": -23.3491888,
  "lon": 47.6050664,
  "tags": {
    "amenity": "bus_station",
    "network": "MG:national"
  }
},
{
  "type": "node",
  "id": 11028307091,
  "lat": -19.8644142,
  "lon": 47.0342735,
  "tags": {
    "amenity": "bus_station",
    "name": "Soatrans Plus"
  }
},
{
  "type": "node",
  "id": 11030372469,
  "lat": -19.8649116,
  "lon": 47.0355796,
  "tags": {
    "amenity": "bus_station",
    "name": "Sotrate"
  }
},
{
  "type": "node",
  "id": 11041595762,
  "lat": -20.4197752,
  "lon": 47.3333357,
  "tags": {
    "amenity": "bus_station",
    "name": "Gare Routière Imito"
  }
},
{
  "type": "node",
  "id": 11042847761,
  "lat": -21.4408427,
  "lon": 47.0974310,
  "tags": {
    "addr:city": "Fianarantsoa",
    "addr:housenumber": "Ambalafary",
    "addr:postcode": "301",
    "amenity": "bus_station",
    "bus": "yes",
    "contact:phone": "+261 34 777 02",
    "internet_access": "yes",
    "name": "Coopérative SOATRANS Plus",
    "operator": "Transporteur privé",
    "public_transport": "station"
  }
},
{
  "type": "node",
  "id": 11052056205,
  "lat": -23.3472585,
  "lon": 43.6715176,
  "tags": {
    "amenity": "bus_station",
    "name:en": "Cotisse Transport",
    "name:fr": "Cotisse Transport",
    "phone": "0321202710",
    "website": "https://cotisse-transport.com/"
  }
},
{
  "type": "node",
  "id": 11064825721,
  "lat": -21.4483273,
  "lon": 47.0900036,
  "tags": {
    "addr:city": "Fianarantsoa",
    "addr:housenumber": "7",
    "addr:postcode": "301",
    "addr:street": "Route Nationale",
    "amenity": "bus_station",
    "bus": "yes",
    "name": "Sonatra Plus",
    "phone": "+261321102733",
    "public_transport": "station"
  }
},
{
  "type": "node",
  "id": 11068165303,
  "lat": -22.8221841,
  "lon": 47.8273888,
  "tags": {
    "amenity": "bus_station",
    "name": "Rapide Service"
  }
},
{
  "type": "node",
  "id": 11078885355,
  "lat": -18.9299868,
  "lon": 47.5832831,
  "tags": {
    "name": "Amoronakona",
    "public_transport": "station",
    "railway": "station",
    "train": "yes"
  }
},
{
  "type": "node",
  "id": 11078885372,
  "lat": -18.9475518,
  "lon": 47.5336952,
  "tags": {
    "name": "Androndrakely",
    "public_transport": "station",
    "railway": "station",
    "train": "yes"
  }
},
{
  "type": "node",
  "id": 11078885381,
  "lat": -18.9403485,
  "lon": 47.5220256,
  "tags": {
    "name": "Soanierana",
    "public_transport": "station",
    "railway": "station",
    "train": "yes"
  }
},
{
  "type": "node",
  "id": 11082697172,
  "lat": -18.7680961,
  "lon": 46.0472029,
  "tags": {
    "addr:city": "Tsiroanomandidy",
    "addr:postcode": "111",
    "amenity": "bus_station",
    "bus": "yes",
    "name": "Gare routière Ampivarotakisoa",
    "public_transport": "station"
  }
},
{
  "type": "node",
  "id": 11082895628,
  "lat": -20.5265640,
  "lon": 47.2496698,
  "tags": {
    "addr:city": "Ambositra",
    "addr:housenumber": "7",
    "addr:place": "Iajaky",
    "addr:postcode": "306",
    "amenity": "bus_station",
    "bus": "yes",
    "name": "Soatrans",
    "public_transport": "station"
  }
},
{
  "type": "node",
  "id": 11083622310,
  "lat": -18.0848662,
  "lon": 48.2403184,
  "tags": {
    "name": "Anoairoa",
    "public_transport": "station",
    "railway": "station",
    "train": "yes"
  }
},
{
  "type": "node",
  "id": 11083622417,
  "lat": -18.1565047,
  "lon": 48.2532931,
  "tags": {
    "public_transport": "station",
    "railway": "station",
    "train": "yes"
  }
},
{
  "type": "node",
  "id": 11085659964,
  "lat": -22.8217916,
  "lon": 47.8242766,
  "tags": {
    "amenity": "bus_station",
    "bus": "yes",
    "name": "Stationement Lotragnambo",
    "public_transport": "station"
  }
},
{
  "type": "node",
  "id": 11089065497,
  "lat": -18.9431249,
  "lon": 47.5995604,
  "tags": {
    "name": "Ambohimanambola",
    "public_transport": "station",
    "railway": "station",
    "train": "yes"
  }
},
{
  "type": "node",
  "id": 11089245532,
  "lat": -18.9276970,
  "lon": 47.8831677,
  "tags": {
    "name": "Ambatolaona",
    "public_transport": "station",
    "railway": "station",
    "train": "yes"
  }
},
{
  "type": "node",
  "id": 11090085421,
  "lat": -21.2394300,
  "lon": 48.3458666,
  "tags": {
    "addr:city": "Mananjary",
    "addr:postcode": "317",
    "amenity": "bus_station",
    "bus": "yes",
    "name": "Stationnement régional",
    "public_transport": "station"
  }
},
{
  "type": "node",
  "id": 11259334757,
  "lat": -18.9970885,
  "lon": 46.4693285,
  "tags": {
    "amenity": "bus_station",
    "name": "Gare routière"
  }
},
{
  "type": "node",
  "id": 11761871769,
  "lat": -23.3474091,
  "lon": 43.6713429,
  "tags": {
    "amenity": "bus_station",
    "name": "cotisse transport"
  }
},
{
  "type": "node",
  "id": 11849665946,
  "lat": -18.9061201,
  "lon": 47.5225054,
  "tags": {
    "amenity": "bus_station",
    "bus": "yes",
    "name": "Transport Première Classe",
    "public_transport": "station"
  }
},
{
  "type": "node",
  "id": 11866141349,
  "lat": -18.9454006,
  "lon": 47.5246070,
  "tags": {
    "amenity": "bus_station",
    "bus": "yes",
    "name": "Gare routière FICOTRANS Ankadimbahoaka",
    "public_transport": "station"
  }
},
{
  "type": "node",
  "id": 11866189234,
  "lat": -19.3806567,
  "lon": 47.4398136,
  "tags": {
    "amenity": "bus_station",
    "bus": "yes",
    "name": "Gare routière SOATRANS AMBATOLAMPY",
    "operator": "SOATRANS",
    "public_transport": "station"
  }
},
{
  "type": "node",
  "id": 12124334394,
  "lat": -18.8939348,
  "lon": 47.5487381,
  "tags": {
    "amenity": "bus_station",
    "bus": "yes",
    "name": "Gare Ampasampito",
    "public_transport": "station"
  }
},
{
  "type": "node",
  "id": 12549716422,
  "lat": -18.0516992,
  "lon": 44.0244263,
  "tags": {
    "amenity": "bus_station",
    "bus": "yes",
    "name": "Trans Fy Aina",
    "public_transport": "station"
  }
},
{
  "type": "node",
  "id": 13041279001,
  "lat": -25.3183653,
  "lon": 45.4839367,
  "tags": {
    "amenity": "bus_station",
    "name": "Gare routiere"
  }
},
{
  "type": "node",
  "id": 13095703545,
  "lat": -18.8771314,
  "lon": 47.5733385,
  "tags": {
    "amenity": "bus_station",
    "name": "Primus/Terminus 135 Ambohibe"
  }
},
{
  "type": "node",
  "id": 13306370501,
  "lat": -18.9466003,
  "lon": 48.2280633,
  "tags": {
    "amenity": "bus_station",
    "name:fr": "TAFITA CLASS MORAMANGA"
  }
},
{
  "type": "node",
  "id": 13306374601,
  "lat": -18.9480269,
  "lon": 48.2301116,
  "tags": {
    "amenity": "bus_station",
    "name:fr": "KOMPIMA"
  }
},
{
  "type": "node",
  "id": 13306374801,
  "lat": -18.9478908,
  "lon": 48.2297948,
  "tags": {
    "amenity": "bus_station",
    "name:fr": "KOFIMANGA"
  }
},
{
  "type": "node",
  "id": 13306376001,
  "lat": -18.9478516,
  "lon": 48.2301308,
  "tags": {
    "amenity": "bus_station",
    "name:fr": "KOFIMA"
  }
},
{
  "type": "node",
  "id": 13306377201,
  "lat": -18.9479018,
  "lon": 48.2302372,
  "tags": {
    "amenity": "bus_station",
    "name:fr": "TAFITA"
  }
},
{
  "type": "node",
  "id": 13307890001,
  "lat": -18.8935255,
  "lon": 47.5524712,
  "tags": {
    "amenity": "bus_station",
    "name:fr": "Tafita class"
  }
},
{
  "type": "node",
  "id": 13317257601,
  "lat": -18.8916955,
  "lon": 47.5580235,
  "tags": {
    "amenity": "bus_station",
    "name:fr": "Transam"
  }
},
{
  "type": "way",
  "id": 37800941,
  "nodes": [
    443385457,
    443385458,
    5023360928,
    5023360929,
    5023360930,
    5023360938,
    443385456,
    443385461,
    5023360937,
    5023360936,
    5023360935,
    5023360933,
    5023360934,
    443385462,
    443385459,
    443385460,
    5023360932,
    5023360931,
    443385457
  ],
  "tags": {
    "amenity": "bus_station",
    "name": "Stationnement sud"
  }
},
{
  "type": "way",
  "id": 37800986,
  "nodes": [
    443385107,
    443385109,
    10774077303,
    443385110,
    443385112,
    443385107
  ],
  "tags": {
    "amenity": "bus_station",
    "bus": "yes",
    "name": "North Bus Station",
    "public_transport": "station"
  }
},
{
  "type": "way",
  "id": 37828795,
  "nodes": [
    443645155,
    443645159,
    443645157,
    443645172,
    443645173,
    443645168,
    443645166,
    443645167,
    443645164,
    5017455175,
    443645165,
    443645174,
    443645155
  ],
  "tags": {
    "amenity": "bus_station",
    "name": "Stationnement Ouest"
  }
},
{
  "type": "way",
  "id": 53578792,
  "nodes": [
    676825748,
    676825735,
    676825733,
    676826561,
    676825754,
    676825755,
    676825756,
    676825748
  ],
  "tags": {
    "amenity": "bus_station",
    "bus": "yes",
    "public_transport": "station"
  }
},
{
  "type": "way",
  "id": 59591816,
  "nodes": [
    739293659,
    739293667,
    739293670,
    739293675,
    739293678,
    739293682,
    739293685,
    739293688,
    739293691,
    739293659
  ],
  "tags": {
    "amenity": "bus_station",
    "name": "Stationnement Taxi-brousse Fasan'ny Karana",
    "note": "Stationnement taxi-brousse du sud"
  }
},
{
  "type": "way",
  "id": 70257290,
  "nodes": [
    838828788,
    838828792,
    838828795,
    838828798,
    838828788
  ],
  "tags": {
    "amenity": "bus_station",
    "bus": "yes",
    "name": "Stationnement taxi-brousse d'Ambodivona",
    "public_transport": "station"
  }
},
{
  "type": "way",
  "id": 70870494,
  "nodes": [
    844904750,
    844904752,
    844904754,
    844904757,
    844904758,
    844904759,
    844904760,
    844904762,
    844904766,
    844904772,
    844904775,
    8458670166,
    844904750
  ],
  "tags": {
    "amenity": "bus_station",
    "building": "yes",
    "bus": "yes",
    "name": "Gare routière Ampasampito",
    "public_transport": "station"
  }
},
{
  "type": "way",
  "id": 114869455,
  "nodes": [
    1300054944,
    3812445959,
    12709432047,
    1300055152,
    1300054976,
    1300054944
  ],
  "tags": {
    "amenity": "bus_station",
    "bus": "yes",
    "name": "Stationnement Avaratra",
    "network": "MG:regional",
    "public_transport": "station"
  }
},
{
  "type": "way",
  "id": 114984519,
  "nodes": [
    3701697126,
    1300926248,
    12615323080,
    1300926126,
    1300926008,
    3701695817,
    3701697127,
    3701697126
  ],
  "tags": {
    "amenity": "bus_station",
    "image": "https://upload.wikimedia.org/wikipedia/commons/a/aa/Bush_taxi_parking.jpg",
    "name": "Stationnement Atsimo",
    "network": "MG:national",
    "public_transport": "station"
  }
},
{
  "type": "way",
  "id": 119501887,
  "nodes": [
    1342568341,
    1342568087,
    1342568285,
    1342568116,
    1342568341
  ],
  "tags": {
    "amenity": "bus_station"
  }
},
{
  "type": "way",
  "id": 169776733,
  "nodes": [
    1809349820,
    1809349811,
    1809349809,
    1809349802,
    5072717813,
    1809349807,
    1809349813,
    1809349815,
    1809349820
  ],
  "tags": {
    "amenity": "bus_station",
    "bus": "yes",
    "public_transport": "station"
  }
},
{
  "type": "way",
  "id": 191059788,
  "nodes": [
    2016459420,
    2016459414,
    5157568104,
    2016459412,
    2016459419,
    5157568105,
    2016459421,
    2016535817,
    2016459423,
    2016535820,
    2016459418,
    5464934108,
    2016459410,
    2016459417,
    2016459420
  ],
  "tags": {
    "amenity": "bus_station",
    "bus": "yes",
    "name": "Gare routière de Tsiroanomandidy",
    "public_transport": "station",
    "source": "bing"
  }
},
{
  "type": "way",
  "id": 318955835,
  "nodes": [
    3253582122,
    3253582109,
    3253582095,
    3253582116,
    3253582122
  ],
  "tags": {
    "building": "yes",
    "operator": "FCE",
    "public_transport": "station",
    "railway": "station"
  }
},
{
  "type": "way",
  "id": 321487175,
  "nodes": [
    3282379511,
    3282379513,
    3282379512,
    8715295602,
    3282379510,
    3282379511
  ],
  "tags": {
    "amenity": "bus_station",
    "name": "Gare Routière du Sud",
    "public_transport": "station"
  }
},
{
  "type": "way",
  "id": 321489741,
  "nodes": [
    3282407028,
    3549389869,
    3549389868,
    3282407026,
    3282407025,
    3549389867,
    3166554962,
    3166554961,
    3166554963,
    3282407027,
    3166555001,
    3166555004,
    3282407029,
    3282407030,
    3282407028
  ],
  "tags": {
    "amenity": "bus_station",
    "bus": "yes",
    "name": "Bâtiment Madarail",
    "public_transport": "station"
  }
},
{
  "type": "way",
  "id": 321500053,
  "nodes": [
    3282498325,
    3282498323,
    3282498324,
    3282498322,
    3282498327,
    3282498330,
    3282498332,
    3282498334,
    3282498333,
    3282498331,
    3282498328,
    3282498326,
    3282498325
  ],
  "tags": {
    "amenity": "bus_station",
    "bus": "yes",
    "public_transport": "station"
  }
},
{
  "type": "way",
  "id": 373181790,
  "nodes": [
    3766935655,
    3766935656,
    3766937557,
    3766937558,
    3766937559,
    3766935655
  ],
  "tags": {
    "amenity": "bus_station"
  }
},
{
  "type": "way",
  "id": 510735097,
  "nodes": [
    4996782038,
    4996782037,
    4999889686,
    4996782036,
    4999889682,
    4996782035,
    4996782038
  ],
  "tags": {
    "amenity": "bus_station",
    "bus": "yes",
    "public_transport": "station"
  }
},
{
  "type": "way",
  "id": 542891071,
  "nodes": [
    5248407273,
    5248407272,
    5248407271,
    5248407270,
    5248407269,
    5248407268,
    5248407267,
    5642637994,
    5248407266,
    5248407265,
    5248407264,
    5248407263,
    5248407262,
    5248407261,
    5248407260,
    5248407259,
    5248407258,
    5248407257,
    5248407256,
    5248407273
  ],
  "tags": {
    "amenity": "bus_station",
    "name": "Primus/Terminus 163"
  }
},
{
  "type": "way",
  "id": 561525267,
  "nodes": [
    5414315196,
    5414315198,
    5414315199,
    5414315197,
    5414315196
  ],
  "tags": {
    "amenity": "bus_station",
    "name": "Terminus KOMAFILA Marobiby"
  }
},
{
  "type": "way",
  "id": 561554114,
  "nodes": [
    5414519576,
    5414519575,
    5414519574,
    5414519573,
    5414519572,
    5414519568,
    5414519563,
    5414519562,
    5414519576
  ],
  "tags": {
    "amenity": "bus_station",
    "bus": "yes",
    "name": "Terminus Bus 178 Manga Andraisoro",
    "public_transport": "station"
  }
},
{
  "type": "way",
  "id": 563864131,
  "nodes": [
    5420300114,
    5573419322,
    5420300116,
    5420300111,
    5442335688,
    5420300113,
    5420300114
  ],
  "tags": {
    "amenity": "bus_station",
    "name": "Terminus I Ambohijatovo"
  }
},
{
  "type": "way",
  "id": 563864132,
  "nodes": [
    5433307306,
    5433307305,
    5433307304,
    5433307303,
    5433307302,
    5433307301,
    5433307300,
    5433307299,
    5433307298,
    5433307297,
    5433307296,
    5433307295,
    5433307306
  ],
  "tags": {
    "amenity": "bus_station",
    "name": "Primus I Ambohitrazaka"
  }
},
{
  "type": "way",
  "id": 564210416,
  "nodes": [
    5436716958,
    5436716957,
    5436716956,
    5436716955,
    5436716954,
    5436716953,
    5436716952,
    5436716951,
    5436716950,
    5436716949,
    5436716948,
    5436716958
  ],
  "tags": {
    "amenity": "bus_station",
    "name": "Primus 110 Anosizato andrefana"
  }
},
{
  "type": "way",
  "id": 564233531,
  "nodes": [
    5436845071,
    5436845070,
    5436845069,
    5436845068,
    5436845067,
    5436845066,
    5436845065,
    5436845064,
    5436845063,
    5436845062,
    5436845061,
    5436845060,
    5436845059,
    5436845058,
    5436845057,
    5436845071
  ],
  "tags": {
    "amenity": "bus_station",
    "bus": "yes",
    "name": "terminus 110 Ambodifilao",
    "public_transport": "station"
  }
},
{
  "type": "way",
  "id": 564931049,
  "nodes": [
    5442019696,
    5442019695,
    5442019694,
    5442019693,
    5442019692,
    5442019691,
    5442019690,
    5442019689,
    5442019688,
    5442019687,
    5442019696
  ],
  "tags": {
    "amenity": "bus_station",
    "bus": "yes",
    "name": "primus 110 Ambodifilao",
    "public_transport": "station"
  }
},
{
  "type": "way",
  "id": 564942673,
  "nodes": [
    5442108066,
    5442108065,
    5442108064,
    5442108063,
    5442108062,
    5442108061,
    5442108060,
    5442108059,
    5442108058,
    5442108057,
    5442108056,
    5442108066
  ],
  "tags": {
    "amenity": "bus_station",
    "name": "Terminus Bus 110 Anosizato Andrefana"
  }
},
{
  "type": "way",
  "id": 564976356,
  "nodes": [
    5442335687,
    5442335686,
    5442335685,
    5442335684,
    5442335683,
    5442335682,
    5442335681,
    5442335680,
    5442335679,
    5442335678,
    5442335677,
    5442335687
  ],
  "tags": {
    "amenity": "bus_station",
    "bus": "yes",
    "name": "Primus_I_Ambohijatovo",
    "public_transport": "station"
  }
},
{
  "type": "way",
  "id": 564993431,
  "nodes": [
    5442445028,
    5442445027,
    5442445026,
    5442445025,
    5442445024,
    5442445023,
    5442445022,
    5442445021,
    5442444020,
    5442444019,
    5442444018,
    5442444017,
    5442444016,
    5442445028
  ],
  "tags": {
    "amenity": "bus_station",
    "bus": "yes",
    "name": "terminus_bus_146_Mena_Mausolée",
    "public_transport": "station"
  }
},
{
  "type": "way",
  "id": 565297464,
  "nodes": [
    5444782188,
    5444782187,
    5444782186,
    5444782185,
    5444782184,
    5444782183,
    5444782182,
    5444782181,
    5444782180,
    5444782179,
    5444782178,
    5444782177,
    5444782176,
    5444782175,
    5444782174,
    5444782173,
    5444782172,
    5444782188
  ],
  "tags": {
    "amenity": "bus_station",
    "bus": "yes",
    "name": "primus 146 Manga Mausolée",
    "public_transport": "station"
  }
},
{
  "type": "way",
  "id": 565388328,
  "nodes": [
    5445275270,
    5445275269,
    5445275268,
    5445275267,
    5445275266,
    5445275265,
    5445275264,
    5445275270
  ],
  "tags": {
    "amenity": "bus_station",
    "bus": "yes",
    "name": "terminus_146_Manga_Mausolée",
    "public_transport": "station"
  }
},
{
  "type": "way",
  "id": 565393036,
  "nodes": [
    5445302604,
    5445302603,
    5445302602,
    5445302601,
    5445302604
  ],
  "tags": {
    "amenity": "bus_station",
    "bus": "yes",
    "name": "Terminus F Ambatofahavalo",
    "public_transport": "station"
  }
},
{
  "type": "way",
  "id": 565393055,
  "nodes": [
    5445302618,
    5445302617,
    5445302614,
    5445302616,
    5445302615,
    5445302618
  ],
  "tags": {
    "amenity": "bus_station",
    "name": "Primus F Ambatofahavalo"
  }
},
{
  "type": "way",
  "id": 565393057,
  "nodes": [
    5445303522,
    5445303521,
    5445302620,
    5445302619,
    5445303522
  ],
  "tags": {
    "amenity": "bus_station",
    "name": "Terminus F Ambatofahavalo"
  }
},
{
  "type": "way",
  "id": 565393065,
  "nodes": [
    5445303540,
    5445303539,
    5445303538,
    5445303537,
    5445303536,
    5445303535,
    5445303534,
    5445303533,
    5445303532,
    5445303531,
    5445303530,
    5445303529,
    5445303528,
    5445303527,
    5445303540
  ],
  "tags": {
    "amenity": "bus_station",
    "bus": "yes",
    "name": "Primus F Ambatofahavalo",
    "public_transport": "station"
  }
},
{
  "type": "way",
  "id": 565427018,
  "nodes": [
    5445503110,
    5445503111,
    5445503112,
    5445503113,
    5445503110
  ],
  "tags": {
    "amenity": "bus_station",
    "bus": "yes",
    "name": "Terminus 114 Ambohijanahary",
    "network": "114_Ambohijanahary",
    "operator": "SCOTAT",
    "public_transport": "station"
  }
},
{
  "type": "way",
  "id": 565439301,
  "nodes": [
    5445578721,
    5445578722,
    5445578724,
    5445578726,
    5445578721
  ],
  "tags": {
    "amenity": "bus_station",
    "bus": "yes",
    "name": "Primus 140 Tsaralalana",
    "public_transport": "station"
  }
},
{
  "type": "way",
  "id": 565439306,
  "nodes": [
    5445578731,
    5445578732,
    5445578734,
    8504882528,
    5445578731
  ],
  "tags": {
    "amenity": "bus_station",
    "name": "Terminus 140 Ampitatafika"
  }
},
{
  "type": "way",
  "id": 565439307,
  "nodes": [
    8504882529,
    5549724960,
    5445578737,
    5445578738,
    8504882529
  ],
  "tags": {
    "amenity": "bus_station",
    "name": "primus 140 Ampitatafika"
  }
},
{
  "type": "way",
  "id": 565444949,
  "nodes": [
    5445640375,
    5445640376,
    5445640377,
    5445640378,
    5445640375
  ],
  "tags": {
    "amenity": "bus_station",
    "name": "Primus 135 - 135 II"
  }
},
{
  "type": "way",
  "id": 565723517,
  "nodes": [
    5447676171,
    5447676172,
    5447676173,
    5447676174,
    5447676171
  ],
  "tags": {
    "amenity": "bus_station",
    "name": "Terminus 135 - 135 II"
  }
},
{
  "type": "way",
  "id": 565743373,
  "nodes": [
    5447808908,
    5447808909,
    5447808911,
    5447808912,
    5447808908
  ],
  "tags": {
    "amenity": "bus_station",
    "name": "Terminus 154"
  }
},
{
  "type": "way",
  "id": 566079782,
  "nodes": [
    5450707811,
    5450707812,
    5450707813,
    5450707814,
    5450707811
  ],
  "tags": {
    "amenity": "bus_station",
    "bus": "yes",
    "name": "Terminus G Ankaditany",
    "public_transport": "station"
  }
},
{
  "type": "way",
  "id": 566079783,
  "nodes": [
    5450707815,
    5450707816,
    5450707817,
    5450707818,
    5450707815
  ],
  "tags": {
    "amenity": "bus_station",
    "name": "Terminus G Ankaditany"
  }
},
{
  "type": "way",
  "id": 566102512,
  "nodes": [
    5450895714,
    5450895713,
    5450895712,
    5450895711,
    5450895714
  ],
  "tags": {
    "amenity": "bus_station",
    "bus": "yes",
    "name": "Terminus_Bus_146_Mena_Mausolée",
    "public_transport": "station"
  }
},
{
  "type": "way",
  "id": 566104133,
  "nodes": [
    5450919093,
    5450919094,
    5450919095,
    5450919096,
    5450919093
  ],
  "tags": {
    "amenity": "bus_station",
    "name": "primus 154"
  }
},
{
  "type": "way",
  "id": 566107840,
  "nodes": [
    5450915077,
    5450915078,
    5450915079,
    5450915080,
    5450915077
  ],
  "tags": {
    "amenity": "bus_station",
    "name": "Terminus F Atalata"
  }
},
{
  "type": "way",
  "id": 566107841,
  "nodes": [
    5450915081,
    5450915082,
    5450915083,
    5450915084,
    5450915081
  ],
  "tags": {
    "amenity": "bus_station",
    "name": "Primus F- Atalata"
  }
},
{
  "type": "way",
  "id": 566118804,
  "nodes": [
    5451022236,
    5451022237,
    4036290706,
    5451022238,
    5451022239,
    5451022236
  ],
  "tags": {
    "amenity": "bus_station",
    "bus": "yes",
    "name": "primus H Sabotsy Mascar",
    "public_transport": "station"
  }
},
{
  "type": "way",
  "id": 566234042,
  "nodes": [
    5452429784,
    5452429783,
    5452429782,
    5452429781,
    5452429784
  ],
  "tags": {
    "amenity": "bus_station",
    "bus": "yes",
    "name": "Terminus",
    "public_transport": "station"
  }
},
{
  "type": "way",
  "id": 566234043,
  "nodes": [
    5452429853,
    5452429852,
    5452429851,
    5452429850,
    5452429849,
    5452429848,
    5452429853
  ],
  "tags": {
    "amenity": "bus_station",
    "name": "Terminus"
  }
},
{
  "type": "way",
  "id": 566309506,
  "nodes": [
    5453788745,
    5453788744,
    5453788743,
    5453788742,
    5453788745
  ],
  "tags": {
    "amenity": "bus_station",
    "name": "Primus Ligne A-Andohatanjona"
  }
},
{
  "type": "way",
  "id": 566314682,
  "nodes": [
    5453837944,
    5453837943,
    5453837942,
    5453837941,
    5453837944
  ],
  "tags": {
    "amenity": "bus_station",
    "name": "Terminus Ligne KOFIMI Andohatanjona"
  }
},
{
  "type": "way",
  "id": 566314683,
  "nodes": [
    5453837948,
    5453837947,
    5453837946,
    5453837945,
    5453837948
  ],
  "tags": {
    "amenity": "bus_station",
    "name": "Terminus Ligne A-Andohatanjona"
  }
},
{
  "type": "way",
  "id": 566314684,
  "nodes": [
    5453837952,
    5453837951,
    5453837950,
    5453837949,
    5453837952
  ],
  "tags": {
    "amenity": "bus_station",
    "name": "Primus Ligne KOFIMI Andohatanjona"
  }
},
{
  "type": "way",
  "id": 566334796,
  "nodes": [
    5453973484,
    5453973483,
    5453973482,
    5453973481,
    5453973484
  ],
  "tags": {
    "amenity": "bus_station",
    "name": "Primus Ligne G-Cité Itaosy"
  }
},
{
  "type": "way",
  "id": 566343972,
  "nodes": [
    5454041009,
    5454041008,
    5454041007,
    5454041006,
    5454041009
  ],
  "tags": {
    "amenity": "bus_station",
    "name": "Terminus Ligne A-Ambaniala",
    "operator": "KOFITAMA"
  }
},
{
  "type": "way",
  "id": 566343986,
  "nodes": [
    5454041014,
    5454041013,
    5454041012,
    5454041011,
    5454041014
  ],
  "tags": {
    "amenity": "bus_station",
    "bus": "yes",
    "name": "Primus Ligne A-Ambaniala Tsaralalàna",
    "public_transport": "station"
  }
},
{
  "type": "way",
  "id": 566353519,
  "nodes": [
    5454111824,
    5454111823,
    5454111822,
    5454111821,
    5454111824
  ],
  "tags": {
    "amenity": "bus_station",
    "name": "Primus Ligne A-Ambaniala"
  }
},
{
  "type": "way",
  "id": 566353520,
  "nodes": [
    5454111828,
    5454111827,
    5454111826,
    5454111825,
    5454111828
  ],
  "tags": {
    "amenity": "bus_station",
    "bus": "yes",
    "name": "Terminus Ligne A-Ambaniala Tsaralalàna",
    "public_transport": "station"
  }
},
{
  "type": "way",
  "id": 566364101,
  "nodes": [
    5454193828,
    5454193827,
    5454193826,
    5454193825,
    5454193828
  ],
  "tags": {
    "amenity": "bus_station",
    "name": "Primus Ligne A-Cité"
  }
},
{
  "type": "way",
  "id": 566364103,
  "nodes": [
    5454193838,
    5454193837,
    5454193836,
    5454193835,
    5454193838
  ],
  "tags": {
    "amenity": "bus_station",
    "bus": "yes",
    "public_transport": "station"
  }
},
{
  "type": "way",
  "id": 568162193,
  "nodes": [
    5466727556,
    5466727557,
    5466727560,
    5466727558,
    5466727559,
    5466727556
  ],
  "tags": {
    "amenity": "bus_station",
    "name": "Primus E-KOFIATRA / E-KOLOINA"
  }
},
{
  "type": "way",
  "id": 568162194,
  "nodes": [
    5466727561,
    5466727562,
    5466727563,
    5466727564,
    5466727561
  ],
  "tags": {
    "amenity": "bus_station",
    "bus": "yes",
    "name": "Terminus_E-KOFIATRA_A",
    "public_transport": "station"
  }
},
{
  "type": "way",
  "id": 568176748,
  "nodes": [
    5466821557,
    5466821558,
    5466821559,
    5527202938,
    5466821560,
    5466821557
  ],
  "tags": {
    "amenity": "bus_station",
    "bus": "yes",
    "name": "Primus_Ligne_E-KOFIATRA_R",
    "public_transport": "station"
  }
},
{
  "type": "way",
  "id": 568176759,
  "nodes": [
    5466821561,
    5466821562,
    5466821563,
    5466821564,
    5466821561
  ],
  "tags": {
    "amenity": "bus_station",
    "name": "Terminus E-KOFIATRA / E-KOLOINA"
  }
},
{
  "type": "way",
  "id": 568218207,
  "nodes": [
    5467072089,
    5467072090,
    5467072091,
    5467072092,
    5467072089
  ],
  "tags": {
    "amenity": "bus_station",
    "bus": "yes",
    "name": "Terminus_E-KOLOINA_A",
    "public_transport": "station"
  }
},
{
  "type": "way",
  "id": 568228097,
  "nodes": [
    5467134141,
    5467134142,
    5467134143,
    5467134144,
    5467134141
  ],
  "tags": {
    "amenity": "bus_station",
    "bus": "yes",
    "name": "Primus_E-KOLOINA_R",
    "public_transport": "station"
  }
},
{
  "type": "way",
  "id": 569427015,
  "nodes": [
    5476282068,
    5476282067,
    5476282066,
    5476282065,
    5476282068
  ],
  "tags": {
    "amenity": "bus_station",
    "name": "terminus"
  }
},
{
  "type": "way",
  "id": 569427017,
  "nodes": [
    5476282083,
    5476282082,
    5476282081,
    5476282080,
    5476282083
  ],
  "tags": {
    "amenity": "bus_station",
    "name": "terminus"
  }
},
{
  "type": "way",
  "id": 569443832,
  "nodes": [
    5476424897,
    5476424896,
    5476424895,
    5476424894,
    5476424897
  ],
  "tags": {
    "amenity": "bus_station",
    "name": "terminus"
  }
},
{
  "type": "way",
  "id": 569456681,
  "nodes": [
    5476564794,
    5476564793,
    5476564792,
    5476564791,
    5476564794
  ],
  "tags": {
    "amenity": "bus_station",
    "name": "terminus Ambohimamory"
  }
},
{
  "type": "way",
  "id": 569828932,
  "nodes": [
    5479476012,
    5479476004,
    8758210445,
    7281537474,
    5479476012
  ],
  "tags": {
    "amenity": "bus_station",
    "name": "Terminus 192 Ankadikely Ilafy",
    "public_transport": "station"
  }
},
{
  "type": "way",
  "id": 569828938,
  "nodes": [
    5479476731,
    5479476009,
    5479476011,
    5479476010,
    5479476731
  ],
  "tags": {
    "amenity": "bus_station",
    "name": "Terminus 192 Mandikanamana",
    "public_transport": "station"
  }
},
{
  "type": "way",
  "id": 570665564,
  "nodes": [
    5486328777,
    5486328776,
    5486328775,
    5486328774,
    5486328773,
    5486328772,
    5486328777
  ],
  "tags": {
    "amenity": "bus_station",
    "public_transport": "station"
  }
},
{
  "type": "way",
  "id": 570702511,
  "nodes": [
    5486651146,
    5486651145,
    5486651144,
    5486651143,
    5486651146
  ],
  "tags": {
    "amenity": "bus_station",
    "name": "Gare Routiere de Vatomandry",
    "public_transport": "station"
  }
},
{
  "type": "way",
  "id": 573583234,
  "nodes": [
    5508316476,
    5508316475,
    5508316474,
    5508316473,
    5508316472,
    5508316471,
    5508316470,
    5508316469,
    5508316468,
    5508316467,
    5508316466,
    5508316465,
    5508316464,
    5508316463,
    5508316462,
    5508316461,
    5508316460,
    5508316459,
    5508316458,
    5508316457,
    5508316476
  ],
  "tags": {
    "amenity": "bus_station"
  }
},
{
  "type": "way",
  "id": 576398417,
  "nodes": [
    5528462732,
    5528462731,
    5528462730,
    5528462729,
    5528462728,
    5528462727,
    5528462726,
    5528462732
  ],
  "tags": {
    "amenity": "bus_station",
    "name": "Anosisoa"
  }
},
{
  "type": "way",
  "id": 576526678,
  "nodes": [
    5529638728,
    5529638727,
    5529638726,
    5529638725,
    5529638728
  ],
  "tags": {
    "amenity": "bus_station",
    "name": "Primus 162 Ambohijatovo"
  }
},
{
  "type": "way",
  "id": 576639303,
  "nodes": [
    5530232442,
    5530232443,
    5530232444,
    5530232445,
    5530232442
  ],
  "tags": {
    "amenity": "bus_station",
    "bench": "yes",
    "bus": "yes",
    "name": "primus 166 Ankatso",
    "public_transport": "station",
    "shelter": "yes"
  }
},
{
  "type": "way",
  "id": 576656034,
  "nodes": [
    5530330563,
    5530330564,
    5530330565,
    5530330566,
    5530330563
  ],
  "tags": {
    "amenity": "bus_station",
    "bus": "yes",
    "name": "Primus Ligne 128 Tsimbazaza",
    "public_transport": "station"
  }
},
{
  "type": "way",
  "id": 576656036,
  "nodes": [
    5530330568,
    5530330569,
    5530330570,
    5530330571,
    5530330568
  ],
  "tags": {
    "amenity": "bus_station",
    "bus": "yes",
    "name": "Terminus Ligne 128 Tsimbazaza",
    "public_transport": "station"
  }
},
{
  "type": "way",
  "id": 576656038,
  "nodes": [
    5530330572,
    5530330573,
    5530330574,
    5530330575,
    5530330572
  ],
  "tags": {
    "amenity": "bus_station",
    "bus": "yes",
    "name": "Terminus 128 Ambohijatovo",
    "public_transport": "station"
  }
},
{
  "type": "way",
  "id": 576656043,
  "nodes": [
    5530330585,
    5530330586,
    5530330587,
    5530330588,
    5530330585
  ],
  "tags": {
    "amenity": "bus_station",
    "bus": "yes",
    "name": "Terminus 128",
    "public_transport": "station"
  }
},
{
  "type": "way",
  "id": 576696070,
  "nodes": [
    5530561641,
    5530561642,
    5530561643,
    5530561644,
    5530561641
  ],
  "tags": {
    "amenity": "bus_station",
    "name": "Terminus et Primus 186 Analamahitsy Cité"
  }
},
{
  "type": "way",
  "id": 576699684,
  "nodes": [
    5530583412,
    5530583413,
    5530583414,
    5530583415,
    5530583412
  ],
  "tags": {
    "amenity": "bus_station",
    "name": "Primus H_Ilafy"
  }
},
{
  "type": "way",
  "id": 576699686,
  "nodes": [
    5530584232,
    5530584233,
    5530584234,
    5530584235,
    5530584232
  ],
  "tags": {
    "amenity": "bus_station",
    "name": "Primus H_Andranovelona"
  }
},
{
  "type": "way",
  "id": 576744163,
  "nodes": [
    5530873401,
    5530873402,
    5530873403,
    5530873404,
    5530873401
  ],
  "tags": {
    "amenity": "bus_station",
    "name": "primus/terminus 120"
  }
},
{
  "type": "way",
  "id": 576754001,
  "nodes": [
    5530927315,
    5530927316,
    5530927317,
    5530927318,
    5530927315
  ],
  "tags": {
    "amenity": "bus_station",
    "name": "Terminus 135-Ambohijatovo_Anosy_A"
  }
},
{
  "type": "way",
  "id": 576754004,
  "nodes": [
    5530927319,
    5530927320,
    5530927421,
    5530927422,
    5530927319
  ],
  "tags": {
    "amenity": "bus_station",
    "name": "Terminus Ligne_135-Ambanidia_Tsimbazaza_R"
  }
},
{
  "type": "way",
  "id": 576754014,
  "nodes": [
    5530927446,
    5530927447,
    5530927448,
    5530927449,
    5530927446
  ],
  "tags": {
    "amenity": "bus_station",
    "name": "Terminus Ligne_154/B_R"
  }
},
{
  "type": "way",
  "id": 576754019,
  "nodes": [
    5530927451,
    5530927452,
    5530927453,
    5530927454,
    5530927451
  ],
  "tags": {
    "amenity": "bus_station",
    "name": "Primus Ligne_154/B_A"
  }
},
{
  "type": "way",
  "id": 577136637,
  "nodes": [
    5533502336,
    5533502337,
    5533502338,
    5533502339,
    5533502336
  ],
  "tags": {
    "amenity": "bus_station",
    "bus": "yes",
    "name": "Primus F-Atalata",
    "public_transport": "station"
  }
},
{
  "type": "way",
  "id": 577136639,
  "nodes": [
    5533502343,
    5533502344,
    5533502345,
    5533502346,
    5533502343
  ],
  "tags": {
    "amenity": "bus_station",
    "bus": "yes",
    "name": "Terminus F-Atalata",
    "public_transport": "station"
  }
},
{
  "type": "way",
  "id": 577152037,
  "nodes": [
    5533584810,
    5533584811,
    5533584812,
    5533584813,
    5533584810
  ],
  "tags": {
    "amenity": "bus_station",
    "name": "Terminus Ligne_115_R"
  }
},
{
  "type": "way",
  "id": 577152038,
  "nodes": [
    5533584814,
    5533584815,
    5533584816,
    5533584817,
    5533584814
  ],
  "tags": {
    "amenity": "bus_station",
    "name": "Primus Ligne_115_A"
  }
},
{
  "type": "way",
  "id": 577152042,
  "nodes": [
    5533584819,
    5533584820,
    5533585221,
    5533585222,
    5533584819
  ],
  "tags": {
    "amenity": "bus_station",
    "bus": "yes",
    "name": "Terminus Ligne_115_A",
    "public_transport": "station"
  }
},
{
  "type": "way",
  "id": 577152043,
  "nodes": [
    5533585223,
    5533585224,
    5533585225,
    5533585226,
    5533585223
  ],
  "tags": {
    "amenity": "bus_station",
    "bus": "yes",
    "name": "Primus Ligne_115_R",
    "public_transport": "station"
  }
},
{
  "type": "way",
  "id": 577152044,
  "nodes": [
    5533585227,
    5533585228,
    5533585229,
    5533585230,
    5533585227
  ],
  "tags": {
    "amenity": "bus_station",
    "bus": "yes",
    "name": "Terminus Ligne 184",
    "public_transport": "station"
  }
},
{
  "type": "way",
  "id": 577152045,
  "nodes": [
    5533585231,
    5533585232,
    5533585233,
    5533585234,
    5533585231
  ],
  "tags": {
    "amenity": "bus_station",
    "bus": "yes",
    "name": "Primus Ligne 184",
    "public_transport": "station"
  }
},
{
  "type": "way",
  "id": 577152047,
  "nodes": [
    5533585236,
    5533585237,
    5533585238,
    5533585239,
    5533585236
  ],
  "tags": {
    "amenity": "bus_station",
    "name": "Terminus Ligne 184"
  }
},
{
  "type": "way",
  "id": 577152048,
  "nodes": [
    5533585240,
    5533585241,
    5533585242,
    5533585243,
    5533585240
  ],
  "tags": {
    "amenity": "bus_station",
    "bus": "yes",
    "name": "Primus Ligne 184",
    "public_transport": "station"
  }
},
{
  "type": "way",
  "id": 577465784,
  "nodes": [
    5535873036,
    5535873035,
    5535873034,
    5535873033,
    5535873036
  ],
  "tags": {
    "amenity": "bus_station",
    "name": "Primus 162 67 Ha"
  }
},
{
  "type": "way",
  "id": 577465785,
  "nodes": [
    5535873040,
    5535873039,
    5535873038,
    5535873037,
    5535873040
  ],
  "tags": {
    "amenity": "bus_station",
    "name": "Terminus 162"
  }
},
{
  "type": "way",
  "id": 577818059,
  "nodes": [
    5538353065,
    5538353063,
    8727633642,
    5538353062,
    5538353065
  ],
  "tags": {
    "amenity": "bus_station",
    "name": "Primus 165 Mahatony"
  }
},
{
  "type": "way",
  "id": 577830086,
  "nodes": [
    5538478927,
    5538478926,
    5538478925,
    5538478924,
    5538478927
  ],
  "tags": {
    "amenity": "bus_station",
    "name": "Primus 165 Mahatony"
  }
},
{
  "type": "way",
  "id": 577830087,
  "nodes": [
    5538478931,
    5538478930,
    5538478929,
    5538478928,
    5538478931
  ],
  "tags": {
    "amenity": "bus_station",
    "name": "Terminus 165 Mahatony"
  }
},
{
  "type": "way",
  "id": 577987322,
  "nodes": [
    5539556164,
    5539556165,
    5539556166,
    5539556167,
    5539556164
  ],
  "tags": {
    "amenity": "bus_station",
    "bus": "yes",
    "name": "Terminus 147-D Rouge/Bleu",
    "operator": "Tselatra I",
    "public_transport": "station"
  }
},
{
  "type": "way",
  "id": 577987323,
  "nodes": [
    5539556168,
    5539556169,
    5539556170,
    5539556171,
    5539556168
  ],
  "tags": {
    "amenity": "bus_station",
    "bus": "yes",
    "name": "Primus 147-D Bleu",
    "public_transport": "station"
  }
},
{
  "type": "way",
  "id": 577987324,
  "nodes": [
    5539556172,
    5539556173,
    5539556174,
    5539556175,
    5539556172
  ],
  "tags": {
    "amenity": "bus_station",
    "bus": "yes",
    "name": "Primus 147-D Rouge",
    "public_transport": "station"
  }
},
{
  "type": "way",
  "id": 578059122,
  "nodes": [
    5539990122,
    5539990123,
    5539990124,
    5539990125,
    5539990122
  ],
  "tags": {
    "amenity": "bus_station",
    "name": "Terminus 187-67Ha- Fiadanamanga"
  }
},
{
  "type": "way",
  "id": 578059124,
  "nodes": [
    5539990128,
    5539990129,
    5539990130,
    5539990131,
    5539990128
  ],
  "tags": {
    "amenity": "bus_station",
    "name": "Primus-187- 67Ha-Fiadanamanga"
  }
},
{
  "type": "way",
  "id": 578111543,
  "nodes": [
    5540287083,
    5540287084,
    5540287085,
    5540287086,
    5540287083
  ],
  "tags": {
    "amenity": "bus_station",
    "bus": "yes",
    "name": "Terminus J-Alatsinainy Ambazaha",
    "public_transport": "station"
  }
},
{
  "type": "way",
  "id": 578748064,
  "nodes": [
    5544528468,
    5544528469,
    5544528470,
    5544528471,
    5544528468
  ],
  "tags": {
    "amenity": "bus_station",
    "bus": "yes",
    "name": "Primus ligne J- CNaPs - Amptatafika- Alatsinainy Ambazaha",
    "public_transport": "station"
  }
},
{
  "type": "way",
  "id": 579188949,
  "nodes": [
    5547491783,
    5547491784,
    5547491785,
    5547491786,
    5547491783
  ],
  "tags": {
    "amenity": "bus_station",
    "name": "Primus G-Beravina Anosizato andrefana"
  }
},
{
  "type": "way",
  "id": 579211305,
  "nodes": [
    5547624120,
    5547626421,
    5547626422,
    5547626423,
    5547624120
  ],
  "tags": {
    "amenity": "bus_station",
    "name": "Termninus G-Beravina Beravina"
  }
},
{
  "type": "way",
  "id": 579211306,
  "nodes": [
    5547626424,
    5547626425,
    5547626426,
    5547626427,
    5547626424
  ],
  "tags": {
    "amenity": "bus_station",
    "name": "Primus G-Beravina Beravina"
  }
},
{
  "type": "way",
  "id": 579211308,
  "nodes": [
    5547626428,
    5547626429,
    5547626430,
    5547626431,
    5547626428
  ],
  "tags": {
    "amenity": "bus_station",
    "name": "Terminus G-Beravina Anosizato andrefana"
  }
},
{
  "type": "way",
  "id": 579219233,
  "nodes": [
    5547677629,
    5547677630,
    5547677631,
    5547677632,
    5547677629
  ],
  "tags": {
    "amenity": "bus_station",
    "bus": "yes",
    "name": "primus -140- Tsaralalana-Ampitatafika",
    "public_transport": "station"
  }
},
{
  "type": "way",
  "id": 579282550,
  "nodes": [
    5548116591,
    5548116590,
    5548116589,
    5548116588,
    5548116591
  ],
  "tags": {
    "amenity": "bus_station",
    "bus": "yes",
    "name": "Terminus 143-Mahamasina",
    "public_transport": "station"
  }
},
{
  "type": "way",
  "id": 579282552,
  "nodes": [
    5548116595,
    5548116592,
    5548116593,
    5548116594,
    5548116595
  ],
  "tags": {
    "amenity": "bus_station",
    "bus": "yes",
    "name": "Primus 143-Mahamasina",
    "public_transport": "station"
  }
},
{
  "type": "way",
  "id": 579282568,
  "nodes": [
    5548116785,
    5548116786,
    5548116787,
    5548116788,
    5548116785
  ],
  "tags": {
    "amenity": "bus_station",
    "bus": "yes",
    "name": "Primus J Alatsinainy Ambazaha-Ampitatafika-CNaPs",
    "public_transport": "station"
  }
},
{
  "type": "way",
  "id": 579290788,
  "nodes": [
    5548170209,
    5548170210,
    5548170211,
    5548170212,
    5548170209
  ],
  "tags": {
    "amenity": "bus_station",
    "name": "Primus G-Antanetikely Anosizato andrefana"
  }
},
{
  "type": "way",
  "id": 579290789,
  "nodes": [
    5548170213,
    5548170214,
    5548170215,
    5548170216,
    5548170213
  ],
  "tags": {
    "amenity": "bus_station",
    "name": "Terminus G-Antanetikely Anosizato andrefana"
  }
},
{
  "type": "way",
  "id": 579300044,
  "nodes": [
    5548221959,
    5548221958,
    5548221957,
    5548221956,
    5548221959
  ],
  "tags": {
    "amenity": "bus_station",
    "name": "Primus 143 Ambohidrapeto Siniben-drano"
  }
},
{
  "type": "way",
  "id": 579476484,
  "nodes": [
    5549598593,
    5549598594,
    5549598595,
    5549598596,
    5549598593
  ],
  "tags": {
    "amenity": "bus_station",
    "bus": "yes",
    "name": "Terminus ligne J Alatsinainy Ambazaha- Ampitatfika- CNaPS",
    "public_transport": "station"
  }
},
{
  "type": "way",
  "id": 579496108,
  "nodes": [
    5549724976,
    5549724977,
    5549724978,
    5549724979,
    5549724976
  ],
  "tags": {
    "amenity": "bus_station",
    "bus": "yes",
    "name": "Terminus 140-Ampitatafika- Tsaralalana",
    "public_transport": "station"
  }
},
{
  "type": "way",
  "id": 579526037,
  "nodes": [
    5549936252,
    5549936253,
    5549936254,
    5549936255,
    5549936252
  ],
  "tags": {
    "amenity": "bus_station",
    "bus": "yes",
    "name": "Terminus 147 Bleu - 147 Rouge",
    "operator": "FITSEMA / TSELATRA I",
    "public_transport": "station"
  }
},
{
  "type": "way",
  "id": 579526038,
  "nodes": [
    5549936256,
    5549936257,
    5549936258,
    5549936259,
    5549936256
  ],
  "tags": {
    "amenity": "bus_station",
    "bus": "yes",
    "name": "Primus 147 Bleu - 147 Rouge",
    "operator": "FITSEMA / TSELATRA I",
    "public_transport": "station"
  }
},
{
  "type": "way",
  "id": 579536211,
  "nodes": [
    5550028559,
    5550028560,
    5550028561,
    5550028562,
    5550028563,
    5550028559
  ],
  "tags": {
    "amenity": "bus_station",
    "name": "Terminus E Koloina / Kofiatra JOVENA"
  }
},
{
  "type": "way",
  "id": 579536212,
  "nodes": [
    5550028564,
    5550028565,
    5550028566,
    5550028567,
    5550028564
  ],
  "tags": {
    "amenity": "bus_station",
    "name": "Primus E Koloina / Kofiatra JOVENA"
  }
},
{
  "type": "way",
  "id": 579613046,
  "nodes": [
    5550589817,
    5550589814,
    5550589815,
    5550589816,
    5550589817
  ],
  "tags": {
    "amenity": "bus_station",
    "bus": "yes",
    "name": "Primus 163-Anosy",
    "public_transport": "station"
  }
},
{
  "type": "way",
  "id": 579806049,
  "nodes": [
    5552087744,
    5552087743,
    5552087742,
    5552087741,
    5552087744
  ],
  "tags": {
    "amenity": "bus_station",
    "bus": "yes",
    "name": "Terminus 153 Antanimena Poste",
    "public_transport": "station"
  }
},
{
  "type": "way",
  "id": 579806050,
  "nodes": [
    5552087748,
    5552087747,
    5552087746,
    5552087745,
    5552087748
  ],
  "tags": {
    "amenity": "bus_station",
    "bus": "yes",
    "name": "Primus 153 Antanimena Poste",
    "public_transport": "station"
  }
},
{
  "type": "way",
  "id": 579806056,
  "nodes": [
    5552087753,
    5552087752,
    5552087751,
    5552087750,
    5552087753
  ],
  "tags": {
    "amenity": "bus_station",
    "bus": "yes",
    "name": "Terminus 153 Antanimena CEG",
    "public_transport": "station"
  }
},
{
  "type": "way",
  "id": 579806057,
  "nodes": [
    5552087757,
    5552087756,
    5552087755,
    5552087754,
    5552087757
  ],
  "tags": {
    "amenity": "bus_station",
    "bus": "yes",
    "name": "Primus 153 Antanimena CEG",
    "public_transport": "station"
  }
},
{
  "type": "way",
  "id": 579808182,
  "nodes": [
    5552103283,
    5552103280,
    5552103281,
    5552103282,
    5552103283
  ],
  "tags": {
    "amenity": "bus_station",
    "name": "Primus 163-Ambohimangakely"
  }
},
{
  "type": "way",
  "id": 579963159,
  "nodes": [
    5553238007,
    5553238006,
    5553238005,
    5553238004,
    5553238007
  ],
  "tags": {
    "amenity": "bus_station",
    "name": "Primus D Ambodifasina Ivato"
  }
},
{
  "type": "way",
  "id": 579963162,
  "nodes": [
    5553239728,
    5553239725,
    5553239726,
    5553239727,
    5553239728
  ],
  "tags": {
    "amenity": "bus_station",
    "name": "Primus D Ambodifasina Ambatolampy Tsimahafotsy"
  }
},
{
  "type": "way",
  "id": 579966373,
  "nodes": [
    5553292153,
    5553292152,
    5553292151,
    5553292150,
    5553292153
  ],
  "tags": {
    "amenity": "bus_station",
    "name": "Terminus D Ivato Anjomakely"
  }
},
{
  "type": "way",
  "id": 579966374,
  "nodes": [
    5553292157,
    5553292156,
    5553292155,
    5553292154,
    5553292157
  ],
  "tags": {
    "amenity": "bus_station",
    "name": "Primus D Ivato Anjomakely"
  }
},
{
  "type": "way",
  "id": 579966375,
  "nodes": [
    5553292161,
    5553292160,
    5553292159,
    5553292158,
    5553292161
  ],
  "tags": {
    "amenity": "bus_station",
    "name": "Terminus D Ambodifasina Ivato"
  }
},
{
  "type": "way",
  "id": 579966376,
  "nodes": [
    5553292165,
    5553292164,
    5553292163,
    5553292162,
    5553292165
  ],
  "tags": {
    "amenity": "bus_station",
    "name": "Primus D Ambodifasina Ivato"
  }
},
{
  "type": "way",
  "id": 579975741,
  "nodes": [
    5553415242,
    5553415241,
    5553415240,
    5553415239,
    5553415242
  ],
  "tags": {
    "amenity": "bus_station",
    "name": "Terminus 109 Antanandrano"
  }
},
{
  "type": "way",
  "id": 579976932,
  "nodes": [
    5553429680,
    5553429679,
    5553429678,
    5553429677,
    5553429680
  ],
  "tags": {
    "amenity": "bus_station",
    "bus": "yes",
    "name": "Primus 128 Ambohijatovo",
    "public_transport": "station"
  }
},
{
  "type": "way",
  "id": 580358900,
  "nodes": [
    5555936464,
    5555936463,
    5555936462,
    5555936461,
    5555936464
  ],
  "tags": {
    "amenity": "bus_station",
    "bus": "yes",
    "name": "Primus 128 Tsimbazaza",
    "public_transport": "station"
  }
},
{
  "type": "way",
  "id": 580455587,
  "nodes": [
    5556555138,
    5556555139,
    5556555140,
    5556555141,
    5556555138
  ],
  "tags": {
    "amenity": "bus_station",
    "bus": "yes",
    "name": "Tsimbazaza - Rasalama",
    "public_transport": "station"
  }
},
{
  "type": "way",
  "id": 581222198,
  "nodes": [
    5561816678,
    5561816679,
    5561816680,
    5561816681,
    5561816678
  ],
  "tags": {
    "amenity": "bus_station",
    "name": "Primus H Talata"
  }
},
{
  "type": "way",
  "id": 581552266,
  "nodes": [
    5564109573,
    5564109574,
    5564109575,
    5564109576,
    5564109573
  ],
  "tags": {
    "amenity": "bus_station",
    "name": "Primus_H_Belanitra"
  }
},
{
  "type": "way",
  "id": 581554858,
  "nodes": [
    5564128774,
    5564128775,
    5564128776,
    5564128777,
    5564128774
  ],
  "tags": {
    "amenity": "bus_station",
    "name": "Terminus_H_Belanitra"
  }
},
{
  "type": "way",
  "id": 581561817,
  "nodes": [
    5564181763,
    5564181764,
    5564181765,
    5564181766,
    5564181763
  ],
  "tags": {
    "amenity": "bus_station",
    "name": "Primus_H_Belanitra"
  }
},
{
  "type": "way",
  "id": 581579195,
  "nodes": [
    5564284030,
    9999414631,
    5564284031,
    9997877282,
    5564284032,
    5564284033,
    5564284030
  ],
  "tags": {
    "amenity": "bus_station",
    "name": "Terminus_H_Ambohimanga"
  }
},
{
  "type": "way",
  "id": 581582015,
  "nodes": [
    5564301091,
    5564301092,
    5564301093,
    5564301094,
    5564301091
  ],
  "tags": {
    "amenity": "bus_station",
    "bus": "yes",
    "name": "Primus Anosy Soamanatombo",
    "public_transport": "station"
  }
},
{
  "type": "way",
  "id": 581582016,
  "nodes": [
    5564301095,
    5564301096,
    5564301097,
    5564301098,
    5564301095
  ],
  "tags": {
    "amenity": "bus_station",
    "name": "Terminus Ambatomirahavavy Tany menabe"
  }
},
{
  "type": "way",
  "id": 582880625,
  "nodes": [
    5573364779,
    5573364778,
    5573364777,
    5573364775,
    5573364779
  ],
  "tags": {
    "amenity": "bus_station",
    "name": "Terminus Bus I Ambohimanambola"
  }
},
{
  "type": "way",
  "id": 582887221,
  "nodes": [
    5573419339,
    5573364779,
    5573364775,
    5573419336,
    5573419339
  ],
  "tags": {
    "amenity": "bus_station",
    "name": "Primus Bus I Ambohimanambola"
  }
},
{
  "type": "way",
  "id": 583984564,
  "nodes": [
    5582785636,
    5582785637,
    5582785638,
    5582785639,
    5582785636
  ],
  "tags": {
    "amenity": "bus_station",
    "network": "MG:suburban"
  }
},
{
  "type": "way",
  "id": 585142600,
  "nodes": [
    5592316955,
    5592316956,
    5592316957,
    5592316958,
    5592316955
  ],
  "tags": {
    "amenity": "bus_station",
    "name": "primus 154"
  }
},
{
  "type": "way",
  "id": 586830789,
  "nodes": [
    5606494094,
    5108964758,
    5756190194,
    5756190193,
    5606494094
  ],
  "tags": {
    "amenity": "bus_station",
    "bus": "yes",
    "description": "Guichet de Taxi Brousse",
    "name": "KOFIMANGA",
    "operator": "KOFIMANGA",
    "public_transport": "station"
  }
},
{
  "type": "way",
  "id": 590449558,
  "nodes": [
    5637273212,
    5637273213,
    5637273214,
    5637273215,
    5637273212
  ],
  "tags": {
    "amenity": "bus_station",
    "bus": "yes",
    "name": "Terminus 141-Manga",
    "public_transport": "station"
  }
},
{
  "type": "way",
  "id": 590449559,
  "nodes": [
    5637273216,
    5637273217,
    5637273218,
    5637273219,
    5637273216
  ],
  "tags": {
    "amenity": "bus_station",
    "bus": "yes",
    "name": "Primus 141 Manga",
    "public_transport": "station"
  }
},
{
  "type": "way",
  "id": 591357138,
  "nodes": [
    5645770252,
    5645770251,
    5645770250,
    5645770249,
    5645770252
  ],
  "tags": {
    "amenity": "bus_station",
    "name": "Terminus 143 Ambohidrapeto Siniben-drano"
  }
},
{
  "type": "way",
  "id": 591357142,
  "nodes": [
    5645770265,
    5645770264,
    5645770263,
    5645770262,
    5645770265
  ],
  "tags": {
    "amenity": "bus_station",
    "bus": "yes",
    "name": "Primus 143-Analakely",
    "public_transport": "station"
  }
},
{
  "type": "way",
  "id": 591580605,
  "nodes": [
    5647606330,
    5647606329,
    5647606328,
    5647606327,
    5647606330
  ],
  "tags": {
    "amenity": "bus_station",
    "name": "Terminus 116 Mandroseza"
  }
},
{
  "type": "way",
  "id": 591587044,
  "nodes": [
    5647647536,
    5647647535,
    5647647534,
    5647647533,
    5647647536
  ],
  "tags": {
    "amenity": "bus_station",
    "bus": "yes",
    "name": "Primus 116 Ambohijatovo",
    "public_transport": "station"
  }
},
{
  "type": "way",
  "id": 591587046,
  "nodes": [
    5647647540,
    5647647539,
    5647647538,
    5647647537,
    5647647540
  ],
  "tags": {
    "amenity": "bus_station",
    "bus": "yes",
    "name": "Terminus 116 Mandroseza",
    "public_transport": "station"
  }
},
{
  "type": "way",
  "id": 591587049,
  "nodes": [
    5647647544,
    5647647543,
    5647647542,
    5647647541,
    5647647544
  ],
  "tags": {
    "amenity": "bus_station",
    "name": "Primus 116 Mandroseza"
  }
},
{
  "type": "way",
  "id": 591738490,
  "nodes": [
    5648982907,
    5648982908,
    5648982909,
    5648982910,
    5648982907
  ],
  "tags": {
    "amenity": "bus_station",
    "name": "Primus 147Bis Manga - 147Bis Mena"
  }
},
{
  "type": "way",
  "id": 591752796,
  "nodes": [
    5649089870,
    5649089871,
    5649089872,
    5649089873,
    5649089870
  ],
  "tags": {
    "amenity": "bus_station",
    "name": "Primus 135-Ambanidia / 135-Anosy"
  }
},
{
  "type": "way",
  "id": 591752797,
  "nodes": [
    5649089874,
    5649089875,
    5649089876,
    9372629682,
    5649089874
  ],
  "tags": {
    "amenity": "bus_station",
    "name": "Terminus 135-Amanidia / 135-Anosy"
  }
},
{
  "type": "way",
  "id": 591765198,
  "nodes": [
    5649176966,
    5649176967,
    5649176968,
    5649176969,
    5649176966
  ],
  "tags": {
    "amenity": "bus_station",
    "bench": "yes",
    "bus": "yes",
    "name": "terminus 166 Antanimena",
    "public_transport": "station",
    "shelter": "yes"
  }
},
{
  "type": "way",
  "id": 591789274,
  "nodes": [
    5530927318,
    5530927317,
    5649341952,
    5649341953,
    5530927318
  ],
  "tags": {
    "amenity": "bus_station",
    "name": "Primus 135-Ambanidia_Tsimbazaza_R"
  }
},
{
  "type": "way",
  "id": 591799282,
  "nodes": [
    5649402664,
    5649402665,
    5649402666,
    5649402667,
    5649402664
  ],
  "tags": {
    "amenity": "bus_station",
    "name": "terminus 154"
  }
},
{
  "type": "way",
  "id": 591805477,
  "nodes": [
    5649447134,
    5649447135,
    5649447136,
    5649447137,
    5649447134
  ],
  "tags": {
    "amenity": "bus_station",
    "name": "Terminus 129"
  }
},
{
  "type": "way",
  "id": 591811167,
  "nodes": [
    5649486389,
    5649486390,
    5649486391,
    5649486392,
    5649486389
  ],
  "tags": {
    "amenity": "bus_station",
    "name": "Primus 129"
  }
},
{
  "type": "way",
  "id": 591811168,
  "nodes": [
    5649486393,
    5649486394,
    5649486395,
    5649486396,
    5649486393
  ],
  "tags": {
    "amenity": "bus_station",
    "bus": "yes",
    "name": "Terminus 129",
    "public_transport": "station"
  }
},
{
  "type": "way",
  "id": 591811169,
  "nodes": [
    5649486397,
    5649486398,
    5649486399,
    5649486400,
    5649486397
  ],
  "tags": {
    "amenity": "bus_station",
    "name": "Primus 129"
  }
},
{
  "type": "way",
  "id": 591830156,
  "nodes": [
    5649623127,
    5649623128,
    5649623129,
    5649623130,
    5649623127
  ],
  "tags": {
    "amenity": "bus_station",
    "name": "Terminus/Primus_Ligne_114_Ambatolampy",
    "public_transport": "station"
  }
},
{
  "type": "way",
  "id": 592994556,
  "nodes": [
    5658240744,
    5658240745,
    5658240746,
    5658240747,
    5658240744
  ],
  "tags": {
    "amenity": "bus_station",
    "bus": "yes",
    "name": "primus 187 Ankatso- Fiadanamanga",
    "public_transport": "station"
  }
},
{
  "type": "way",
  "id": 593869791,
  "nodes": [
    5664378127,
    5664378126,
    5664378125,
    5664378124,
    5664378127
  ],
  "tags": {
    "amenity": "bus_station",
    "bus": "yes",
    "name": "Primus G Antsahadinta",
    "public_transport": "station"
  }
},
{
  "type": "way",
  "id": 593899862,
  "nodes": [
    5664607057,
    5664607056,
    5664607055,
    10168772861,
    5664607057
  ],
  "tags": {
    "amenity": "bus_station",
    "name": "Antsahadinta Primus G"
  }
},
{
  "type": "way",
  "id": 594046131,
  "nodes": [
    5665638543,
    5665638542,
    5665638541,
    5665638540,
    5665638543
  ],
  "tags": {
    "amenity": "bus_station",
    "bus": "yes",
    "name": "Primus 194 Analamahitsy",
    "public_transport": "station"
  }
},
{
  "type": "way",
  "id": 594481247,
  "nodes": [
    5668754968,
    5668754967,
    5668754966,
    5668754965,
    5668754968
  ],
  "tags": {
    "amenity": "bus_station",
    "name": "Primus_D_Ivato_Horizon"
  }
},
{
  "type": "way",
  "id": 594612272,
  "nodes": [
    5669575415,
    5669575416,
    5669575417,
    5669575418,
    5669575415
  ],
  "tags": {
    "amenity": "bus_station",
    "name": "primus teminus 136"
  }
},
{
  "type": "way",
  "id": 594627899,
  "nodes": [
    5669675810,
    5669675809,
    5669675808,
    5669675807,
    5669675810
  ],
  "tags": {
    "amenity": "bus_station",
    "name": "Terminus bus Ivato D, Horizon"
  }
},
{
  "type": "way",
  "id": 604878135,
  "nodes": [
    5738445903,
    5738445902,
    5738445901,
    5738445900,
    5738445903
  ],
  "tags": {
    "amenity": "bus_station",
    "name": "primus ligne 12 Vatofotsy"
  }
},
{
  "type": "way",
  "id": 605498761,
  "nodes": [
    5742856277,
    5742856276,
    5742856275,
    5742856274,
    5742856277
  ],
  "tags": {
    "amenity": "bus_station",
    "bus": "yes",
    "name": "Primus 119",
    "public_transport": "station"
  }
},
{
  "type": "way",
  "id": 605943519,
  "nodes": [
    5746003693,
    5746003692,
    5746003691,
    5746003690,
    5746003693
  ],
  "tags": {
    "amenity": "bus_station",
    "name": "Terminus 015 67Ha"
  }
},
{
  "type": "way",
  "id": 605943520,
  "nodes": [
    5746003697,
    5746003696,
    5746003695,
    5746003694,
    5746003697
  ],
  "tags": {
    "amenity": "bus_station",
    "name": "Primus 119 67Ha"
  }
},
{
  "type": "way",
  "id": 605943521,
  "nodes": [
    5746003701,
    5746003700,
    5746003699,
    5746003698,
    5746003701
  ],
  "tags": {
    "amenity": "bus_station",
    "name": "Primus 015 67Ha"
  }
},
{
  "type": "way",
  "id": 633295752,
  "nodes": [
    5978208928,
    5978208929,
    5978208930,
    5978208928
  ],
  "tags": {
    "amenity": "bus_station",
    "building": "yes",
    "bus": "yes",
    "name": "STATIONNEMENT TAXIBROUSSE",
    "public_transport": "station"
  }
},
{
  "type": "way",
  "id": 640813292,
  "nodes": [
    6036284815,
    6036284814,
    6036284813,
    6036284812,
    6036284815
  ],
  "tags": {
    "amenity": "bus_station"
  }
},
{
  "type": "way",
  "id": 645617181,
  "nodes": [
    6068451915,
    6068451914,
    6068451913,
    6068451912,
    6068451915
  ],
  "tags": {
    "amenity": "bus_station",
    "name": "Primus 199 Soavina"
  }
},
{
  "type": "way",
  "id": 722861702,
  "nodes": [
    6780518329,
    6174374233,
    6780518333,
    6780518332,
    6780518331,
    6780518330,
    6780518329
  ],
  "tags": {
    "amenity": "bus_station"
  }
},
{
  "type": "way",
  "id": 742965267,
  "nodes": [
    6954882748,
    6954882747,
    6954882746,
    6954882745,
    6954882748
  ],
  "tags": {
    "amenity": "bus_station"
  }
},
{
  "type": "way",
  "id": 769049579,
  "nodes": [
    7178969313,
    7178969312,
    7178969308,
    7178969307,
    7178969313
  ],
  "tags": {
    "amenity": "bus_station"
  }
},
{
  "type": "way",
  "id": 911829614,
  "nodes": [
    8467225879,
    8467225878,
    8467225877,
    8467225876,
    8467225879
  ],
  "tags": {
    "amenity": "bus_station",
    "bus": "yes",
    "name": "Primus/Terminus 161 Ambatobe",
    "public_transport": "station"
  }
},
{
  "type": "way",
  "id": 912239574,
  "nodes": [
    8474325031,
    8474325030,
    8474325029,
    8474325028,
    8474325031
  ],
  "tags": {
    "amenity": "bus_station",
    "name": "Primus/Terminus 150 Antanandrano"
  }
},
{
  "type": "way",
  "id": 913833761,
  "nodes": [
    8488855252,
    8488855251,
    8488855250,
    8488855249,
    8488855252
  ],
  "tags": {
    "amenity": "bus_station",
    "bus": "yes",
    "name": "Primus 009 Tsaralalana",
    "public_transport": "station"
  }
},
{
  "type": "way",
  "id": 913833762,
  "nodes": [
    8488855256,
    8488855255,
    8488855254,
    8488855253,
    8488855256
  ],
  "tags": {
    "amenity": "bus_station",
    "bus": "yes",
    "name": "Primus 138 Tsaralalana",
    "public_transport": "station"
  }
},
{
  "type": "way",
  "id": 913833763,
  "nodes": [
    8488855260,
    8488855259,
    8488855258,
    8488855257,
    8488855260
  ],
  "tags": {
    "amenity": "bus_station",
    "bus": "yes",
    "name": "Primus 140 Tsaralalana",
    "public_transport": "station"
  }
},
{
  "type": "way",
  "id": 915977353,
  "nodes": [
    8508045166,
    8508045165,
    8508045164,
    8508045162,
    8508045166
  ],
  "tags": {
    "amenity": "bus_station",
    "name": "Primus/Terminus H Viliahazo"
  }
},
{
  "type": "way",
  "id": 946074739,
  "nodes": [
    8758260217,
    8758231316,
    8758231315,
    8758231314,
    8758260217
  ],
  "tags": {
    "amenity": "bus_station",
    "name": "Primus et Terminus 126 Manjaka"
  }
},
{
  "type": "way",
  "id": 968720526,
  "nodes": [
    8962442392,
    8962442383,
    8962442384,
    8962442388,
    8962442386,
    8962442385,
    8962442387,
    8962442391,
    8962442390,
    8962442389,
    8962442392
  ],
  "tags": {
    "addr:city": "Manakara",
    "addr:housenumber": "12",
    "addr:postcode": "316",
    "addr:street": "RN",
    "amenity": "bus_station",
    "building": "yes",
    "bus": "yes",
    "name": "Soatrans Plus",
    "public_transport": "station"
  }
},
{
  "type": "way",
  "id": 1078400945,
  "nodes": [
    9886596695,
    9886596694,
    9886596693,
    9886596692,
    9886596691,
    9886596690,
    9886596695
  ],
  "tags": {
    "amenity": "bus_station",
    "public_transport": "station"
  }
},
{
  "type": "way",
  "id": 1148830311,
  "nodes": [
    10688325933,
    10688325932,
    10688325931,
    10688325930,
    10688325929,
    10688325928,
    10688325927,
    10688325926,
    10688325925,
    10688325924,
    10688325923,
    10688325922,
    10688325921,
    10688325920,
    10688325919,
    10688325918,
    10688325917,
    10688325916,
    10688325933
  ],
  "tags": {
    "amenity": "bus_station"
  }
},
{
  "type": "way",
  "id": 1211529690,
  "nodes": [
    11224539388,
    11224539389,
    11224539390,
    11224539391,
    11224539392,
    11224539393,
    11224539388
  ],
  "tags": {
    "addr:city": "belo sur tsiribihina",
    "addr:postcode": "608",
    "amenity": "bus_station",
    "bus": "yes",
    "internet_access": "no",
    "name": "Station taxi-brousse",
    "network": "transport commun",
    "operator": "population",
    "public_transport": "station"
  }
},
{
  "type": "way",
  "id": 1281447865,
  "nodes": [
    11893683590,
    11893683591,
    11893683592,
    11893683593,
    11893683594,
    11893683595,
    11893683596,
    11893683597,
    11893683598,
    11893683599,
    11893683600,
    11893683590
  ],
  "tags": {
    "amenity": "bus_station",
    "bus": "yes",
    "name": "Transport STRF",
    "public_transport": "station"
  }
},
{
  "type": "way",
  "id": 1365308804,
  "nodes": [
    12643345121,
    12643345122,
    12643345123,
    12643345124,
    12643345125,
    12643345126,
    12643345127,
    12643345121
  ],
  "tags": {
    "amenity": "bus_station",
    "bus": "yes",
    "name": "Station Vangaindraino",
    "public_transport": "station"
  }
},
{
  "type": "node",
  "id": 1342568087,
  "lat": -23.3362888,
  "lon": 43.6594634
},
{
  "type": "node",
  "id": 1342568116,
  "lat": -23.3355833,
  "lon": 43.6599060
},
{
  "type": "node",
  "id": 1342568285,
  "lat": -23.3362712,
  "lon": 43.6599364
},
{
  "type": "node",
  "id": 1342568341,
  "lat": -23.3356010,
  "lon": 43.6594331
},
{
  "type": "node",
  "id": 7178969312,
  "lat": -22.6994691,
  "lon": 45.2131910
},
{
  "type": "node",
  "id": 7178969307,
  "lat": -22.6996803,
  "lon": 45.2140477
},
{
  "type": "node",
  "id": 7178969308,
  "lat": -22.6999166,
  "lon": 45.2136268
},
{
  "type": "node",
  "id": 7178969313,
  "lat": -22.6991817,
  "lon": 45.2135462
},
{
  "type": "node",
  "id": 6174374233,
  "lat": -22.4020504,
  "lon": 46.1277094
},
{
  "type": "node",
  "id": 6780518329,
  "lat": -22.4017039,
  "lon": 46.1279671
},
{
  "type": "node",
  "id": 6780518330,
  "lat": -22.4015589,
  "lon": 46.1277638
},
{
  "type": "node",
  "id": 6780518331,
  "lat": -22.4019262,
  "lon": 46.1274203
},
{
  "type": "node",
  "id": 6780518332,
  "lat": -22.4021283,
  "lon": 46.1277059
},
{
  "type": "node",
  "id": 6780518333,
  "lat": -22.4020776,
  "lon": 46.1277478
},
{
  "type": "node",
  "id": 1809349802,
  "lat": -20.2915457,
  "lon": 44.2772820
},
{
  "type": "node",
  "id": 1809349807,
  "lat": -20.2915776,
  "lon": 44.2770694
},
{
  "type": "node",
  "id": 1809349809,
  "lat": -20.2915503,
  "lon": 44.2773437
},
{
  "type": "node",
  "id": 1809349811,
  "lat": -20.2915799,
  "lon": 44.2774158
},
{
  "type": "node",
  "id": 1809349813,
  "lat": -20.2916353,
  "lon": 44.2769661
},
{
  "type": "node",
  "id": 1809349815,
  "lat": -20.2916831,
  "lon": 44.2768844
},
{
  "type": "node",
  "id": 1809349820,
  "lat": -20.2918884,
  "lon": 44.2771516
},
{
  "type": "node",
  "id": 4996782035,
  "lat": -20.2908870,
  "lon": 44.2769194
},
{
  "type": "node",
  "id": 4996782036,
  "lat": -20.2912525,
  "lon": 44.2765677
},
{
  "type": "node",
  "id": 4996782037,
  "lat": -20.2908757,
  "lon": 44.2761241
},
{
  "type": "node",
  "id": 4996782038,
  "lat": -20.2905120,
  "lon": 44.2764797
},
{
  "type": "node",
  "id": 4999889682,
  "lat": -20.2909296,
  "lon": 44.2768786
},
{
  "type": "node",
  "id": 4999889686,
  "lat": -20.2910516,
  "lon": 44.2763306
},
{
  "type": "node",
  "id": 5072717813,
  "lat": -20.2915540,
  "lon": 44.2771750
},
{
  "type": "node",
  "id": 11224539388,
  "lat": -19.7040174,
  "lon": 44.5456199
},
{
  "type": "node",
  "id": 11224539389,
  "lat": -19.7039155,
  "lon": 44.5455971
},
{
  "type": "node",
  "id": 11224539390,
  "lat": -19.7039514,
  "lon": 44.5454326
},
{
  "type": "node",
  "id": 11224539391,
  "lat": -19.7038625,
  "lon": 44.5454158
},
{
  "type": "node",
  "id": 11224539392,
  "lat": -19.7038108,
  "lon": 44.5456687
},
{
  "type": "node",
  "id": 11224539393,
  "lat": -19.7040002,
  "lon": 44.5457114
},
{
  "type": "node",
  "id": 5978208928,
  "lat": -19.4050296,
  "lon": 46.9507283
},
{
  "type": "node",
  "id": 5978208929,
  "lat": -19.4052199,
  "lon": 46.9508522
},
{
  "type": "node",
  "id": 5978208930,
  "lat": -19.4050788,
  "lon": 46.9509737
},
{
  "type": "node",
  "id": 2016459410,
  "lat": -18.7681469,
  "lon": 46.0471069
},
{
  "type": "node",
  "id": 2016459412,
  "lat": -18.7676642,
  "lon": 46.0470682
},
{
  "type": "node",
  "id": 2016459414,
  "lat": -18.7677226,
  "lon": 46.0468913
},
{
  "type": "node",
  "id": 2016459417,
  "lat": -18.7681285,
  "lon": 46.0469398
},
{
  "type": "node",
  "id": 2016459418,
  "lat": -18.7682786,
  "lon": 46.0478644
},
{
  "type": "node",
  "id": 2016459419,
  "lat": -18.7678594,
  "lon": 46.0477437
},
{
  "type": "node",
  "id": 2016459420,
  "lat": -18.7681196,
  "lon": 46.0467823
},
{
  "type": "node",
  "id": 2016459421,
  "lat": -18.7680092,
  "lon": 46.0479200
},
{
  "type": "node",
  "id": 2016459423,
  "lat": -18.7681247,
  "lon": 46.0479816
},
{
  "type": "node",
  "id": 2016535817,
  "lat": -18.7680928,
  "lon": 46.0478874
},
{
  "type": "node",
  "id": 2016535820,
  "lat": -18.7682952,
  "lon": 46.0479217
},
{
  "type": "node",
  "id": 5157568104,
  "lat": -18.7677635,
  "lon": 46.0470318
},
{
  "type": "node",
  "id": 5157568105,
  "lat": -18.7679412,
  "lon": 46.0477157
},
{
  "type": "node",
  "id": 5464934108,
  "lat": -18.7683463,
  "lon": 46.0478425
},
{
  "type": "node",
  "id": 12643345121,
  "lat": -22.8317738,
  "lon": 47.8328411
},
{
  "type": "node",
  "id": 12643345122,
  "lat": -22.8319202,
  "lon": 47.8330258
},
{
  "type": "node",
  "id": 12643345123,
  "lat": -22.8317678,
  "lon": 47.8331681
},
{
  "type": "node",
  "id": 12643345124,
  "lat": -22.8318582,
  "lon": 47.8334623
},
{
  "type": "node",
  "id": 12643345125,
  "lat": -22.8316258,
  "lon": 47.8335464
},
{
  "type": "node",
  "id": 12643345126,
  "lat": -22.8315225,
  "lon": 47.8334857
},
{
  "type": "node",
  "id": 12643345127,
  "lat": -22.8313357,
  "lon": 47.8332501
},
{
  "type": "node",
  "id": 1300054944,
  "lat": -21.4488856,
  "lon": 47.0898454
},
{
  "type": "node",
  "id": 1300054976,
  "lat": -21.4496431,
  "lon": 47.0899373
},
{
  "type": "node",
  "id": 1300055152,
  "lat": -21.4497012,
  "lon": 47.0894001
},
{
  "type": "node",
  "id": 1300926008,
  "lat": -21.4527647,
  "lon": 47.0903381
},
{
  "type": "node",
  "id": 1300926126,
  "lat": -21.4526341,
  "lon": 47.0907664
},
{
  "type": "node",
  "id": 1300926248,
  "lat": -21.4519003,
  "lon": 47.0906829
},
{
  "type": "node",
  "id": 3701695817,
  "lat": -21.4518959,
  "lon": 47.0902527
},
{
  "type": "node",
  "id": 3701697126,
  "lat": -21.4518645,
  "lon": 47.0903208
},
{
  "type": "node",
  "id": 3701697127,
  "lat": -21.4518938,
  "lon": 47.0903206
},
{
  "type": "node",
  "id": 3812445959,
  "lat": -21.4489462,
  "lon": 47.0893771
},
{
  "type": "node",
  "id": 12615323080,
  "lat": -21.4524058,
  "lon": 47.0907399
},
{
  "type": "node",
  "id": 12709432047,
  "lat": -21.4494452,
  "lon": 47.0893923
},
{
  "type": "node",
  "id": 3253582095,
  "lat": -21.5598010,
  "lon": 47.5157396
},
{
  "type": "node",
  "id": 3253582109,
  "lat": -21.5598693,
  "lon": 47.5156880
},
{
  "type": "node",
  "id": 3253582116,
  "lat": -21.5599558,
  "lon": 47.5159767
},
{
  "type": "node",
  "id": 3253582122,
  "lat": -21.5600241,
  "lon": 47.5159251
},
{
  "type": "node",
  "id": 5582785636,
  "lat": -22.1492148,
  "lon": 48.0092765
},
{
  "type": "node",
  "id": 5582785637,
  "lat": -22.1490541,
  "lon": 48.0094905
},
{
  "type": "node",
  "id": 5582785638,
  "lat": -22.1491181,
  "lon": 48.0095452
},
{
  "type": "node",
  "id": 5582785639,
  "lat": -22.1493070,
  "lon": 48.0092929
},
{
  "type": "node",
  "id": 8962442383,
  "lat": -22.1457793,
  "lon": 48.0121880
},
{
  "type": "node",
  "id": 8962442384,
  "lat": -22.1456925,
  "lon": 48.0122212
},
{
  "type": "node",
  "id": 8962442385,
  "lat": -22.1457799,
  "lon": 48.0124137
},
{
  "type": "node",
  "id": 8962442386,
  "lat": -22.1457611,
  "lon": 48.0123926
},
{
  "type": "node",
  "id": 8962442387,
  "lat": -22.1458366,
  "lon": 48.0123546
},
{
  "type": "node",
  "id": 8962442388,
  "lat": -22.1458048,
  "lon": 48.0123470
},
{
  "type": "node",
  "id": 8962442389,
  "lat": -22.1458224,
  "lon": 48.0120779
},
{
  "type": "node",
  "id": 8962442390,
  "lat": -22.1459791,
  "lon": 48.0122533
},
{
  "type": "node",
  "id": 8962442391,
  "lat": -22.1458584,
  "lon": 48.0123790
},
{
  "type": "node",
  "id": 8962442392,
  "lat": -22.1457492,
  "lon": 48.0121542
},
{
  "type": "node",
  "id": 6954882745,
  "lat": -21.2600619,
  "lon": 47.4548517
},
{
  "type": "node",
  "id": 6954882746,
  "lat": -21.2600541,
  "lon": 47.4548740
},
{
  "type": "node",
  "id": 6954882747,
  "lat": -21.2600135,
  "lon": 47.4548537
},
{
  "type": "node",
  "id": 6954882748,
  "lat": -21.2600207,
  "lon": 47.4548340
},
{
  "type": "node",
  "id": 3766935655,
  "lat": -20.5410095,
  "lon": 47.2436731
},
{
  "type": "node",
  "id": 3766935656,
  "lat": -20.5412868,
  "lon": 47.2434667
},
{
  "type": "node",
  "id": 3766937557,
  "lat": -20.5414102,
  "lon": 47.2436745
},
{
  "type": "node",
  "id": 3766937558,
  "lat": -20.5413108,
  "lon": 47.2440320
},
{
  "type": "node",
  "id": 3766937559,
  "lat": -20.5412254,
  "lon": 47.2440383
},
{
  "type": "node",
  "id": 10688325916,
  "lat": -20.5253704,
  "lon": 47.2496800
},
{
  "type": "node",
  "id": 10688325917,
  "lat": -20.5254788,
  "lon": 47.2500479
},
{
  "type": "node",
  "id": 10688325918,
  "lat": -20.5255321,
  "lon": 47.2501428
},
{
  "type": "node",
  "id": 10688325919,
  "lat": -20.5255214,
  "lon": 47.2502224
},
{
  "type": "node",
  "id": 10688325920,
  "lat": -20.5255641,
  "lon": 47.2503248
},
{
  "type": "node",
  "id": 10688325921,
  "lat": -20.5257328,
  "lon": 47.2505202
},
{
  "type": "node",
  "id": 10688325922,
  "lat": -20.5258180,
  "lon": 47.2506055
},
{
  "type": "node",
  "id": 10688325923,
  "lat": -20.5258802,
  "lon": 47.2505998
},
{
  "type": "node",
  "id": 10688325924,
  "lat": -20.5259832,
  "lon": 47.2504690
},
{
  "type": "node",
  "id": 10688325925,
  "lat": -20.5257807,
  "lon": 47.2502376
},
{
  "type": "node",
  "id": 10688325926,
  "lat": -20.5257807,
  "lon": 47.2501636
},
{
  "type": "node",
  "id": 10688325927,
  "lat": -20.5260259,
  "lon": 47.2499474
},
{
  "type": "node",
  "id": 10688325928,
  "lat": -20.5259637,
  "lon": 47.2497805
},
{
  "type": "node",
  "id": 10688325929,
  "lat": -20.5258518,
  "lon": 47.2496345
},
{
  "type": "node",
  "id": 10688325930,
  "lat": -20.5257488,
  "lon": 47.2494429
},
{
  "type": "node",
  "id": 10688325931,
  "lat": -20.5255427,
  "lon": 47.2493898
},
{
  "type": "node",
  "id": 10688325932,
  "lat": -20.5253514,
  "lon": 47.2493675
},
{
  "type": "node",
  "id": 10688325933,
  "lat": -20.5252509,
  "lon": 47.2494453
},
{
  "type": "node",
  "id": 6036284812,
  "lat": -19.9420271,
  "lon": 47.0417942
},
{
  "type": "node",
  "id": 6036284813,
  "lat": -19.9419729,
  "lon": 47.0417911
},
{
  "type": "node",
  "id": 6036284814,
  "lat": -19.9419729,
  "lon": 47.0418144
},
{
  "type": "node",
  "id": 6036284815,
  "lat": -19.9420280,
  "lon": 47.0418144
},
{
  "type": "node",
  "id": 443645155,
  "lat": -19.8678896,
  "lon": 47.0238754
},
{
  "type": "node",
  "id": 443645157,
  "lat": -19.8683183,
  "lon": 47.0235643
},
{
  "type": "node",
  "id": 443645159,
  "lat": -19.8681771,
  "lon": 47.0236287
},
{
  "type": "node",
  "id": 443645164,
  "lat": -19.8682224,
  "lon": 47.0242025
},
{
  "type": "node",
  "id": 443645165,
  "lat": -19.8680409,
  "lon": 47.0241167
},
{
  "type": "node",
  "id": 443645166,
  "lat": -19.8685856,
  "lon": 47.0242802
},
{
  "type": "node",
  "id": 443645167,
  "lat": -19.8684091,
  "lon": 47.0242401
},
{
  "type": "node",
  "id": 443645168,
  "lat": -19.8687016,
  "lon": 47.0242106
},
{
  "type": "node",
  "id": 443645172,
  "lat": -19.8684242,
  "lon": 47.0236394
},
{
  "type": "node",
  "id": 443645173,
  "lat": -19.8685402,
  "lon": 47.0239022
},
{
  "type": "node",
  "id": 443645174,
  "lat": -19.8679551,
  "lon": 47.0240309
},
{
  "type": "node",
  "id": 5017455175,
  "lat": -19.8681402,
  "lon": 47.0241693
},
{
  "type": "node",
  "id": 443385456,
  "lat": -19.8765701,
  "lon": 47.0360992
},
{
  "type": "node",
  "id": 443385457,
  "lat": -19.8769773,
  "lon": 47.0356474
},
{
  "type": "node",
  "id": 443385458,
  "lat": -19.8769319,
  "lon": 47.0357601
},
{
  "type": "node",
  "id": 443385459,
  "lat": -19.8767480,
  "lon": 47.0356742
},
{
  "type": "node",
  "id": 443385460,
  "lat": -19.8768008,
  "lon": 47.0355870
},
{
  "type": "node",
  "id": 443385461,
  "lat": -19.8765689,
  "lon": 47.0359638
},
{
  "type": "node",
  "id": 443385462,
  "lat": -19.8766256,
  "lon": 47.0356126
},
{
  "type": "node",
  "id": 5023360928,
  "lat": -19.8768175,
  "lon": 47.0357135
},
{
  "type": "node",
  "id": 5023360929,
  "lat": -19.8767646,
  "lon": 47.0358543
},
{
  "type": "node",
  "id": 5023360930,
  "lat": -19.8769260,
  "lon": 47.0359147
},
{
  "type": "node",
  "id": 5023360931,
  "lat": -19.8768554,
  "lon": 47.0355780
},
{
  "type": "node",
  "id": 5023360932,
  "lat": -19.8768402,
  "lon": 47.0356075
},
{
  "type": "node",
  "id": 5023360933,
  "lat": -19.8765476,
  "lon": 47.0357631
},
{
  "type": "node",
  "id": 5023360934,
  "lat": -19.8765880,
  "lon": 47.0356746
},
{
  "type": "node",
  "id": 5023360935,
  "lat": -19.8765502,
  "lon": 47.0358248
},
{
  "type": "node",
  "id": 5023360936,
  "lat": -19.8766939,
  "lon": 47.0358329
},
{
  "type": "node",
  "id": 5023360937,
  "lat": -19.8766889,
  "lon": 47.0359576
},
{
  "type": "node",
  "id": 5023360938,
  "lat": -19.8769411,
  "lon": 47.0360702
},
{
  "type": "node",
  "id": 443385107,
  "lat": -19.8437190,
  "lon": 47.0377842
},
{
  "type": "node",
  "id": 443385109,
  "lat": -19.8442223,
  "lon": 47.0375189
},
{
  "type": "node",
  "id": 443385110,
  "lat": -19.8448166,
  "lon": 47.0387933
},
{
  "type": "node",
  "id": 443385112,
  "lat": -19.8443133,
  "lon": 47.0390586
},
{
  "type": "node",
  "id": 5738445900,
  "lat": -19.8442050,
  "lon": 47.0389999
},
{
  "type": "node",
  "id": 5738445901,
  "lat": -19.8442245,
  "lon": 47.0390468
},
{
  "type": "node",
  "id": 5738445902,
  "lat": -19.8442031,
  "lon": 47.0390589
},
{
  "type": "node",
  "id": 5738445903,
  "lat": -19.8441829,
  "lon": 47.0390126
},
{
  "type": "node",
  "id": 10774077303,
  "lat": -19.8444707,
  "lon": 47.0380517
},
{
  "type": "node",
  "id": 9886596691,
  "lat": -19.2577450,
  "lon": 47.1145922
},
{
  "type": "node",
  "id": 9886596692,
  "lat": -19.2577844,
  "lon": 47.1146055
},
{
  "type": "node",
  "id": 9886596693,
  "lat": -19.2579975,
  "lon": 47.1145979
},
{
  "type": "node",
  "id": 9886596694,
  "lat": -19.2579178,
  "lon": 47.1142745
},
{
  "type": "node",
  "id": 9886596690,
  "lat": -19.2576886,
  "lon": 47.1145362
},
{
  "type": "node",
  "id": 9886596695,
  "lat": -19.2576356,
  "lon": 47.1143626
},
{
  "type": "node",
  "id": 5564301095,
  "lat": -18.9387333,
  "lon": 47.3875646
},
{
  "type": "node",
  "id": 5564301096,
  "lat": -18.9386629,
  "lon": 47.3876191
},
{
  "type": "node",
  "id": 5564301097,
  "lat": -18.9386302,
  "lon": 47.3875719
},
{
  "type": "node",
  "id": 5564301098,
  "lat": -18.9387005,
  "lon": 47.3875174
},
{
  "type": "node",
  "id": 5445302614,
  "lat": -19.1093661,
  "lon": 47.6006047
},
{
  "type": "node",
  "id": 5445302615,
  "lat": -19.1093644,
  "lon": 47.6006398
},
{
  "type": "node",
  "id": 5445302616,
  "lat": -19.1093494,
  "lon": 47.6006275
},
{
  "type": "node",
  "id": 5445302617,
  "lat": -19.1093793,
  "lon": 47.6005867
},
{
  "type": "node",
  "id": 5445302618,
  "lat": -19.1093943,
  "lon": 47.6005989
},
{
  "type": "node",
  "id": 5445302619,
  "lat": -19.1092997,
  "lon": 47.6006581
},
{
  "type": "node",
  "id": 5445302620,
  "lat": -19.1093343,
  "lon": 47.6006285
},
{
  "type": "node",
  "id": 5445303521,
  "lat": -19.1093230,
  "lon": 47.6006136
},
{
  "type": "node",
  "id": 5445303522,
  "lat": -19.1092883,
  "lon": 47.6006431
},
{
  "type": "node",
  "id": 5664607055,
  "lat": -19.0099924,
  "lon": 47.4648627
},
{
  "type": "node",
  "id": 5664607056,
  "lat": -19.0099800,
  "lon": 47.4648377
},
{
  "type": "node",
  "id": 5664607057,
  "lat": -19.0099422,
  "lon": 47.4648586
},
{
  "type": "node",
  "id": 10168772861,
  "lat": -19.0099546,
  "lon": 47.4648836
},
{
  "type": "node",
  "id": 5547624120,
  "lat": -19.0032389,
  "lon": 47.4914661
},
{
  "type": "node",
  "id": 5547626421,
  "lat": -19.0032526,
  "lon": 47.4915041
},
{
  "type": "node",
  "id": 5547626422,
  "lat": -19.0032924,
  "lon": 47.4914880
},
{
  "type": "node",
  "id": 5547626423,
  "lat": -19.0032787,
  "lon": 47.4914500
},
{
  "type": "node",
  "id": 5547626424,
  "lat": -19.0031649,
  "lon": 47.4915818
},
{
  "type": "node",
  "id": 5547626425,
  "lat": -19.0031709,
  "lon": 47.4916038
},
{
  "type": "node",
  "id": 5547626426,
  "lat": -19.0032224,
  "lon": 47.4915881
},
{
  "type": "node",
  "id": 5547626427,
  "lat": -19.0032164,
  "lon": 47.4915661
},
{
  "type": "node",
  "id": 5540287083,
  "lat": -18.9753046,
  "lon": 47.4588202
},
{
  "type": "node",
  "id": 5540287084,
  "lat": -18.9753080,
  "lon": 47.4588699
},
{
  "type": "node",
  "id": 5540287085,
  "lat": -18.9753748,
  "lon": 47.4588649
},
{
  "type": "node",
  "id": 5540287086,
  "lat": -18.9753715,
  "lon": 47.4588152
},
{
  "type": "node",
  "id": 5548116785,
  "lat": -18.9751742,
  "lon": 47.4588209
},
{
  "type": "node",
  "id": 5548116786,
  "lat": -18.9752332,
  "lon": 47.4588175
},
{
  "type": "node",
  "id": 5548116787,
  "lat": -18.9752353,
  "lon": 47.4588577
},
{
  "type": "node",
  "id": 5548116788,
  "lat": -18.9751763,
  "lon": 47.4588612
},
{
  "type": "node",
  "id": 11893683590,
  "lat": -19.0513656,
  "lon": 47.5487793
},
{
  "type": "node",
  "id": 11893683591,
  "lat": -19.0516051,
  "lon": 47.5489879
},
{
  "type": "node",
  "id": 11893683592,
  "lat": -19.0518868,
  "lon": 47.5488895
},
{
  "type": "node",
  "id": 11893683593,
  "lat": -19.0519403,
  "lon": 47.5489342
},
{
  "type": "node",
  "id": 11893683594,
  "lat": -19.0519628,
  "lon": 47.5488329
},
{
  "type": "node",
  "id": 11893683595,
  "lat": -19.0519093,
  "lon": 47.5487763
},
{
  "type": "node",
  "id": 11893683596,
  "lat": -19.0519177,
  "lon": 47.5486273
},
{
  "type": "node",
  "id": 11893683597,
  "lat": -19.0518051,
  "lon": 47.5485617
},
{
  "type": "node",
  "id": 11893683598,
  "lat": -19.0517403,
  "lon": 47.5481445
},
{
  "type": "node",
  "id": 11893683599,
  "lat": -19.0516896,
  "lon": 47.5481177
},
{
  "type": "node",
  "id": 11893683600,
  "lat": -19.0517234,
  "lon": 47.5485200
},
{
  "type": "node",
  "id": 5539990128,
  "lat": -18.9975555,
  "lon": 47.5356307
},
{
  "type": "node",
  "id": 5539990129,
  "lat": -18.9975487,
  "lon": 47.5356440
},
{
  "type": "node",
  "id": 5539990130,
  "lat": -18.9975772,
  "lon": 47.5356604
},
{
  "type": "node",
  "id": 5539990131,
  "lat": -18.9975840,
  "lon": 47.5356471
},
{
  "type": "node",
  "id": 5450915077,
  "lat": -18.9823181,
  "lon": 47.5012814
},
{
  "type": "node",
  "id": 5450915078,
  "lat": -18.9823714,
  "lon": 47.5012874
},
{
  "type": "node",
  "id": 5450915079,
  "lat": -18.9823666,
  "lon": 47.5014274
},
{
  "type": "node",
  "id": 5450915080,
  "lat": -18.9823127,
  "lon": 47.5014177
},
{
  "type": "node",
  "id": 5450915081,
  "lat": -18.9823771,
  "lon": 47.5017956
},
{
  "type": "node",
  "id": 5450915082,
  "lat": -18.9824444,
  "lon": 47.5017795
},
{
  "type": "node",
  "id": 5450915083,
  "lat": -18.9824549,
  "lon": 47.5018125
},
{
  "type": "node",
  "id": 5450915084,
  "lat": -18.9823827,
  "lon": 47.5018331
},
{
  "type": "node",
  "id": 5450707815,
  "lat": -18.9491578,
  "lon": 47.4669536
},
{
  "type": "node",
  "id": 5450707816,
  "lat": -18.9491825,
  "lon": 47.4669390
},
{
  "type": "node",
  "id": 5450707817,
  "lat": -18.9492117,
  "lon": 47.4670014
},
{
  "type": "node",
  "id": 5450707818,
  "lat": -18.9491811,
  "lon": 47.4670122
},
{
  "type": "node",
  "id": 5445578731,
  "lat": -18.9368959,
  "lon": 47.4786405
},
{
  "type": "node",
  "id": 5445578732,
  "lat": -18.9368753,
  "lon": 47.4785976
},
{
  "type": "node",
  "id": 5445578734,
  "lat": -18.9368039,
  "lon": 47.4786358
},
{
  "type": "node",
  "id": 5445578737,
  "lat": -18.9368180,
  "lon": 47.4786887
},
{
  "type": "node",
  "id": 5445578738,
  "lat": -18.9367742,
  "lon": 47.4787141
},
{
  "type": "node",
  "id": 5549724960,
  "lat": -18.9367956,
  "lon": 47.4786457
},
{
  "type": "node",
  "id": 8504882528,
  "lat": -18.9368244,
  "lon": 47.4786787
},
{
  "type": "node",
  "id": 8504882529,
  "lat": -18.9367518,
  "lon": 47.4786712
},
{
  "type": "node",
  "id": 5436716948,
  "lat": -18.9410200,
  "lon": 47.4933118
},
{
  "type": "node",
  "id": 5436716949,
  "lat": -18.9410816,
  "lon": 47.4935049
},
{
  "type": "node",
  "id": 5436716950,
  "lat": -18.9411501,
  "lon": 47.4937067
},
{
  "type": "node",
  "id": 5436716951,
  "lat": -18.9411843,
  "lon": 47.4937805
},
{
  "type": "node",
  "id": 5436716952,
  "lat": -18.9412021,
  "lon": 47.4937751
},
{
  "type": "node",
  "id": 5436716953,
  "lat": -18.9411900,
  "lon": 47.4937483
},
{
  "type": "node",
  "id": 5436716954,
  "lat": -18.9411653,
  "lon": 47.4936853
},
{
  "type": "node",
  "id": 5436716955,
  "lat": -18.9411361,
  "lon": 47.4935853
},
{
  "type": "node",
  "id": 5436716956,
  "lat": -18.9410993,
  "lon": 47.4934881
},
{
  "type": "node",
  "id": 5436716957,
  "lat": -18.9410543,
  "lon": 47.4933486
},
{
  "type": "node",
  "id": 5436716958,
  "lat": -18.9410365,
  "lon": 47.4932957
},
{
  "type": "node",
  "id": 5442108056,
  "lat": -18.9405653,
  "lon": 47.4915925
},
{
  "type": "node",
  "id": 5442108057,
  "lat": -18.9405796,
  "lon": 47.4916602
},
{
  "type": "node",
  "id": 5442108058,
  "lat": -18.9405865,
  "lon": 47.4916900
},
{
  "type": "node",
  "id": 5442108059,
  "lat": -18.9406043,
  "lon": 47.4916830
},
{
  "type": "node",
  "id": 5442108060,
  "lat": -18.9405967,
  "lon": 47.4916468
},
{
  "type": "node",
  "id": 5442108061,
  "lat": -18.9405910,
  "lon": 47.4916149
},
{
  "type": "node",
  "id": 5442108062,
  "lat": -18.9405865,
  "lon": 47.4915995
},
{
  "type": "node",
  "id": 5442108063,
  "lat": -18.9405815,
  "lon": 47.4915680
},
{
  "type": "node",
  "id": 5442108064,
  "lat": -18.9405780,
  "lon": 47.4915311
},
{
  "type": "node",
  "id": 5442108065,
  "lat": -18.9405748,
  "lon": 47.4915040
},
{
  "type": "node",
  "id": 5442108066,
  "lat": -18.9405570,
  "lon": 47.4915040
},
{
  "type": "node",
  "id": 5547491783,
  "lat": -18.9414272,
  "lon": 47.4950311
},
{
  "type": "node",
  "id": 5547491784,
  "lat": -18.9414465,
  "lon": 47.4950325
},
{
  "type": "node",
  "id": 5547491785,
  "lat": -18.9414439,
  "lon": 47.4950720
},
{
  "type": "node",
  "id": 5547491786,
  "lat": -18.9414246,
  "lon": 47.4950706
},
{
  "type": "node",
  "id": 5547626428,
  "lat": -18.9413435,
  "lon": 47.4950593
},
{
  "type": "node",
  "id": 5547626429,
  "lat": -18.9413696,
  "lon": 47.4950610
},
{
  "type": "node",
  "id": 5547626430,
  "lat": -18.9413684,
  "lon": 47.4950824
},
{
  "type": "node",
  "id": 5547626431,
  "lat": -18.9413423,
  "lon": 47.4950807
},
{
  "type": "node",
  "id": 5548170209,
  "lat": -18.9414281,
  "lon": 47.4949778
},
{
  "type": "node",
  "id": 5548170210,
  "lat": -18.9414474,
  "lon": 47.4949792
},
{
  "type": "node",
  "id": 5548170211,
  "lat": -18.9414448,
  "lon": 47.4950187
},
{
  "type": "node",
  "id": 5548170212,
  "lat": -18.9414255,
  "lon": 47.4950173
},
{
  "type": "node",
  "id": 5548170213,
  "lat": -18.9413609,
  "lon": 47.4949357
},
{
  "type": "node",
  "id": 5548170214,
  "lat": -18.9413870,
  "lon": 47.4949374
},
{
  "type": "node",
  "id": 5548170215,
  "lat": -18.9413858,
  "lon": 47.4949588
},
{
  "type": "node",
  "id": 5548170216,
  "lat": -18.9413597,
  "lon": 47.4949571
},
{
  "type": "node",
  "id": 5476424894,
  "lat": -18.9249437,
  "lon": 47.4606478
},
{
  "type": "node",
  "id": 5476424895,
  "lat": -18.9249865,
  "lon": 47.4606943
},
{
  "type": "node",
  "id": 5476424896,
  "lat": -18.9253040,
  "lon": 47.4601623
},
{
  "type": "node",
  "id": 5476424897,
  "lat": -18.9252304,
  "lon": 47.4601221
},
{
  "type": "node",
  "id": 5476564791,
  "lat": -18.9322641,
  "lon": 47.4806142
},
{
  "type": "node",
  "id": 5476564792,
  "lat": -18.9322723,
  "lon": 47.4806719
},
{
  "type": "node",
  "id": 5476564793,
  "lat": -18.9321632,
  "lon": 47.4806759
},
{
  "type": "node",
  "id": 5476564794,
  "lat": -18.9321537,
  "lon": 47.4806296
},
{
  "type": "node",
  "id": 5454041006,
  "lat": -18.9201990,
  "lon": 47.4887675
},
{
  "type": "node",
  "id": 5454041007,
  "lat": -18.9202242,
  "lon": 47.4887236
},
{
  "type": "node",
  "id": 5454041008,
  "lat": -18.9202422,
  "lon": 47.4887351
},
{
  "type": "node",
  "id": 5454041009,
  "lat": -18.9202170,
  "lon": 47.4887791
},
{
  "type": "node",
  "id": 5454111821,
  "lat": -18.9201809,
  "lon": 47.4887224
},
{
  "type": "node",
  "id": 5454111822,
  "lat": -18.9201673,
  "lon": 47.4887282
},
{
  "type": "node",
  "id": 5454111823,
  "lat": -18.9201550,
  "lon": 47.4886957
},
{
  "type": "node",
  "id": 5454111824,
  "lat": -18.9201687,
  "lon": 47.4886900
},
{
  "type": "node",
  "id": 5453788742,
  "lat": -18.9064878,
  "lon": 47.4461724
},
{
  "type": "node",
  "id": 5453788743,
  "lat": -18.9064566,
  "lon": 47.4461593
},
{
  "type": "node",
  "id": 5453788744,
  "lat": -18.9064652,
  "lon": 47.4461366
},
{
  "type": "node",
  "id": 5453788745,
  "lat": -18.9064964,
  "lon": 47.4461497
},
{
  "type": "node",
  "id": 5453837945,
  "lat": -18.9063600,
  "lon": 47.4461731
},
{
  "type": "node",
  "id": 5453837946,
  "lat": -18.9063288,
  "lon": 47.4461600
},
{
  "type": "node",
  "id": 5453837947,
  "lat": -18.9063374,
  "lon": 47.4461373
},
{
  "type": "node",
  "id": 5453837948,
  "lat": -18.9063686,
  "lon": 47.4461504
},
{
  "type": "node",
  "id": 5453837941,
  "lat": -18.9087194,
  "lon": 47.4519115
},
{
  "type": "node",
  "id": 5453837942,
  "lat": -18.9087047,
  "lon": 47.4519222
},
{
  "type": "node",
  "id": 5453837943,
  "lat": -18.9086837,
  "lon": 47.4518901
},
{
  "type": "node",
  "id": 5453837944,
  "lat": -18.9086984,
  "lon": 47.4518794
},
{
  "type": "node",
  "id": 5453837949,
  "lat": -18.9088405,
  "lon": 47.4519990
},
{
  "type": "node",
  "id": 5453837950,
  "lat": -18.9088259,
  "lon": 47.4520097
},
{
  "type": "node",
  "id": 5453837951,
  "lat": -18.9088049,
  "lon": 47.4519776
},
{
  "type": "node",
  "id": 5453837952,
  "lat": -18.9088195,
  "lon": 47.4519669
},
{
  "type": "node",
  "id": 5453973481,
  "lat": -18.9085784,
  "lon": 47.4762004
},
{
  "type": "node",
  "id": 5453973482,
  "lat": -18.9085709,
  "lon": 47.4761849
},
{
  "type": "node",
  "id": 5453973483,
  "lat": -18.9086083,
  "lon": 47.4761647
},
{
  "type": "node",
  "id": 5453973484,
  "lat": -18.9086158,
  "lon": 47.4761801
},
{
  "type": "node",
  "id": 5454193825,
  "lat": -18.9083937,
  "lon": 47.4762535
},
{
  "type": "node",
  "id": 5454193826,
  "lat": -18.9084323,
  "lon": 47.4762338
},
{
  "type": "node",
  "id": 5454193827,
  "lat": -18.9084413,
  "lon": 47.4762537
},
{
  "type": "node",
  "id": 5454193828,
  "lat": -18.9083570,
  "lon": 47.4762840
},
{
  "type": "node",
  "id": 5476282065,
  "lat": -18.9084069,
  "lon": 47.4765052
},
{
  "type": "node",
  "id": 5476282066,
  "lat": -18.9084633,
  "lon": 47.4764760
},
{
  "type": "node",
  "id": 5476282067,
  "lat": -18.9083954,
  "lon": 47.4763295
},
{
  "type": "node",
  "id": 5476282068,
  "lat": -18.9083390,
  "lon": 47.4763587
},
{
  "type": "node",
  "id": 5548221956,
  "lat": -18.8999776,
  "lon": 47.4743961
},
{
  "type": "node",
  "id": 5548221957,
  "lat": -18.9000376,
  "lon": 47.4744007
},
{
  "type": "node",
  "id": 5548221958,
  "lat": -18.9000357,
  "lon": 47.4744275
},
{
  "type": "node",
  "id": 5548221959,
  "lat": -18.8999757,
  "lon": 47.4744228
},
{
  "type": "node",
  "id": 5645770249,
  "lat": -18.8999729,
  "lon": 47.4744495
},
{
  "type": "node",
  "id": 5645770250,
  "lat": -18.9000329,
  "lon": 47.4744541
},
{
  "type": "node",
  "id": 5645770251,
  "lat": -18.9000310,
  "lon": 47.4744809
},
{
  "type": "node",
  "id": 5645770252,
  "lat": -18.8999710,
  "lon": 47.4744762
},
{
  "type": "node",
  "id": 5414315196,
  "lat": -18.8949365,
  "lon": 47.4798352
},
{
  "type": "node",
  "id": 5414315197,
  "lat": -18.8949677,
  "lon": 47.4798221
},
{
  "type": "node",
  "id": 5414315198,
  "lat": -18.8949703,
  "lon": 47.4799251
},
{
  "type": "node",
  "id": 5414315199,
  "lat": -18.8950015,
  "lon": 47.4799119
},
{
  "type": "node",
  "id": 5452429848,
  "lat": -18.8588901,
  "lon": 47.4727694
},
{
  "type": "node",
  "id": 5452429849,
  "lat": -18.8588820,
  "lon": 47.4728427
},
{
  "type": "node",
  "id": 5452429850,
  "lat": -18.8589274,
  "lon": 47.4728063
},
{
  "type": "node",
  "id": 5452429851,
  "lat": -18.8589655,
  "lon": 47.4728143
},
{
  "type": "node",
  "id": 5452429852,
  "lat": -18.8589807,
  "lon": 47.4727821
},
{
  "type": "node",
  "id": 5452429853,
  "lat": -18.8589046,
  "lon": 47.4727607
},
{
  "type": "node",
  "id": 5528462726,
  "lat": -18.8693815,
  "lon": 47.4916400
},
{
  "type": "node",
  "id": 5528462727,
  "lat": -18.8693663,
  "lon": 47.4916802
},
{
  "type": "node",
  "id": 5528462728,
  "lat": -18.8693358,
  "lon": 47.4917634
},
{
  "type": "node",
  "id": 5528462729,
  "lat": -18.8692711,
  "lon": 47.4918506
},
{
  "type": "node",
  "id": 5528462730,
  "lat": -18.8692305,
  "lon": 47.4918117
},
{
  "type": "node",
  "id": 5528462731,
  "lat": -18.8692660,
  "lon": 47.4917621
},
{
  "type": "node",
  "id": 5528462732,
  "lat": -18.8693447,
  "lon": 47.4916253
},
{
  "type": "node",
  "id": 6068451912,
  "lat": -18.9621360,
  "lon": 47.5110935
},
{
  "type": "node",
  "id": 6068451913,
  "lat": -18.9621477,
  "lon": 47.5111111
},
{
  "type": "node",
  "id": 6068451914,
  "lat": -18.9620298,
  "lon": 47.5111987
},
{
  "type": "node",
  "id": 6068451915,
  "lat": -18.9620181,
  "lon": 47.5111811
},
{
  "type": "node",
  "id": 5447808908,
  "lat": -18.9539258,
  "lon": 47.5158717
},
{
  "type": "node",
  "id": 5447808909,
  "lat": -18.9539405,
  "lon": 47.5159212
},
{
  "type": "node",
  "id": 5447808911,
  "lat": -18.9540580,
  "lon": 47.5158824
},
{
  "type": "node",
  "id": 5447808912,
  "lat": -18.9540434,
  "lon": 47.5158329
},
{
  "type": "node",
  "id": 5450919093,
  "lat": -18.9538669,
  "lon": 47.5158068
},
{
  "type": "node",
  "id": 5450919094,
  "lat": -18.9537426,
  "lon": 47.5158444
},
{
  "type": "node",
  "id": 5450919095,
  "lat": -18.9537566,
  "lon": 47.5158900
},
{
  "type": "node",
  "id": 5450919096,
  "lat": -18.9538771,
  "lon": 47.5158444
},
{
  "type": "node",
  "id": 5530927446,
  "lat": -18.9540650,
  "lon": 47.5158255
},
{
  "type": "node",
  "id": 5530927447,
  "lat": -18.9540775,
  "lon": 47.5158651
},
{
  "type": "node",
  "id": 5530927448,
  "lat": -18.9541416,
  "lon": 47.5158469
},
{
  "type": "node",
  "id": 5530927449,
  "lat": -18.9541278,
  "lon": 47.5158023
},
{
  "type": "node",
  "id": 5530927451,
  "lat": -18.9540577,
  "lon": 47.5157866
},
{
  "type": "node",
  "id": 5530927452,
  "lat": -18.9540523,
  "lon": 47.5157689
},
{
  "type": "node",
  "id": 5530927453,
  "lat": -18.9540994,
  "lon": 47.5157514
},
{
  "type": "node",
  "id": 5530927454,
  "lat": -18.9541057,
  "lon": 47.5157733
},
{
  "type": "node",
  "id": 739293659,
  "lat": -18.9463700,
  "lon": 47.5147329
},
{
  "type": "node",
  "id": 739293667,
  "lat": -18.9448924,
  "lon": 47.5148233
},
{
  "type": "node",
  "id": 739293670,
  "lat": -18.9449736,
  "lon": 47.5154885
},
{
  "type": "node",
  "id": 739293675,
  "lat": -18.9450142,
  "lon": 47.5162288
},
{
  "type": "node",
  "id": 739293678,
  "lat": -18.9456535,
  "lon": 47.5161966
},
{
  "type": "node",
  "id": 739293682,
  "lat": -18.9458869,
  "lon": 47.5161537
},
{
  "type": "node",
  "id": 739293685,
  "lat": -18.9462248,
  "lon": 47.5163175
},
{
  "type": "node",
  "id": 739293688,
  "lat": -18.9463576,
  "lon": 47.5158822
},
{
  "type": "node",
  "id": 739293691,
  "lat": -18.9464247,
  "lon": 47.5154671
},
{
  "type": "node",
  "id": 5530927315,
  "lat": -18.9435765,
  "lon": 47.5245785
},
{
  "type": "node",
  "id": 5530927316,
  "lat": -18.9435903,
  "lon": 47.5245915
},
{
  "type": "node",
  "id": 5530927317,
  "lat": -18.9435793,
  "lon": 47.5246048
},
{
  "type": "node",
  "id": 5530927318,
  "lat": -18.9435664,
  "lon": 47.5245918
},
{
  "type": "node",
  "id": 5530927319,
  "lat": -18.9435682,
  "lon": 47.5245199
},
{
  "type": "node",
  "id": 5530927320,
  "lat": -18.9435510,
  "lon": 47.5244999
},
{
  "type": "node",
  "id": 5530927421,
  "lat": -18.9435166,
  "lon": 47.5245463
},
{
  "type": "node",
  "id": 5530927422,
  "lat": -18.9435364,
  "lon": 47.5245663
},
{
  "type": "node",
  "id": 5649341952,
  "lat": -18.9435691,
  "lon": 47.5246173
},
{
  "type": "node",
  "id": 5649341953,
  "lat": -18.9435558,
  "lon": 47.5246047
},
{
  "type": "node",
  "id": 5647606327,
  "lat": -18.9371203,
  "lon": 47.5521078
},
{
  "type": "node",
  "id": 5647606328,
  "lat": -18.9371562,
  "lon": 47.5520776
},
{
  "type": "node",
  "id": 5647606329,
  "lat": -18.9371397,
  "lon": 47.5520552
},
{
  "type": "node",
  "id": 5647606330,
  "lat": -18.9371061,
  "lon": 47.5520863
},
{
  "type": "node",
  "id": 5647647541,
  "lat": -18.9370896,
  "lon": 47.5521071
},
{
  "type": "node",
  "id": 5647647542,
  "lat": -18.9371023,
  "lon": 47.5521219
},
{
  "type": "node",
  "id": 5647647543,
  "lat": -18.9371137,
  "lon": 47.5521145
},
{
  "type": "node",
  "id": 5647647544,
  "lat": -18.9371004,
  "lon": 47.5520937
},
{
  "type": "node",
  "id": 5529638725,
  "lat": -18.9358846,
  "lon": 47.5029586
},
{
  "type": "node",
  "id": 5529638726,
  "lat": -18.9358496,
  "lon": 47.5029974
},
{
  "type": "node",
  "id": 5529638727,
  "lat": -18.9358298,
  "lon": 47.5029775
},
{
  "type": "node",
  "id": 5529638728,
  "lat": -18.9358648,
  "lon": 47.5029387
},
{
  "type": "node",
  "id": 5535873033,
  "lat": -18.9358425,
  "lon": 47.5030055
},
{
  "type": "node",
  "id": 5535873034,
  "lat": -18.9358075,
  "lon": 47.5030443
},
{
  "type": "node",
  "id": 5535873035,
  "lat": -18.9357877,
  "lon": 47.5030244
},
{
  "type": "node",
  "id": 5535873036,
  "lat": -18.9358227,
  "lon": 47.5029856
},
{
  "type": "node",
  "id": 5535873037,
  "lat": -18.9365307,
  "lon": 47.5020286
},
{
  "type": "node",
  "id": 5535873038,
  "lat": -18.9364957,
  "lon": 47.5020674
},
{
  "type": "node",
  "id": 5535873039,
  "lat": -18.9364759,
  "lon": 47.5020475
},
{
  "type": "node",
  "id": 5535873040,
  "lat": -18.9365109,
  "lon": 47.5020087
},
{
  "type": "node",
  "id": 3282379510,
  "lat": -18.9238144,
  "lon": 47.5133274
},
{
  "type": "node",
  "id": 3282379511,
  "lat": -18.9239619,
  "lon": 47.5131700
},
{
  "type": "node",
  "id": 3282379512,
  "lat": -18.9247695,
  "lon": 47.5143277
},
{
  "type": "node",
  "id": 3282379513,
  "lat": -18.9249170,
  "lon": 47.5141703
},
{
  "type": "node",
  "id": 5538353062,
  "lat": -18.9258481,
  "lon": 47.5137892
},
{
  "type": "node",
  "id": 5538353063,
  "lat": -18.9257959,
  "lon": 47.5138846
},
{
  "type": "node",
  "id": 5538353065,
  "lat": -18.9257915,
  "lon": 47.5137922
},
{
  "type": "node",
  "id": 8715295602,
  "lat": -18.9240905,
  "lon": 47.5136194
},
{
  "type": "node",
  "id": 8727633642,
  "lat": -18.9258525,
  "lon": 47.5138815
},
{
  "type": "node",
  "id": 5664378124,
  "lat": -18.9208192,
  "lon": 47.5170848
},
{
  "type": "node",
  "id": 5664378125,
  "lat": -18.9208308,
  "lon": 47.5170418
},
{
  "type": "node",
  "id": 5664378126,
  "lat": -18.9207688,
  "lon": 47.5170232
},
{
  "type": "node",
  "id": 5664378127,
  "lat": -18.9207572,
  "lon": 47.5170662
},
{
  "type": "node",
  "id": 5530330563,
  "lat": -18.9189324,
  "lon": 47.5241612
},
{
  "type": "node",
  "id": 5530330564,
  "lat": -18.9189382,
  "lon": 47.5241881
},
{
  "type": "node",
  "id": 5530330565,
  "lat": -18.9190012,
  "lon": 47.5241728
},
{
  "type": "node",
  "id": 5530330566,
  "lat": -18.9189953,
  "lon": 47.5241459
},
{
  "type": "node",
  "id": 5530330568,
  "lat": -18.9189184,
  "lon": 47.5242044
},
{
  "type": "node",
  "id": 5530330569,
  "lat": -18.9189140,
  "lon": 47.5241811
},
{
  "type": "node",
  "id": 5530330570,
  "lat": -18.9188652,
  "lon": 47.5241914
},
{
  "type": "node",
  "id": 5530330571,
  "lat": -18.9188696,
  "lon": 47.5242147
},
{
  "type": "node",
  "id": 5530330572,
  "lat": -18.9187440,
  "lon": 47.5243044
},
{
  "type": "node",
  "id": 5530330573,
  "lat": -18.9187376,
  "lon": 47.5242818
},
{
  "type": "node",
  "id": 5530330574,
  "lat": -18.9186887,
  "lon": 47.5242972
},
{
  "type": "node",
  "id": 5530330575,
  "lat": -18.9186951,
  "lon": 47.5243198
},
{
  "type": "node",
  "id": 5533585227,
  "lat": -18.9190074,
  "lon": 47.5241384
},
{
  "type": "node",
  "id": 5533585228,
  "lat": -18.9190161,
  "lon": 47.5241670
},
{
  "type": "node",
  "id": 5533585229,
  "lat": -18.9190681,
  "lon": 47.5241492
},
{
  "type": "node",
  "id": 5533585230,
  "lat": -18.9190593,
  "lon": 47.5241206
},
{
  "type": "node",
  "id": 5533585231,
  "lat": -18.9190937,
  "lon": 47.5241069
},
{
  "type": "node",
  "id": 5533585232,
  "lat": -18.9191027,
  "lon": 47.5241337
},
{
  "type": "node",
  "id": 5533585233,
  "lat": -18.9191560,
  "lon": 47.5241136
},
{
  "type": "node",
  "id": 5533585234,
  "lat": -18.9191469,
  "lon": 47.5240868
},
{
  "type": "node",
  "id": 5548116588,
  "lat": -18.9189626,
  "lon": 47.5245738
},
{
  "type": "node",
  "id": 5548116589,
  "lat": -18.9189736,
  "lon": 47.5246107
},
{
  "type": "node",
  "id": 5548116590,
  "lat": -18.9188857,
  "lon": 47.5246399
},
{
  "type": "node",
  "id": 5548116591,
  "lat": -18.9188747,
  "lon": 47.5246030
},
{
  "type": "node",
  "id": 5548116592,
  "lat": -18.9186978,
  "lon": 47.5247059
},
{
  "type": "node",
  "id": 5548116593,
  "lat": -18.9187857,
  "lon": 47.5246767
},
{
  "type": "node",
  "id": 5548116594,
  "lat": -18.9187747,
  "lon": 47.5246398
},
{
  "type": "node",
  "id": 5548116595,
  "lat": -18.9186869,
  "lon": 47.5246690
},
{
  "type": "node",
  "id": 5550589814,
  "lat": -18.9179604,
  "lon": 47.5224190
},
{
  "type": "node",
  "id": 5550589815,
  "lat": -18.9179791,
  "lon": 47.5223866
},
{
  "type": "node",
  "id": 5550589816,
  "lat": -18.9179651,
  "lon": 47.5223775
},
{
  "type": "node",
  "id": 5550589817,
  "lat": -18.9179464,
  "lon": 47.5224099
},
{
  "type": "node",
  "id": 5556555138,
  "lat": -18.9188067,
  "lon": 47.5241699
},
{
  "type": "node",
  "id": 5556555139,
  "lat": -18.9188351,
  "lon": 47.5241602
},
{
  "type": "node",
  "id": 5556555140,
  "lat": -18.9188433,
  "lon": 47.5241924
},
{
  "type": "node",
  "id": 5556555141,
  "lat": -18.9188118,
  "lon": 47.5242021
},
{
  "type": "node",
  "id": 5564301091,
  "lat": -18.9193657,
  "lon": 47.5205558
},
{
  "type": "node",
  "id": 5564301092,
  "lat": -18.9193869,
  "lon": 47.5205755
},
{
  "type": "node",
  "id": 5564301093,
  "lat": -18.9194181,
  "lon": 47.5205381
},
{
  "type": "node",
  "id": 5564301094,
  "lat": -18.9193969,
  "lon": 47.5205184
},
{
  "type": "node",
  "id": 5445302601,
  "lat": -18.9112000,
  "lon": 47.5177500
},
{
  "type": "node",
  "id": 5445302602,
  "lat": -18.9112191,
  "lon": 47.5177293
},
{
  "type": "node",
  "id": 5445302603,
  "lat": -18.9111924,
  "lon": 47.5177018
},
{
  "type": "node",
  "id": 5445302604,
  "lat": -18.9111733,
  "lon": 47.5177225
},
{
  "type": "node",
  "id": 5445303527,
  "lat": -18.9128287,
  "lon": 47.5193527
},
{
  "type": "node",
  "id": 5445303528,
  "lat": -18.9127703,
  "lon": 47.5193520
},
{
  "type": "node",
  "id": 5445303529,
  "lat": -18.9127189,
  "lon": 47.5193607
},
{
  "type": "node",
  "id": 5445303530,
  "lat": -18.9126828,
  "lon": 47.5193721
},
{
  "type": "node",
  "id": 5445303531,
  "lat": -18.9126143,
  "lon": 47.5193902
},
{
  "type": "node",
  "id": 5445303532,
  "lat": -18.9125159,
  "lon": 47.5194392
},
{
  "type": "node",
  "id": 5445303533,
  "lat": -18.9125299,
  "lon": 47.5195069
},
{
  "type": "node",
  "id": 5445303534,
  "lat": -18.9126079,
  "lon": 47.5194640
},
{
  "type": "node",
  "id": 5445303535,
  "lat": -18.9126828,
  "lon": 47.5194278
},
{
  "type": "node",
  "id": 5445303536,
  "lat": -18.9127503,
  "lon": 47.5194149
},
{
  "type": "node",
  "id": 5445303537,
  "lat": -18.9127884,
  "lon": 47.5194083
},
{
  "type": "node",
  "id": 5445303538,
  "lat": -18.9128344,
  "lon": 47.5194087
},
{
  "type": "node",
  "id": 5445303539,
  "lat": -18.9129156,
  "lon": 47.5194135
},
{
  "type": "node",
  "id": 5445303540,
  "lat": -18.9129207,
  "lon": 47.5193654
},
{
  "type": "node",
  "id": 5450707811,
  "lat": -18.9114798,
  "lon": 47.5175363
},
{
  "type": "node",
  "id": 5450707812,
  "lat": -18.9115514,
  "lon": 47.5176005
},
{
  "type": "node",
  "id": 5450707813,
  "lat": -18.9115077,
  "lon": 47.5176476
},
{
  "type": "node",
  "id": 5450707814,
  "lat": -18.9114366,
  "lon": 47.5175838
},
{
  "type": "node",
  "id": 5533502336,
  "lat": -18.9109141,
  "lon": 47.5182794
},
{
  "type": "node",
  "id": 5533502337,
  "lat": -18.9109381,
  "lon": 47.5182826
},
{
  "type": "node",
  "id": 5533502338,
  "lat": -18.9109272,
  "lon": 47.5183586
},
{
  "type": "node",
  "id": 5533502339,
  "lat": -18.9109029,
  "lon": 47.5183550
},
{
  "type": "node",
  "id": 5533502343,
  "lat": -18.9109199,
  "lon": 47.5182305
},
{
  "type": "node",
  "id": 5533502344,
  "lat": -18.9109412,
  "lon": 47.5182342
},
{
  "type": "node",
  "id": 5533502345,
  "lat": -18.9109376,
  "lon": 47.5182740
},
{
  "type": "node",
  "id": 5533502346,
  "lat": -18.9109160,
  "lon": 47.5182716
},
{
  "type": "node",
  "id": 5544528468,
  "lat": -18.9111883,
  "lon": 47.5172716
},
{
  "type": "node",
  "id": 5544528469,
  "lat": -18.9111956,
  "lon": 47.5172634
},
{
  "type": "node",
  "id": 5544528470,
  "lat": -18.9112085,
  "lon": 47.5172761
},
{
  "type": "node",
  "id": 5544528471,
  "lat": -18.9112012,
  "lon": 47.5172843
},
{
  "type": "node",
  "id": 5549598593,
  "lat": -18.9110575,
  "lon": 47.5171248
},
{
  "type": "node",
  "id": 5549598594,
  "lat": -18.9110728,
  "lon": 47.5171385
},
{
  "type": "node",
  "id": 5549598595,
  "lat": -18.9110662,
  "lon": 47.5171467
},
{
  "type": "node",
  "id": 5549598596,
  "lat": -18.9110509,
  "lon": 47.5171330
},
{
  "type": "node",
  "id": 5533584810,
  "lat": -18.9346365,
  "lon": 47.5282700
},
{
  "type": "node",
  "id": 5533584811,
  "lat": -18.9346232,
  "lon": 47.5282971
},
{
  "type": "node",
  "id": 5533584812,
  "lat": -18.9345898,
  "lon": 47.5282788
},
{
  "type": "node",
  "id": 5533584813,
  "lat": -18.9346031,
  "lon": 47.5282517
},
{
  "type": "node",
  "id": 5533584814,
  "lat": -18.9345989,
  "lon": 47.5282459
},
{
  "type": "node",
  "id": 5533584815,
  "lat": -18.9345863,
  "lon": 47.5282742
},
{
  "type": "node",
  "id": 5533584816,
  "lat": -18.9345603,
  "lon": 47.5282614
},
{
  "type": "node",
  "id": 5533584817,
  "lat": -18.9345729,
  "lon": 47.5282330
},
{
  "type": "node",
  "id": 5533585236,
  "lat": -18.9201139,
  "lon": 47.5369329
},
{
  "type": "node",
  "id": 5533585237,
  "lat": -18.9201260,
  "lon": 47.5369471
},
{
  "type": "node",
  "id": 5533585238,
  "lat": -18.9201032,
  "lon": 47.5369689
},
{
  "type": "node",
  "id": 5533585239,
  "lat": -18.9200911,
  "lon": 47.5369547
},
{
  "type": "node",
  "id": 5533585240,
  "lat": -18.9200836,
  "lon": 47.5369632
},
{
  "type": "node",
  "id": 5533585241,
  "lat": -18.9200920,
  "lon": 47.5369782
},
{
  "type": "node",
  "id": 5533585242,
  "lat": -18.9200685,
  "lon": 47.5369930
},
{
  "type": "node",
  "id": 5533585243,
  "lat": -18.9200601,
  "lon": 47.5369780
},
{
  "type": "node",
  "id": 5420300111,
  "lat": -18.9140181,
  "lon": 47.5304697
},
{
  "type": "node",
  "id": 5420300113,
  "lat": -18.9141957,
  "lon": 47.5305569
},
{
  "type": "node",
  "id": 5420300114,
  "lat": -18.9141856,
  "lon": 47.5306132
},
{
  "type": "node",
  "id": 5420300116,
  "lat": -18.9139382,
  "lon": 47.5305421
},
{
  "type": "node",
  "id": 5442335677,
  "lat": -18.9141509,
  "lon": 47.5303444
},
{
  "type": "node",
  "id": 5442335678,
  "lat": -18.9141868,
  "lon": 47.5303718
},
{
  "type": "node",
  "id": 5442335679,
  "lat": -18.9142097,
  "lon": 47.5303906
},
{
  "type": "node",
  "id": 5442335680,
  "lat": -18.9142439,
  "lon": 47.5304148
},
{
  "type": "node",
  "id": 5442335681,
  "lat": -18.9142426,
  "lon": 47.5304483
},
{
  "type": "node",
  "id": 5442335682,
  "lat": -18.9142211,
  "lon": 47.5304992
},
{
  "type": "node",
  "id": 5442335683,
  "lat": -18.9141957,
  "lon": 47.5305261
},
{
  "type": "node",
  "id": 5442335684,
  "lat": -18.9141450,
  "lon": 47.5304979
},
{
  "type": "node",
  "id": 5442335685,
  "lat": -18.9140942,
  "lon": 47.5304644
},
{
  "type": "node",
  "id": 5442335686,
  "lat": -18.9141031,
  "lon": 47.5304161
},
{
  "type": "node",
  "id": 5442335687,
  "lat": -18.9141295,
  "lon": 47.5303797
},
{
  "type": "node",
  "id": 5442335688,
  "lat": -18.9141335,
  "lon": 47.5304898
},
{
  "type": "node",
  "id": 5573419322,
  "lat": -18.9139522,
  "lon": 47.5305467
},
{
  "type": "node",
  "id": 5647647533,
  "lat": -18.9109637,
  "lon": 47.5289328
},
{
  "type": "node",
  "id": 5647647534,
  "lat": -18.9109408,
  "lon": 47.5289255
},
{
  "type": "node",
  "id": 5647647535,
  "lat": -18.9109447,
  "lon": 47.5289080
},
{
  "type": "node",
  "id": 5647647536,
  "lat": -18.9109694,
  "lon": 47.5289141
},
{
  "type": "node",
  "id": 5647647537,
  "lat": -18.9109814,
  "lon": 47.5289328
},
{
  "type": "node",
  "id": 5647647538,
  "lat": -18.9110062,
  "lon": 47.5289382
},
{
  "type": "node",
  "id": 5647647539,
  "lat": -18.9110100,
  "lon": 47.5289194
},
{
  "type": "node",
  "id": 5647647540,
  "lat": -18.9109840,
  "lon": 47.5289154
},
{
  "type": "node",
  "id": 5442444016,
  "lat": -18.9125803,
  "lon": 47.5476634
},
{
  "type": "node",
  "id": 5442444017,
  "lat": -18.9125718,
  "lon": 47.5476506
},
{
  "type": "node",
  "id": 5442444018,
  "lat": -18.9125581,
  "lon": 47.5476302
},
{
  "type": "node",
  "id": 5442444019,
  "lat": -18.9125477,
  "lon": 47.5476178
},
{
  "type": "node",
  "id": 5442444020,
  "lat": -18.9125397,
  "lon": 47.5476134
},
{
  "type": "node",
  "id": 5442445021,
  "lat": -18.9125251,
  "lon": 47.5476161
},
{
  "type": "node",
  "id": 5442445022,
  "lat": -18.9125220,
  "lon": 47.5476292
},
{
  "type": "node",
  "id": 5442445023,
  "lat": -18.9125280,
  "lon": 47.5476449
},
{
  "type": "node",
  "id": 5442445024,
  "lat": -18.9125372,
  "lon": 47.5476617
},
{
  "type": "node",
  "id": 5442445025,
  "lat": -18.9125467,
  "lon": 47.5476734
},
{
  "type": "node",
  "id": 5442445026,
  "lat": -18.9125540,
  "lon": 47.5476848
},
{
  "type": "node",
  "id": 5442445027,
  "lat": -18.9125692,
  "lon": 47.5476882
},
{
  "type": "node",
  "id": 5442445028,
  "lat": -18.9125813,
  "lon": 47.5476761
},
{
  "type": "node",
  "id": 5444782172,
  "lat": -18.9125946,
  "lon": 47.5477210
},
{
  "type": "node",
  "id": 5444782173,
  "lat": -18.9126003,
  "lon": 47.5477096
},
{
  "type": "node",
  "id": 5444782174,
  "lat": -18.9126111,
  "lon": 47.5477070
},
{
  "type": "node",
  "id": 5444782175,
  "lat": -18.9126105,
  "lon": 47.5476882
},
{
  "type": "node",
  "id": 5444782176,
  "lat": -18.9126060,
  "lon": 47.5476761
},
{
  "type": "node",
  "id": 5444782177,
  "lat": -18.9125997,
  "lon": 47.5476607
},
{
  "type": "node",
  "id": 5444782178,
  "lat": -18.9125933,
  "lon": 47.5476345
},
{
  "type": "node",
  "id": 5444782179,
  "lat": -18.9125832,
  "lon": 47.5476198
},
{
  "type": "node",
  "id": 5444782180,
  "lat": -18.9125673,
  "lon": 47.5476017
},
{
  "type": "node",
  "id": 5444782181,
  "lat": -18.9125565,
  "lon": 47.5476091
},
{
  "type": "node",
  "id": 5444782182,
  "lat": -18.9125489,
  "lon": 47.5476191
},
{
  "type": "node",
  "id": 5444782183,
  "lat": -18.9125267,
  "lon": 47.5476298
},
{
  "type": "node",
  "id": 5444782184,
  "lat": -18.9125267,
  "lon": 47.5476446
},
{
  "type": "node",
  "id": 5444782185,
  "lat": -18.9125477,
  "lon": 47.5476714
},
{
  "type": "node",
  "id": 5444782186,
  "lat": -18.9125623,
  "lon": 47.5476982
},
{
  "type": "node",
  "id": 5444782187,
  "lat": -18.9125718,
  "lon": 47.5477143
},
{
  "type": "node",
  "id": 5444782188,
  "lat": -18.9125781,
  "lon": 47.5477311
},
{
  "type": "node",
  "id": 5445275264,
  "lat": -18.9126625,
  "lon": 47.5476734
},
{
  "type": "node",
  "id": 5445275265,
  "lat": -18.9126752,
  "lon": 47.5476754
},
{
  "type": "node",
  "id": 5445275266,
  "lat": -18.9126860,
  "lon": 47.5476681
},
{
  "type": "node",
  "id": 5445275267,
  "lat": -18.9126815,
  "lon": 47.5476493
},
{
  "type": "node",
  "id": 5445275268,
  "lat": -18.9126726,
  "lon": 47.5476332
},
{
  "type": "node",
  "id": 5445275269,
  "lat": -18.9126555,
  "lon": 47.5476372
},
{
  "type": "node",
  "id": 5445275270,
  "lat": -18.9126555,
  "lon": 47.5476526
},
{
  "type": "node",
  "id": 5450895711,
  "lat": -18.9126606,
  "lon": 47.5476282
},
{
  "type": "node",
  "id": 5450895712,
  "lat": -18.9126544,
  "lon": 47.5475980
},
{
  "type": "node",
  "id": 5450895713,
  "lat": -18.9126677,
  "lon": 47.5475931
},
{
  "type": "node",
  "id": 5450895714,
  "lat": -18.9126741,
  "lon": 47.5476257
},
{
  "type": "node",
  "id": 5530232442,
  "lat": -18.9150699,
  "lon": 47.5493503
},
{
  "type": "node",
  "id": 5530232443,
  "lat": -18.9150724,
  "lon": 47.5493717
},
{
  "type": "node",
  "id": 5530232444,
  "lat": -18.9151891,
  "lon": 47.5493228
},
{
  "type": "node",
  "id": 5530232445,
  "lat": -18.9151802,
  "lon": 47.5493020
},
{
  "type": "node",
  "id": 5530330585,
  "lat": -18.9146429,
  "lon": 47.5495415
},
{
  "type": "node",
  "id": 5530330586,
  "lat": -18.9146429,
  "lon": 47.5495152
},
{
  "type": "node",
  "id": 5530330587,
  "lat": -18.9146948,
  "lon": 47.5495150
},
{
  "type": "node",
  "id": 5530330588,
  "lat": -18.9146948,
  "lon": 47.5495413
},
{
  "type": "node",
  "id": 5553429677,
  "lat": -18.9146867,
  "lon": 47.5494777
},
{
  "type": "node",
  "id": 5553429678,
  "lat": -18.9146866,
  "lon": 47.5494513
},
{
  "type": "node",
  "id": 5553429679,
  "lat": -18.9146347,
  "lon": 47.5494515
},
{
  "type": "node",
  "id": 5553429680,
  "lat": -18.9146348,
  "lon": 47.5494778
},
{
  "type": "node",
  "id": 5555936461,
  "lat": -18.9147889,
  "lon": 47.5494788
},
{
  "type": "node",
  "id": 5555936462,
  "lat": -18.9147888,
  "lon": 47.5494524
},
{
  "type": "node",
  "id": 5555936463,
  "lat": -18.9147369,
  "lon": 47.5494526
},
{
  "type": "node",
  "id": 5555936464,
  "lat": -18.9147370,
  "lon": 47.5494789
},
{
  "type": "node",
  "id": 5658240744,
  "lat": -18.9148220,
  "lon": 47.5494267
},
{
  "type": "node",
  "id": 5658240745,
  "lat": -18.9147921,
  "lon": 47.5494331
},
{
  "type": "node",
  "id": 5658240746,
  "lat": -18.9147962,
  "lon": 47.5494542
},
{
  "type": "node",
  "id": 5658240747,
  "lat": -18.9148260,
  "lon": 47.5494478
},
{
  "type": "node",
  "id": 5665638540,
  "lat": -18.9126914,
  "lon": 47.5478503
},
{
  "type": "node",
  "id": 5665638541,
  "lat": -18.9127056,
  "lon": 47.5479032
},
{
  "type": "node",
  "id": 5665638542,
  "lat": -18.9126875,
  "lon": 47.5479086
},
{
  "type": "node",
  "id": 5665638543,
  "lat": -18.9126733,
  "lon": 47.5478557
},
{
  "type": "node",
  "id": 5742856274,
  "lat": -18.9146070,
  "lon": 47.5494898
},
{
  "type": "node",
  "id": 5742856275,
  "lat": -18.9146069,
  "lon": 47.5494634
},
{
  "type": "node",
  "id": 5742856276,
  "lat": -18.9145550,
  "lon": 47.5494636
},
{
  "type": "node",
  "id": 5742856277,
  "lat": -18.9145551,
  "lon": 47.5494899
},
{
  "type": "node",
  "id": 5552103280,
  "lat": -18.9493076,
  "lon": 47.5584945
},
{
  "type": "node",
  "id": 5552103281,
  "lat": -18.9493507,
  "lon": 47.5585087
},
{
  "type": "node",
  "id": 5552103282,
  "lat": -18.9493597,
  "lon": 47.5584783
},
{
  "type": "node",
  "id": 5552103283,
  "lat": -18.9493166,
  "lon": 47.5584641
},
{
  "type": "node",
  "id": 5433307295,
  "lat": -18.9477600,
  "lon": 47.5721553
},
{
  "type": "node",
  "id": 5433307296,
  "lat": -18.9477617,
  "lon": 47.5721248
},
{
  "type": "node",
  "id": 5433307297,
  "lat": -18.9477309,
  "lon": 47.5720953
},
{
  "type": "node",
  "id": 5433307298,
  "lat": -18.9477054,
  "lon": 47.5721171
},
{
  "type": "node",
  "id": 5433307299,
  "lat": -18.9476846,
  "lon": 47.5721138
},
{
  "type": "node",
  "id": 5433307300,
  "lat": -18.9477112,
  "lon": 47.5721298
},
{
  "type": "node",
  "id": 5433307301,
  "lat": -18.9476820,
  "lon": 47.5721299
},
{
  "type": "node",
  "id": 5433307302,
  "lat": -18.9476826,
  "lon": 47.5721432
},
{
  "type": "node",
  "id": 5433307303,
  "lat": -18.9477004,
  "lon": 47.5721432
},
{
  "type": "node",
  "id": 5433307304,
  "lat": -18.9477131,
  "lon": 47.5721499
},
{
  "type": "node",
  "id": 5433307305,
  "lat": -18.9477321,
  "lon": 47.5721620
},
{
  "type": "node",
  "id": 5433307306,
  "lat": -18.9477486,
  "lon": 47.5721727
},
{
  "type": "node",
  "id": 5573364775,
  "lat": -18.9440120,
  "lon": 47.5998588
},
{
  "type": "node",
  "id": 5573364777,
  "lat": -18.9440531,
  "lon": 47.5998473
},
{
  "type": "node",
  "id": 5573364778,
  "lat": -18.9440391,
  "lon": 47.5997911
},
{
  "type": "node",
  "id": 5573364779,
  "lat": -18.9439979,
  "lon": 47.5998027
},
{
  "type": "node",
  "id": 5573419336,
  "lat": -18.9439626,
  "lon": 47.5998726
},
{
  "type": "node",
  "id": 5573419339,
  "lat": -18.9439486,
  "lon": 47.5998165
},
{
  "type": "node",
  "id": 5649447134,
  "lat": -18.9256006,
  "lon": 47.5567067
},
{
  "type": "node",
  "id": 5649447135,
  "lat": -18.9256212,
  "lon": 47.5566930
},
{
  "type": "node",
  "id": 5649447136,
  "lat": -18.9256595,
  "lon": 47.5567577
},
{
  "type": "node",
  "id": 5649447137,
  "lat": -18.9256389,
  "lon": 47.5567714
},
{
  "type": "node",
  "id": 5649486389,
  "lat": -18.9256064,
  "lon": 47.5567746
},
{
  "type": "node",
  "id": 5649486390,
  "lat": -18.9256194,
  "lon": 47.5567647
},
{
  "type": "node",
  "id": 5649486391,
  "lat": -18.9256411,
  "lon": 47.5567964
},
{
  "type": "node",
  "id": 5649486392,
  "lat": -18.9256281,
  "lon": 47.5568064
},
{
  "type": "node",
  "id": 5648982907,
  "lat": -18.9152625,
  "lon": 47.5661549
},
{
  "type": "node",
  "id": 5648982908,
  "lat": -18.9152925,
  "lon": 47.5661283
},
{
  "type": "node",
  "id": 5648982909,
  "lat": -18.9153380,
  "lon": 47.5662063
},
{
  "type": "node",
  "id": 5648982910,
  "lat": -18.9153048,
  "lon": 47.5662254
},
{
  "type": "node",
  "id": 5479476009,
  "lat": -18.9329446,
  "lon": 47.5803159
},
{
  "type": "node",
  "id": 5479476010,
  "lat": -18.9328267,
  "lon": 47.5804554
},
{
  "type": "node",
  "id": 5479476011,
  "lat": -18.9329218,
  "lon": 47.5802998
},
{
  "type": "node",
  "id": 5479476731,
  "lat": -18.9329308,
  "lon": 47.5804822
},
{
  "type": "node",
  "id": 5539990122,
  "lat": -18.9049442,
  "lon": 47.5079926
},
{
  "type": "node",
  "id": 5539990123,
  "lat": -18.9049578,
  "lon": 47.5079904
},
{
  "type": "node",
  "id": 5539990124,
  "lat": -18.9049634,
  "lon": 47.5080288
},
{
  "type": "node",
  "id": 5539990125,
  "lat": -18.9049498,
  "lon": 47.5080310
},
{
  "type": "node",
  "id": 5746003690,
  "lat": -18.9050200,
  "lon": 47.5087308
},
{
  "type": "node",
  "id": 5746003691,
  "lat": -18.9050228,
  "lon": 47.5087667
},
{
  "type": "node",
  "id": 5746003692,
  "lat": -18.9050123,
  "lon": 47.5087676
},
{
  "type": "node",
  "id": 5746003693,
  "lat": -18.9050095,
  "lon": 47.5087317
},
{
  "type": "node",
  "id": 5746003694,
  "lat": -18.9050387,
  "lon": 47.5089581
},
{
  "type": "node",
  "id": 5746003695,
  "lat": -18.9050416,
  "lon": 47.5089940
},
{
  "type": "node",
  "id": 5746003696,
  "lat": -18.9050310,
  "lon": 47.5089949
},
{
  "type": "node",
  "id": 5746003697,
  "lat": -18.9050282,
  "lon": 47.5089591
},
{
  "type": "node",
  "id": 5746003698,
  "lat": -18.9050232,
  "lon": 47.5087724
},
{
  "type": "node",
  "id": 5746003699,
  "lat": -18.9050260,
  "lon": 47.5088083
},
{
  "type": "node",
  "id": 5746003700,
  "lat": -18.9050155,
  "lon": 47.5088092
},
{
  "type": "node",
  "id": 5746003701,
  "lat": -18.9050127,
  "lon": 47.5087734
},
{
  "type": "node",
  "id": 5436845057,
  "lat": -18.9073059,
  "lon": 47.5234139
},
{
  "type": "node",
  "id": 5436845058,
  "lat": -18.9073018,
  "lon": 47.5234105
},
{
  "type": "node",
  "id": 5436845059,
  "lat": -18.9072958,
  "lon": 47.5233857
},
{
  "type": "node",
  "id": 5436845060,
  "lat": -18.9072923,
  "lon": 47.5233662
},
{
  "type": "node",
  "id": 5436845061,
  "lat": -18.9072904,
  "lon": 47.5233465
},
{
  "type": "node",
  "id": 5436845062,
  "lat": -18.9072850,
  "lon": 47.5233203
},
{
  "type": "node",
  "id": 5436845063,
  "lat": -18.9072825,
  "lon": 47.5233056
},
{
  "type": "node",
  "id": 5436845064,
  "lat": -18.9072837,
  "lon": 47.5232955
},
{
  "type": "node",
  "id": 5436845065,
  "lat": -18.9072932,
  "lon": 47.5232948
},
{
  "type": "node",
  "id": 5436845066,
  "lat": -18.9072955,
  "lon": 47.5233066
},
{
  "type": "node",
  "id": 5436845067,
  "lat": -18.9072983,
  "lon": 47.5233243
},
{
  "type": "node",
  "id": 5436845068,
  "lat": -18.9073043,
  "lon": 47.5233572
},
{
  "type": "node",
  "id": 5436845069,
  "lat": -18.9073075,
  "lon": 47.5233709
},
{
  "type": "node",
  "id": 5436845070,
  "lat": -18.9073120,
  "lon": 47.5233884
},
{
  "type": "node",
  "id": 5436845071,
  "lat": -18.9073167,
  "lon": 47.5234098
},
{
  "type": "node",
  "id": 5442019687,
  "lat": -18.9053463,
  "lon": 47.5258818
},
{
  "type": "node",
  "id": 5442019688,
  "lat": -18.9053210,
  "lon": 47.5258483
},
{
  "type": "node",
  "id": 5442019689,
  "lat": -18.9052753,
  "lon": 47.5258161
},
{
  "type": "node",
  "id": 5442019690,
  "lat": -18.9052322,
  "lon": 47.5257799
},
{
  "type": "node",
  "id": 5442019691,
  "lat": -18.9052131,
  "lon": 47.5257786
},
{
  "type": "node",
  "id": 5442019692,
  "lat": -18.9052131,
  "lon": 47.5258081
},
{
  "type": "node",
  "id": 5442019693,
  "lat": -18.9052385,
  "lon": 47.5258309
},
{
  "type": "node",
  "id": 5442019694,
  "lat": -18.9052575,
  "lon": 47.5258496
},
{
  "type": "node",
  "id": 5442019695,
  "lat": -18.9052981,
  "lon": 47.5258845
},
{
  "type": "node",
  "id": 5442019696,
  "lat": -18.9053324,
  "lon": 47.5259113
},
{
  "type": "node",
  "id": 5445578721,
  "lat": -18.9065199,
  "lon": 47.5203928
},
{
  "type": "node",
  "id": 5445578722,
  "lat": -18.9064805,
  "lon": 47.5204293
},
{
  "type": "node",
  "id": 5445578724,
  "lat": -18.9064960,
  "lon": 47.5204481
},
{
  "type": "node",
  "id": 5445578726,
  "lat": -18.9065355,
  "lon": 47.5204115
},
{
  "type": "node",
  "id": 5452429781,
  "lat": -18.9043208,
  "lon": 47.5218385
},
{
  "type": "node",
  "id": 5452429782,
  "lat": -18.9043592,
  "lon": 47.5217968
},
{
  "type": "node",
  "id": 5452429783,
  "lat": -18.9040649,
  "lon": 47.5215407
},
{
  "type": "node",
  "id": 5452429784,
  "lat": -18.9040360,
  "lon": 47.5215749
},
{
  "type": "node",
  "id": 5454041011,
  "lat": -18.9066231,
  "lon": 47.5204895
},
{
  "type": "node",
  "id": 5454041012,
  "lat": -18.9066340,
  "lon": 47.5204969
},
{
  "type": "node",
  "id": 5454041013,
  "lat": -18.9066438,
  "lon": 47.5204806
},
{
  "type": "node",
  "id": 5454041014,
  "lat": -18.9066328,
  "lon": 47.5204733
},
{
  "type": "node",
  "id": 5454111825,
  "lat": -18.9066408,
  "lon": 47.5205018
},
{
  "type": "node",
  "id": 5454111826,
  "lat": -18.9066555,
  "lon": 47.5205111
},
{
  "type": "node",
  "id": 5454111827,
  "lat": -18.9066643,
  "lon": 47.5204955
},
{
  "type": "node",
  "id": 5454111828,
  "lat": -18.9066497,
  "lon": 47.5204862
},
{
  "type": "node",
  "id": 5454193835,
  "lat": -18.9066163,
  "lon": 47.5204851
},
{
  "type": "node",
  "id": 5454193836,
  "lat": -18.9066052,
  "lon": 47.5204773
},
{
  "type": "node",
  "id": 5454193837,
  "lat": -18.9066145,
  "lon": 47.5204624
},
{
  "type": "node",
  "id": 5454193838,
  "lat": -18.9066256,
  "lon": 47.5204701
},
{
  "type": "node",
  "id": 5476282080,
  "lat": -18.9062231,
  "lon": 47.5253212
},
{
  "type": "node",
  "id": 5476282081,
  "lat": -18.9062586,
  "lon": 47.5252824
},
{
  "type": "node",
  "id": 5476282082,
  "lat": -18.9061292,
  "lon": 47.5251670
},
{
  "type": "node",
  "id": 5476282083,
  "lat": -18.9061000,
  "lon": 47.5252005
},
{
  "type": "node",
  "id": 5533584819,
  "lat": -18.9077512,
  "lon": 47.5242808
},
{
  "type": "node",
  "id": 5533584820,
  "lat": -18.9077647,
  "lon": 47.5242695
},
{
  "type": "node",
  "id": 5533585221,
  "lat": -18.9077792,
  "lon": 47.5242921
},
{
  "type": "node",
  "id": 5533585222,
  "lat": -18.9077654,
  "lon": 47.5243027
},
{
  "type": "node",
  "id": 5533585223,
  "lat": -18.9077711,
  "lon": 47.5243113
},
{
  "type": "node",
  "id": 5533585224,
  "lat": -18.9077890,
  "lon": 47.5243018
},
{
  "type": "node",
  "id": 5533585225,
  "lat": -18.9078057,
  "lon": 47.5243272
},
{
  "type": "node",
  "id": 5533585226,
  "lat": -18.9077906,
  "lon": 47.5243367
},
{
  "type": "node",
  "id": 5547677629,
  "lat": -18.9065490,
  "lon": 47.5204456
},
{
  "type": "node",
  "id": 5547677630,
  "lat": -18.9065729,
  "lon": 47.5204643
},
{
  "type": "node",
  "id": 5547677631,
  "lat": -18.9065862,
  "lon": 47.5204452
},
{
  "type": "node",
  "id": 5547677632,
  "lat": -18.9065646,
  "lon": 47.5204265
},
{
  "type": "node",
  "id": 5549724976,
  "lat": -18.9065412,
  "lon": 47.5204043
},
{
  "type": "node",
  "id": 5549724977,
  "lat": -18.9065579,
  "lon": 47.5204091
},
{
  "type": "node",
  "id": 5549724978,
  "lat": -18.9065530,
  "lon": 47.5204283
},
{
  "type": "node",
  "id": 5549724979,
  "lat": -18.9065363,
  "lon": 47.5204236
},
{
  "type": "node",
  "id": 5645770262,
  "lat": -18.9059235,
  "lon": 47.5221168
},
{
  "type": "node",
  "id": 5645770263,
  "lat": -18.9059577,
  "lon": 47.5221486
},
{
  "type": "node",
  "id": 5645770264,
  "lat": -18.9059393,
  "lon": 47.5221707
},
{
  "type": "node",
  "id": 5645770265,
  "lat": -18.9059051,
  "lon": 47.5221388
},
{
  "type": "node",
  "id": 5649486393,
  "lat": -18.9045183,
  "lon": 47.5246032
},
{
  "type": "node",
  "id": 5649486394,
  "lat": -18.9045285,
  "lon": 47.5246133
},
{
  "type": "node",
  "id": 5649486395,
  "lat": -18.9045623,
  "lon": 47.5245749
},
{
  "type": "node",
  "id": 5649486396,
  "lat": -18.9045522,
  "lon": 47.5245649
},
{
  "type": "node",
  "id": 5649486397,
  "lat": -18.9045522,
  "lon": 47.5245521
},
{
  "type": "node",
  "id": 5649486398,
  "lat": -18.9045451,
  "lon": 47.5245453
},
{
  "type": "node",
  "id": 5649486399,
  "lat": -18.9045613,
  "lon": 47.5245263
},
{
  "type": "node",
  "id": 5649486400,
  "lat": -18.9045685,
  "lon": 47.5245332
},
{
  "type": "node",
  "id": 8488855249,
  "lat": -18.9045275,
  "lon": 47.5207954
},
{
  "type": "node",
  "id": 8488855250,
  "lat": -18.9045191,
  "lon": 47.5208076
},
{
  "type": "node",
  "id": 8488855251,
  "lat": -18.9045006,
  "lon": 47.5207933
},
{
  "type": "node",
  "id": 8488855252,
  "lat": -18.9045089,
  "lon": 47.5207811
},
{
  "type": "node",
  "id": 8488855253,
  "lat": -18.9045047,
  "lon": 47.5207786
},
{
  "type": "node",
  "id": 8488855254,
  "lat": -18.9044963,
  "lon": 47.5207908
},
{
  "type": "node",
  "id": 8488855255,
  "lat": -18.9044777,
  "lon": 47.5207766
},
{
  "type": "node",
  "id": 8488855256,
  "lat": -18.9044861,
  "lon": 47.5207643
},
{
  "type": "node",
  "id": 8488855257,
  "lat": -18.9044757,
  "lon": 47.5208125
},
{
  "type": "node",
  "id": 8488855258,
  "lat": -18.9044673,
  "lon": 47.5208247
},
{
  "type": "node",
  "id": 8488855259,
  "lat": -18.9044487,
  "lon": 47.5208104
},
{
  "type": "node",
  "id": 8488855260,
  "lat": -18.9044571,
  "lon": 47.5207982
},
{
  "type": "node",
  "id": 3166554961,
  "lat": -18.8975586,
  "lon": 47.5181345
},
{
  "type": "node",
  "id": 3166554962,
  "lat": -18.8976411,
  "lon": 47.5180473
},
{
  "type": "node",
  "id": 3166554963,
  "lat": -18.8978266,
  "lon": 47.5183819
},
{
  "type": "node",
  "id": 3166555001,
  "lat": -18.8994188,
  "lon": 47.5192073
},
{
  "type": "node",
  "id": 3166555004,
  "lat": -18.8994825,
  "lon": 47.5187891
},
{
  "type": "node",
  "id": 3282407025,
  "lat": -18.8986562,
  "lon": 47.5173996
},
{
  "type": "node",
  "id": 3282407026,
  "lat": -18.8987776,
  "lon": 47.5174141
},
{
  "type": "node",
  "id": 3282407027,
  "lat": -18.8992395,
  "lon": 47.5194773
},
{
  "type": "node",
  "id": 3282407028,
  "lat": -18.8995195,
  "lon": 47.5179040
},
{
  "type": "node",
  "id": 3282407029,
  "lat": -18.8995726,
  "lon": 47.5181718
},
{
  "type": "node",
  "id": 3282407030,
  "lat": -18.8995745,
  "lon": 47.5179185
},
{
  "type": "node",
  "id": 3549389867,
  "lat": -18.8982440,
  "lon": 47.5176943
},
{
  "type": "node",
  "id": 3549389868,
  "lat": -18.8991135,
  "lon": 47.5176359
},
{
  "type": "node",
  "id": 3549389869,
  "lat": -18.8992996,
  "lon": 47.5177588
},
{
  "type": "node",
  "id": 5552087750,
  "lat": -18.8978780,
  "lon": 47.5194859
},
{
  "type": "node",
  "id": 5552087751,
  "lat": -18.8979125,
  "lon": 47.5195092
},
{
  "type": "node",
  "id": 5552087752,
  "lat": -18.8979529,
  "lon": 47.5194423
},
{
  "type": "node",
  "id": 5552087753,
  "lat": -18.8979184,
  "lon": 47.5194191
},
{
  "type": "node",
  "id": 5552087754,
  "lat": -18.8979468,
  "lon": 47.5193811
},
{
  "type": "node",
  "id": 5552087755,
  "lat": -18.8979813,
  "lon": 47.5194043
},
{
  "type": "node",
  "id": 5552087756,
  "lat": -18.8980217,
  "lon": 47.5193374
},
{
  "type": "node",
  "id": 5552087757,
  "lat": -18.8979872,
  "lon": 47.5193142
},
{
  "type": "node",
  "id": 5649176966,
  "lat": -18.8980137,
  "lon": 47.5193103
},
{
  "type": "node",
  "id": 5649176967,
  "lat": -18.8980380,
  "lon": 47.5193318
},
{
  "type": "node",
  "id": 5649176968,
  "lat": -18.8980789,
  "lon": 47.5192801
},
{
  "type": "node",
  "id": 5649176969,
  "lat": -18.8980546,
  "lon": 47.5192586
},
{
  "type": "node",
  "id": 5552087741,
  "lat": -18.8978008,
  "lon": 47.5219663
},
{
  "type": "node",
  "id": 5552087742,
  "lat": -18.8978288,
  "lon": 47.5219661
},
{
  "type": "node",
  "id": 5552087743,
  "lat": -18.8978285,
  "lon": 47.5219003
},
{
  "type": "node",
  "id": 5552087744,
  "lat": -18.8978004,
  "lon": 47.5219005
},
{
  "type": "node",
  "id": 5552087745,
  "lat": -18.8978031,
  "lon": 47.5220424
},
{
  "type": "node",
  "id": 5552087746,
  "lat": -18.8978311,
  "lon": 47.5220422
},
{
  "type": "node",
  "id": 5552087747,
  "lat": -18.8978308,
  "lon": 47.5219764
},
{
  "type": "node",
  "id": 5552087748,
  "lat": -18.8978027,
  "lon": 47.5219766
},
{
  "type": "node",
  "id": 5466727561,
  "lat": -18.8987499,
  "lon": 47.5318419
},
{
  "type": "node",
  "id": 5466727562,
  "lat": -18.8987700,
  "lon": 47.5318313
},
{
  "type": "node",
  "id": 5466727563,
  "lat": -18.8987850,
  "lon": 47.5318578
},
{
  "type": "node",
  "id": 5466727564,
  "lat": -18.8987616,
  "lon": 47.5318702
},
{
  "type": "node",
  "id": 5466821557,
  "lat": -18.8980925,
  "lon": 47.5309254
},
{
  "type": "node",
  "id": 5466821558,
  "lat": -18.8982168,
  "lon": 47.5310072
},
{
  "type": "node",
  "id": 5466821559,
  "lat": -18.8982092,
  "lon": 47.5310179
},
{
  "type": "node",
  "id": 5466821560,
  "lat": -18.8980836,
  "lon": 47.5309388
},
{
  "type": "node",
  "id": 5467072089,
  "lat": -18.8985815,
  "lon": 47.5313842
},
{
  "type": "node",
  "id": 5467072090,
  "lat": -18.8986044,
  "lon": 47.5313707
},
{
  "type": "node",
  "id": 5467072091,
  "lat": -18.8986351,
  "lon": 47.5314209
},
{
  "type": "node",
  "id": 5467072092,
  "lat": -18.8986148,
  "lon": 47.5314330
},
{
  "type": "node",
  "id": 5467134141,
  "lat": -18.8985790,
  "lon": 47.5313765
},
{
  "type": "node",
  "id": 5467134142,
  "lat": -18.8985990,
  "lon": 47.5313638
},
{
  "type": "node",
  "id": 5467134143,
  "lat": -18.8985515,
  "lon": 47.5312885
},
{
  "type": "node",
  "id": 5467134144,
  "lat": -18.8985268,
  "lon": 47.5312937
},
{
  "type": "node",
  "id": 5527202938,
  "lat": -18.8981341,
  "lon": 47.5309706
},
{
  "type": "node",
  "id": 838828788,
  "lat": -18.8936995,
  "lon": 47.5284799
},
{
  "type": "node",
  "id": 838828792,
  "lat": -18.8934848,
  "lon": 47.5283710
},
{
  "type": "node",
  "id": 838828795,
  "lat": -18.8923061,
  "lon": 47.5312401
},
{
  "type": "node",
  "id": 838828798,
  "lat": -18.8924853,
  "lon": 47.5313223
},
{
  "type": "node",
  "id": 3282498326,
  "lat": -18.8909407,
  "lon": 47.5281039
},
{
  "type": "node",
  "id": 3282498327,
  "lat": -18.8913168,
  "lon": 47.5302637
},
{
  "type": "node",
  "id": 3282498328,
  "lat": -18.8913316,
  "lon": 47.5281509
},
{
  "type": "node",
  "id": 3282498330,
  "lat": -18.8916633,
  "lon": 47.5297973
},
{
  "type": "node",
  "id": 3282498331,
  "lat": -18.8916405,
  "lon": 47.5282823
},
{
  "type": "node",
  "id": 3282498332,
  "lat": -18.8919802,
  "lon": 47.5293779
},
{
  "type": "node",
  "id": 3282498333,
  "lat": -18.8921866,
  "lon": 47.5287684
},
{
  "type": "node",
  "id": 3282498334,
  "lat": -18.8921667,
  "lon": 47.5289772
},
{
  "type": "node",
  "id": 4036290706,
  "lat": -18.8967120,
  "lon": 47.5331775
},
{
  "type": "node",
  "id": 5451022236,
  "lat": -18.8966930,
  "lon": 47.5330417
},
{
  "type": "node",
  "id": 5451022237,
  "lat": -18.8967362,
  "lon": 47.5330505
},
{
  "type": "node",
  "id": 5451022238,
  "lat": -18.8967086,
  "lon": 47.5331952
},
{
  "type": "node",
  "id": 5451022239,
  "lat": -18.8966510,
  "lon": 47.5331673
},
{
  "type": "node",
  "id": 5561816678,
  "lat": -18.8925975,
  "lon": 47.5313783
},
{
  "type": "node",
  "id": 5561816679,
  "lat": -18.8925008,
  "lon": 47.5315747
},
{
  "type": "node",
  "id": 5561816680,
  "lat": -18.8927225,
  "lon": 47.5317418
},
{
  "type": "node",
  "id": 5561816681,
  "lat": -18.8928142,
  "lon": 47.5315365
},
{
  "type": "node",
  "id": 3282498322,
  "lat": -18.8902921,
  "lon": 47.5291244
},
{
  "type": "node",
  "id": 3282498323,
  "lat": -18.8904905,
  "lon": 47.5284138
},
{
  "type": "node",
  "id": 3282498324,
  "lat": -18.8906712,
  "lon": 47.5285703
},
{
  "type": "node",
  "id": 3282498325,
  "lat": -18.8907275,
  "lon": 47.5281039
},
{
  "type": "node",
  "id": 5592316957,
  "lat": -18.8841878,
  "lon": 47.5362171
},
{
  "type": "node",
  "id": 5592316958,
  "lat": -18.8841991,
  "lon": 47.5361715
},
{
  "type": "node",
  "id": 844904750,
  "lat": -18.8943510,
  "lon": 47.5485391
},
{
  "type": "node",
  "id": 844904752,
  "lat": -18.8935795,
  "lon": 47.5482709
},
{
  "type": "node",
  "id": 844904754,
  "lat": -18.8933664,
  "lon": 47.5490219
},
{
  "type": "node",
  "id": 844904757,
  "lat": -18.8934374,
  "lon": 47.5491292
},
{
  "type": "node",
  "id": 844904758,
  "lat": -18.8933867,
  "lon": 47.5492472
},
{
  "type": "node",
  "id": 844904759,
  "lat": -18.8932852,
  "lon": 47.5493545
},
{
  "type": "node",
  "id": 844904760,
  "lat": -18.8933867,
  "lon": 47.5494618
},
{
  "type": "node",
  "id": 844904762,
  "lat": -18.8935581,
  "lon": 47.5494756
},
{
  "type": "node",
  "id": 844904766,
  "lat": -18.8937470,
  "lon": 47.5491721
},
{
  "type": "node",
  "id": 844904772,
  "lat": -18.8938884,
  "lon": 47.5492788
},
{
  "type": "node",
  "id": 844904775,
  "lat": -18.8941277,
  "lon": 47.5489253
},
{
  "type": "node",
  "id": 8458670166,
  "lat": -18.8942644,
  "lon": 47.5486484
},
{
  "type": "node",
  "id": 5530873401,
  "lat": -18.8595435,
  "lon": 47.5119959
},
{
  "type": "node",
  "id": 5530873402,
  "lat": -18.8595457,
  "lon": 47.5120120
},
{
  "type": "node",
  "id": 5530873403,
  "lat": -18.8596492,
  "lon": 47.5120051
},
{
  "type": "node",
  "id": 5530873404,
  "lat": -18.8596492,
  "lon": 47.5119828
},
{
  "type": "node",
  "id": 5538478924,
  "lat": -18.8642727,
  "lon": 47.5200601
},
{
  "type": "node",
  "id": 5538478925,
  "lat": -18.8642531,
  "lon": 47.5200050
},
{
  "type": "node",
  "id": 5538478926,
  "lat": -18.8642347,
  "lon": 47.5200124
},
{
  "type": "node",
  "id": 5538478927,
  "lat": -18.8642543,
  "lon": 47.5200674
},
{
  "type": "node",
  "id": 5538478929,
  "lat": -18.8642621,
  "lon": 47.5201411
},
{
  "type": "node",
  "id": 5538478930,
  "lat": -18.8642438,
  "lon": 47.5201485
},
{
  "type": "node",
  "id": 5538478928,
  "lat": -18.8642818,
  "lon": 47.5201962
},
{
  "type": "node",
  "id": 5538478931,
  "lat": -18.8642634,
  "lon": 47.5202035
},
{
  "type": "node",
  "id": 5592316955,
  "lat": -18.8841201,
  "lon": 47.5361496
},
{
  "type": "node",
  "id": 5592316956,
  "lat": -18.8841088,
  "lon": 47.5361951
},
{
  "type": "node",
  "id": 5649402664,
  "lat": -18.8840286,
  "lon": 47.5360742
},
{
  "type": "node",
  "id": 5649402665,
  "lat": -18.8840164,
  "lon": 47.5361043
},
{
  "type": "node",
  "id": 5649402666,
  "lat": -18.8840702,
  "lon": 47.5361286
},
{
  "type": "node",
  "id": 5649402667,
  "lat": -18.8840824,
  "lon": 47.5360985
},
{
  "type": "node",
  "id": 5530561641,
  "lat": -18.8715486,
  "lon": 47.5448451
},
{
  "type": "node",
  "id": 5530561642,
  "lat": -18.8716436,
  "lon": 47.5448142
},
{
  "type": "node",
  "id": 5530561643,
  "lat": -18.8717106,
  "lon": 47.5450443
},
{
  "type": "node",
  "id": 5530561644,
  "lat": -18.8716156,
  "lon": 47.5450752
},
{
  "type": "node",
  "id": 5414519562,
  "lat": -18.9045039,
  "lon": 47.5553794
},
{
  "type": "node",
  "id": 5414519563,
  "lat": -18.9045299,
  "lon": 47.5553043
},
{
  "type": "node",
  "id": 5414519568,
  "lat": -18.9045515,
  "lon": 47.5553017
},
{
  "type": "node",
  "id": 5414519572,
  "lat": -18.9046320,
  "lon": 47.5553177
},
{
  "type": "node",
  "id": 5414519573,
  "lat": -18.9046498,
  "lon": 47.5553258
},
{
  "type": "node",
  "id": 5414519574,
  "lat": -18.9046815,
  "lon": 47.5553673
},
{
  "type": "node",
  "id": 5414519575,
  "lat": -18.9046599,
  "lon": 47.5554371
},
{
  "type": "node",
  "id": 5414519576,
  "lat": -18.9046289,
  "lon": 47.5554304
},
{
  "type": "node",
  "id": 5637273212,
  "lat": -18.9045357,
  "lon": 47.5584819
},
{
  "type": "node",
  "id": 5637273213,
  "lat": -18.9046049,
  "lon": 47.5583965
},
{
  "type": "node",
  "id": 5637273214,
  "lat": -18.9046126,
  "lon": 47.5584575
},
{
  "type": "node",
  "id": 5637273215,
  "lat": -18.9045588,
  "lon": 47.5585185
},
{
  "type": "node",
  "id": 5637273216,
  "lat": -18.9046205,
  "lon": 47.5583284
},
{
  "type": "node",
  "id": 5637273217,
  "lat": -18.9046404,
  "lon": 47.5582607
},
{
  "type": "node",
  "id": 5637273218,
  "lat": -18.9046647,
  "lon": 47.5582677
},
{
  "type": "node",
  "id": 5637273219,
  "lat": -18.9046426,
  "lon": 47.5583401
},
{
  "type": "node",
  "id": 5549936252,
  "lat": -18.8975978,
  "lon": 47.5599631
},
{
  "type": "node",
  "id": 5549936253,
  "lat": -18.8976380,
  "lon": 47.5599737
},
{
  "type": "node",
  "id": 5549936254,
  "lat": -18.8976263,
  "lon": 47.5600224
},
{
  "type": "node",
  "id": 5549936255,
  "lat": -18.8975861,
  "lon": 47.5600074
},
{
  "type": "node",
  "id": 5549936256,
  "lat": -18.8976430,
  "lon": 47.5599782
},
{
  "type": "node",
  "id": 5549936257,
  "lat": -18.8976338,
  "lon": 47.5600215
},
{
  "type": "node",
  "id": 5549936258,
  "lat": -18.8976899,
  "lon": 47.5600419
},
{
  "type": "node",
  "id": 5549936259,
  "lat": -18.8977033,
  "lon": 47.5599950
},
{
  "type": "node",
  "id": 5539556164,
  "lat": -18.9040803,
  "lon": 47.5674674
},
{
  "type": "node",
  "id": 5539556165,
  "lat": -18.9040599,
  "lon": 47.5674954
},
{
  "type": "node",
  "id": 5539556166,
  "lat": -18.9041013,
  "lon": 47.5675251
},
{
  "type": "node",
  "id": 5539556167,
  "lat": -18.9041212,
  "lon": 47.5674977
},
{
  "type": "node",
  "id": 5539556168,
  "lat": -18.9038842,
  "lon": 47.5674335
},
{
  "type": "node",
  "id": 5539556169,
  "lat": -18.9038964,
  "lon": 47.5674207
},
{
  "type": "node",
  "id": 5539556170,
  "lat": -18.9039450,
  "lon": 47.5674592
},
{
  "type": "node",
  "id": 5539556171,
  "lat": -18.9039328,
  "lon": 47.5674720
},
{
  "type": "node",
  "id": 5539556174,
  "lat": -18.9038787,
  "lon": 47.5674067
},
{
  "type": "node",
  "id": 5539556175,
  "lat": -18.9038655,
  "lon": 47.5674183
},
{
  "type": "node",
  "id": 5539556172,
  "lat": -18.9038069,
  "lon": 47.5673763
},
{
  "type": "node",
  "id": 5539556173,
  "lat": -18.9038147,
  "lon": 47.5673588
},
{
  "type": "node",
  "id": 5445640375,
  "lat": -18.8959334,
  "lon": 47.5690741
},
{
  "type": "node",
  "id": 5445640376,
  "lat": -18.8959079,
  "lon": 47.5691373
},
{
  "type": "node",
  "id": 5445640377,
  "lat": -18.8960855,
  "lon": 47.5692101
},
{
  "type": "node",
  "id": 5445640378,
  "lat": -18.8961005,
  "lon": 47.5691615
},
{
  "type": "node",
  "id": 5447676171,
  "lat": -18.8961071,
  "lon": 47.5691660
},
{
  "type": "node",
  "id": 5447676172,
  "lat": -18.8960929,
  "lon": 47.5692107
},
{
  "type": "node",
  "id": 5447676173,
  "lat": -18.8961301,
  "lon": 47.5692204
},
{
  "type": "node",
  "id": 5447676174,
  "lat": -18.8961381,
  "lon": 47.5691766
},
{
  "type": "node",
  "id": 5649089870,
  "lat": -18.8878521,
  "lon": 47.5692969
},
{
  "type": "node",
  "id": 5649089871,
  "lat": -18.8878940,
  "lon": 47.5692525
},
{
  "type": "node",
  "id": 5649089872,
  "lat": -18.8879183,
  "lon": 47.5692852
},
{
  "type": "node",
  "id": 5649089873,
  "lat": -18.8878719,
  "lon": 47.5693342
},
{
  "type": "node",
  "id": 5649089874,
  "lat": -18.8875746,
  "lon": 47.5695467
},
{
  "type": "node",
  "id": 5649089875,
  "lat": -18.8876166,
  "lon": 47.5695011
},
{
  "type": "node",
  "id": 5649089876,
  "lat": -18.8876409,
  "lon": 47.5695327
},
{
  "type": "node",
  "id": 9372629682,
  "lat": -18.8875967,
  "lon": 47.5695759
},
{
  "type": "node",
  "id": 5466821561,
  "lat": -18.8974676,
  "lon": 47.6031027
},
{
  "type": "node",
  "id": 5466821562,
  "lat": -18.8975157,
  "lon": 47.6031043
},
{
  "type": "node",
  "id": 5466821563,
  "lat": -18.8975098,
  "lon": 47.6031412
},
{
  "type": "node",
  "id": 5466821564,
  "lat": -18.8974603,
  "lon": 47.6031382
},
{
  "type": "node",
  "id": 5466727556,
  "lat": -18.8970322,
  "lon": 47.6031030
},
{
  "type": "node",
  "id": 5466727557,
  "lat": -18.8970071,
  "lon": 47.6030800
},
{
  "type": "node",
  "id": 5466727558,
  "lat": -18.8969703,
  "lon": 47.6031260
},
{
  "type": "node",
  "id": 5466727559,
  "lat": -18.8969971,
  "lon": 47.6031419
},
{
  "type": "node",
  "id": 5466727560,
  "lat": -18.8969931,
  "lon": 47.6030974
},
{
  "type": "node",
  "id": 8467225876,
  "lat": -18.8794412,
  "lon": 47.5586280
},
{
  "type": "node",
  "id": 8467225877,
  "lat": -18.8794511,
  "lon": 47.5586195
},
{
  "type": "node",
  "id": 8467225878,
  "lat": -18.8794467,
  "lon": 47.5586138
},
{
  "type": "node",
  "id": 8467225879,
  "lat": -18.8794368,
  "lon": 47.5586223
},
{
  "type": "node",
  "id": 5669575415,
  "lat": -18.8770682,
  "lon": 47.5662785
},
{
  "type": "node",
  "id": 5669575416,
  "lat": -18.8771272,
  "lon": 47.5662678
},
{
  "type": "node",
  "id": 5669575417,
  "lat": -18.8771486,
  "lon": 47.5663987
},
{
  "type": "node",
  "id": 5669575418,
  "lat": -18.8770895,
  "lon": 47.5664095
},
{
  "type": "node",
  "id": 8758231314,
  "lat": -18.8581245,
  "lon": 47.5572009
},
{
  "type": "node",
  "id": 8758231315,
  "lat": -18.8581370,
  "lon": 47.5573772
},
{
  "type": "node",
  "id": 8758231316,
  "lat": -18.8580501,
  "lon": 47.5573841
},
{
  "type": "node",
  "id": 8758260217,
  "lat": -18.8580375,
  "lon": 47.5572078
},
{
  "type": "node",
  "id": 5550028559,
  "lat": -18.8964598,
  "lon": 47.6131497
},
{
  "type": "node",
  "id": 5550028560,
  "lat": -18.8965092,
  "lon": 47.6131184
},
{
  "type": "node",
  "id": 5550028561,
  "lat": -18.8965705,
  "lon": 47.6132229
},
{
  "type": "node",
  "id": 5550028562,
  "lat": -18.8965251,
  "lon": 47.6132605
},
{
  "type": "node",
  "id": 5550028563,
  "lat": -18.8964924,
  "lon": 47.6132051
},
{
  "type": "node",
  "id": 5550028564,
  "lat": -18.8963728,
  "lon": 47.6130139
},
{
  "type": "node",
  "id": 5550028565,
  "lat": -18.8964499,
  "lon": 47.6131309
},
{
  "type": "node",
  "id": 5550028566,
  "lat": -18.8964994,
  "lon": 47.6130975
},
{
  "type": "node",
  "id": 5550028567,
  "lat": -18.8964242,
  "lon": 47.6129805
},
{
  "type": "node",
  "id": 5508316457,
  "lat": -19.5534272,
  "lon": 48.8385321
},
{
  "type": "node",
  "id": 5508316458,
  "lat": -19.5531795,
  "lon": 48.8391383
},
{
  "type": "node",
  "id": 5508316459,
  "lat": -19.5531429,
  "lon": 48.8391007
},
{
  "type": "node",
  "id": 5508316460,
  "lat": -19.5531163,
  "lon": 48.8390538
},
{
  "type": "node",
  "id": 5508316461,
  "lat": -19.5531264,
  "lon": 48.8390176
},
{
  "type": "node",
  "id": 5508316462,
  "lat": -19.5531568,
  "lon": 48.8389666
},
{
  "type": "node",
  "id": 5508316463,
  "lat": -19.5531959,
  "lon": 48.8388875
},
{
  "type": "node",
  "id": 5508316464,
  "lat": -19.5531997,
  "lon": 48.8388379
},
{
  "type": "node",
  "id": 5508316465,
  "lat": -19.5531959,
  "lon": 48.8387950
},
{
  "type": "node",
  "id": 5508316466,
  "lat": -19.5531555,
  "lon": 48.8387842
},
{
  "type": "node",
  "id": 5508316467,
  "lat": -19.5531644,
  "lon": 48.8387507
},
{
  "type": "node",
  "id": 5508316468,
  "lat": -19.5531416,
  "lon": 48.8387279
},
{
  "type": "node",
  "id": 5508316469,
  "lat": -19.5531176,
  "lon": 48.8387051
},
{
  "type": "node",
  "id": 5508316470,
  "lat": -19.5531252,
  "lon": 48.8386756
},
{
  "type": "node",
  "id": 5508316471,
  "lat": -19.5531416,
  "lon": 48.8386099
},
{
  "type": "node",
  "id": 5508316472,
  "lat": -19.5531669,
  "lon": 48.8385402
},
{
  "type": "node",
  "id": 5508316473,
  "lat": -19.5531997,
  "lon": 48.8384865
},
{
  "type": "node",
  "id": 5508316474,
  "lat": -19.5532604,
  "lon": 48.8384691
},
{
  "type": "node",
  "id": 5508316475,
  "lat": -19.5533097,
  "lon": 48.8384825
},
{
  "type": "node",
  "id": 5508316476,
  "lat": -19.5534222,
  "lon": 48.8384932
},
{
  "type": "node",
  "id": 5486328772,
  "lat": -19.4274384,
  "lon": 48.9324509
},
{
  "type": "node",
  "id": 5486328773,
  "lat": -19.4275021,
  "lon": 48.9324243
},
{
  "type": "node",
  "id": 5486328774,
  "lat": -19.4275128,
  "lon": 48.9324612
},
{
  "type": "node",
  "id": 5486328775,
  "lat": -19.4274577,
  "lon": 48.9324909
},
{
  "type": "node",
  "id": 5486328776,
  "lat": -19.4273765,
  "lon": 48.9325237
},
{
  "type": "node",
  "id": 5486328777,
  "lat": -19.4273678,
  "lon": 48.9324796
},
{
  "type": "node",
  "id": 5486651143,
  "lat": -19.3370159,
  "lon": 48.9759758
},
{
  "type": "node",
  "id": 5486651144,
  "lat": -19.3370934,
  "lon": 48.9762163
},
{
  "type": "node",
  "id": 5486651145,
  "lat": -19.3367824,
  "lon": 48.9763287
},
{
  "type": "node",
  "id": 5486651146,
  "lat": -19.3367050,
  "lon": 48.9760882
},
{
  "type": "node",
  "id": 5649623127,
  "lat": -18.8446074,
  "lon": 47.4853844
},
{
  "type": "node",
  "id": 5649623128,
  "lat": -18.8446267,
  "lon": 47.4853844
},
{
  "type": "node",
  "id": 5649623129,
  "lat": -18.8446286,
  "lon": 47.4854616
},
{
  "type": "node",
  "id": 5649623130,
  "lat": -18.8446055,
  "lon": 47.4854616
},
{
  "type": "node",
  "id": 5445503110,
  "lat": -18.8328820,
  "lon": 47.4950071
},
{
  "type": "node",
  "id": 5445503111,
  "lat": -18.8328973,
  "lon": 47.4950245
},
{
  "type": "node",
  "id": 5445503112,
  "lat": -18.8329195,
  "lon": 47.4951187
},
{
  "type": "node",
  "id": 5445503113,
  "lat": -18.8328803,
  "lon": 47.4951361
},
{
  "type": "node",
  "id": 5668754965,
  "lat": -18.8169273,
  "lon": 47.4860356
},
{
  "type": "node",
  "id": 5668754966,
  "lat": -18.8168867,
  "lon": 47.4860255
},
{
  "type": "node",
  "id": 5668754967,
  "lat": -18.8168816,
  "lon": 47.4860470
},
{
  "type": "node",
  "id": 5668754968,
  "lat": -18.8169229,
  "lon": 47.4860557
},
{
  "type": "node",
  "id": 5669675807,
  "lat": -18.8181028,
  "lon": 47.4862280
},
{
  "type": "node",
  "id": 5669675808,
  "lat": -18.8180952,
  "lon": 47.4862736
},
{
  "type": "node",
  "id": 5669675809,
  "lat": -18.8180165,
  "lon": 47.4862710
},
{
  "type": "node",
  "id": 5669675810,
  "lat": -18.8180241,
  "lon": 47.4862173
},
{
  "type": "node",
  "id": 5553292150,
  "lat": -18.8108162,
  "lon": 47.4838941
},
{
  "type": "node",
  "id": 5553292151,
  "lat": -18.8108365,
  "lon": 47.4839097
},
{
  "type": "node",
  "id": 5553292152,
  "lat": -18.8108460,
  "lon": 47.4838960
},
{
  "type": "node",
  "id": 5553292153,
  "lat": -18.8108257,
  "lon": 47.4838804
},
{
  "type": "node",
  "id": 5553292154,
  "lat": -18.8108461,
  "lon": 47.4839152
},
{
  "type": "node",
  "id": 5553292155,
  "lat": -18.8108664,
  "lon": 47.4839309
},
{
  "type": "node",
  "id": 5553292156,
  "lat": -18.8108759,
  "lon": 47.4839171
},
{
  "type": "node",
  "id": 5553292157,
  "lat": -18.8108556,
  "lon": 47.4839015
},
{
  "type": "node",
  "id": 5553292158,
  "lat": -18.8108762,
  "lon": 47.4839370
},
{
  "type": "node",
  "id": 5553292159,
  "lat": -18.8108964,
  "lon": 47.4839526
},
{
  "type": "node",
  "id": 5553292160,
  "lat": -18.8109059,
  "lon": 47.4839389
},
{
  "type": "node",
  "id": 5553292161,
  "lat": -18.8108856,
  "lon": 47.4839232
},
{
  "type": "node",
  "id": 5553292162,
  "lat": -18.8109061,
  "lon": 47.4839581
},
{
  "type": "node",
  "id": 5553292163,
  "lat": -18.8109263,
  "lon": 47.4839737
},
{
  "type": "node",
  "id": 5553292164,
  "lat": -18.8109358,
  "lon": 47.4839600
},
{
  "type": "node",
  "id": 5553292165,
  "lat": -18.8109155,
  "lon": 47.4839444
},
{
  "type": "node",
  "id": 5553239725,
  "lat": -18.8574707,
  "lon": 47.5126207
},
{
  "type": "node",
  "id": 5553239726,
  "lat": -18.8575051,
  "lon": 47.5126114
},
{
  "type": "node",
  "id": 5553239727,
  "lat": -18.8574992,
  "lon": 47.5125871
},
{
  "type": "node",
  "id": 5553239728,
  "lat": -18.8574648,
  "lon": 47.5125964
},
{
  "type": "node",
  "id": 5553415239,
  "lat": -18.8505899,
  "lon": 47.5387308
},
{
  "type": "node",
  "id": 5553415240,
  "lat": -18.8504738,
  "lon": 47.5387416
},
{
  "type": "node",
  "id": 5553415241,
  "lat": -18.8504657,
  "lon": 47.5386442
},
{
  "type": "node",
  "id": 5553415242,
  "lat": -18.8505818,
  "lon": 47.5386334
},
{
  "type": "node",
  "id": 8474325028,
  "lat": -18.8501499,
  "lon": 47.5362854
},
{
  "type": "node",
  "id": 8474325029,
  "lat": -18.8502805,
  "lon": 47.5362573
},
{
  "type": "node",
  "id": 8474325030,
  "lat": -18.8502912,
  "lon": 47.5363131
},
{
  "type": "node",
  "id": 8474325031,
  "lat": -18.8501606,
  "lon": 47.5363412
},
{
  "type": "node",
  "id": 5248407256,
  "lat": -18.8483262,
  "lon": 47.5518630
},
{
  "type": "node",
  "id": 5248407257,
  "lat": -18.8483427,
  "lon": 47.5518919
},
{
  "type": "node",
  "id": 5248407258,
  "lat": -18.8483580,
  "lon": 47.5519100
},
{
  "type": "node",
  "id": 5248407259,
  "lat": -18.8483688,
  "lon": 47.5519174
},
{
  "type": "node",
  "id": 5248407260,
  "lat": -18.8483884,
  "lon": 47.5519435
},
{
  "type": "node",
  "id": 5248407261,
  "lat": -18.8484062,
  "lon": 47.5520052
},
{
  "type": "node",
  "id": 5248407262,
  "lat": -18.8483389,
  "lon": 47.5520381
},
{
  "type": "node",
  "id": 5248407263,
  "lat": -18.8480617,
  "lon": 47.5521779
},
{
  "type": "node",
  "id": 5248407264,
  "lat": -18.8480273,
  "lon": 47.5521569
},
{
  "type": "node",
  "id": 5248407265,
  "lat": -18.8480484,
  "lon": 47.5520939
},
{
  "type": "node",
  "id": 5248407266,
  "lat": -18.8481247,
  "lon": 47.5520380
},
{
  "type": "node",
  "id": 5248407267,
  "lat": -18.8480744,
  "lon": 47.5519061
},
{
  "type": "node",
  "id": 5248407268,
  "lat": -18.8480883,
  "lon": 47.5518852
},
{
  "type": "node",
  "id": 5248407269,
  "lat": -18.8481098,
  "lon": 47.5518697
},
{
  "type": "node",
  "id": 5248407270,
  "lat": -18.8481422,
  "lon": 47.5518543
},
{
  "type": "node",
  "id": 5248407271,
  "lat": -18.8481790,
  "lon": 47.5518483
},
{
  "type": "node",
  "id": 5248407272,
  "lat": -18.8482368,
  "lon": 47.5518503
},
{
  "type": "node",
  "id": 5248407273,
  "lat": -18.8482780,
  "lon": 47.5518617
},
{
  "type": "node",
  "id": 5564109573,
  "lat": -18.8480325,
  "lon": 47.5520040
},
{
  "type": "node",
  "id": 5564109574,
  "lat": -18.8481164,
  "lon": 47.5520375
},
{
  "type": "node",
  "id": 5564109575,
  "lat": -18.8480450,
  "lon": 47.5520891
},
{
  "type": "node",
  "id": 5564109576,
  "lat": -18.8480074,
  "lon": 47.5520741
},
{
  "type": "node",
  "id": 5642637994,
  "lat": -18.8480699,
  "lon": 47.5519191
},
{
  "type": "node",
  "id": 5564128774,
  "lat": -18.8405343,
  "lon": 47.5305808
},
{
  "type": "node",
  "id": 5564128775,
  "lat": -18.8405605,
  "lon": 47.5306069
},
{
  "type": "node",
  "id": 5564128776,
  "lat": -18.8406009,
  "lon": 47.5305614
},
{
  "type": "node",
  "id": 5564128777,
  "lat": -18.8405746,
  "lon": 47.5305354
},
{
  "type": "node",
  "id": 5564181763,
  "lat": -18.8404713,
  "lon": 47.5305431
},
{
  "type": "node",
  "id": 5564181764,
  "lat": -18.8404925,
  "lon": 47.5305699
},
{
  "type": "node",
  "id": 5564181765,
  "lat": -18.8405083,
  "lon": 47.5305282
},
{
  "type": "node",
  "id": 5564181766,
  "lat": -18.8404813,
  "lon": 47.5305167
},
{
  "type": "node",
  "id": 5479476004,
  "lat": -18.8531797,
  "lon": 47.5598304
},
{
  "type": "node",
  "id": 5479476012,
  "lat": -18.8531613,
  "lon": 47.5597535
},
{
  "type": "node",
  "id": 5530583412,
  "lat": -18.8531316,
  "lon": 47.5596394
},
{
  "type": "node",
  "id": 5530583413,
  "lat": -18.8533108,
  "lon": 47.5596047
},
{
  "type": "node",
  "id": 5530583414,
  "lat": -18.8533262,
  "lon": 47.5596936
},
{
  "type": "node",
  "id": 5530583415,
  "lat": -18.8531470,
  "lon": 47.5597283
},
{
  "type": "node",
  "id": 7281537474,
  "lat": -18.8534869,
  "lon": 47.5596916
},
{
  "type": "node",
  "id": 8758210445,
  "lat": -18.8535357,
  "lon": 47.5599525
},
{
  "type": "node",
  "id": 5530584232,
  "lat": -18.8412978,
  "lon": 47.5920153
},
{
  "type": "node",
  "id": 5530584233,
  "lat": -18.8413524,
  "lon": 47.5920492
},
{
  "type": "node",
  "id": 5530584234,
  "lat": -18.8412918,
  "lon": 47.5921584
},
{
  "type": "node",
  "id": 5530584235,
  "lat": -18.8412372,
  "lon": 47.5921246
},
{
  "type": "node",
  "id": 5553238004,
  "lat": -18.7930083,
  "lon": 47.5142963
},
{
  "type": "node",
  "id": 5553238005,
  "lat": -18.7930317,
  "lon": 47.5143679
},
{
  "type": "node",
  "id": 5553238006,
  "lat": -18.7930005,
  "lon": 47.5143793
},
{
  "type": "node",
  "id": 5553238007,
  "lat": -18.7929771,
  "lon": 47.5143077
},
{
  "type": "node",
  "id": 5564284030,
  "lat": -18.7593491,
  "lon": 47.5652225
},
{
  "type": "node",
  "id": 5564284031,
  "lat": -18.7594158,
  "lon": 47.5651017
},
{
  "type": "node",
  "id": 5564284032,
  "lat": -18.7594121,
  "lon": 47.5654136
},
{
  "type": "node",
  "id": 5564284033,
  "lat": -18.7593342,
  "lon": 47.5654117
},
{
  "type": "node",
  "id": 9997877282,
  "lat": -18.7594181,
  "lon": 47.5653737
},
{
  "type": "node",
  "id": 9999414631,
  "lat": -18.7593819,
  "lon": 47.5651158
},
{
  "type": "node",
  "id": 8508045162,
  "lat": -18.8101475,
  "lon": 47.6656023
},
{
  "type": "node",
  "id": 8508045164,
  "lat": -18.8101700,
  "lon": 47.6656517
},
{
  "type": "node",
  "id": 8508045165,
  "lat": -18.8101980,
  "lon": 47.6656377
},
{
  "type": "node",
  "id": 8508045166,
  "lat": -18.8101745,
  "lon": 47.6655867
},
{
  "type": "node",
  "id": 676825733,
  "lat": -18.1504169,
  "lon": 49.4062752
},
{
  "type": "node",
  "id": 676825735,
  "lat": -18.1507979,
  "lon": 49.4067511
},
{
  "type": "node",
  "id": 5756190193,
  "lat": -18.1502393,
  "lon": 49.4050933
},
{
  "type": "node",
  "id": 5756190194,
  "lat": -18.1503896,
  "lon": 49.4052615
},
{
  "type": "node",
  "id": 676825748,
  "lat": -18.1499761,
  "lon": 49.4074738
},
{
  "type": "node",
  "id": 676825754,
  "lat": -18.1494996,
  "lon": 49.4074290
},
{
  "type": "node",
  "id": 676825755,
  "lat": -18.1496588,
  "lon": 49.4072883
},
{
  "type": "node",
  "id": 676825756,
  "lat": -18.1498136,
  "lon": 49.4074874
},
{
  "type": "node",
  "id": 676826561,
  "lat": -18.1493340,
  "lon": 49.4072164
},
{
  "type": "node",
  "id": 5108964758,
  "lat": -18.1501425,
  "lon": 49.4055060
},
{
  "type": "node",
  "id": 5606494094,
  "lat": -18.1499922,
  "lon": 49.4053378
}

  ]
}
